{"type":"FeatureCollection","name":"Bear Management Area","features":[{"type":"Feature","id":91265,"geometry":{"type":"Polygon","coordinates":[[[-85.33229042322529,49.07464591509679],[-85.33229472461765,49.08401961641006],[-85.33231523115252,49.12793832255715],[-85.33232133312147,49.14114702440401],[-85.33232203315073,49.1413420244312],[-85.33232983347168,49.143478824729456],[-85.33232993347413,49.143495224731744],[-85.33309123372227,49.14350202468387],[-85.3339529340031,49.14350962462966],[-85.33987703593385,49.14356222425706],[-85.34050913613986,49.1435678242173],[-85.44503507019036,49.1444956176319],[-85.44512626963169,49.1405602170765],[-85.44690825874588,49.06367270620966],[-85.51445858074051,49.06446890197863],[-85.51457527986003,49.0583057011086],[-85.51460947987114,49.05830620110647],[-85.51649537459677,49.01875389544545],[-85.58450239674136,49.01974099120779],[-85.58453739675275,49.01974139120562],[-85.58507879641901,49.01632399069205],[-85.5866582835699,48.92632667796421],[-85.63481699920638,48.926906674948356],[-85.64048860104731,48.92697367459271],[-85.64157679564798,48.88813786906492],[-85.58302837672584,48.88795857280204],[-85.56767027175276,48.887857873773726],[-85.56693797151557,48.887853073820054],[-85.5540308673354,48.887766574636046],[-85.55396826763534,48.88993687494555],[-85.55370876887878,48.89892987622784],[-85.55344937012292,48.907922677509646],[-85.55296396996525,48.90791657753993],[-85.5398067656909,48.90775077836092],[-85.53946386557955,48.90774647838232],[-85.52616436125825,48.90757727921158],[-85.51252205682488,48.90740218006171],[-85.49887995239087,48.90722548091121],[-85.4852379479561,48.90704708176009],[-85.4715960435206,48.906867182608465],[-85.4579543390845,48.90668558345621],[-85.44431273464768,48.9065023843034],[-85.43067123021015,48.906317585150006],[-85.4303896314429,48.91530988643444],[-85.43010773267635,48.92430228771853],[-85.4298259339105,48.93329458900219],[-85.42954383514532,48.94228689028545],[-85.4292617363809,48.951279191568375],[-85.4289793376171,48.960271492850865],[-85.41532333317085,48.960084693698875],[-85.40166742872387,48.95989629454628],[-85.38890452456701,48.959718595337755],[-85.38801162427615,48.95970629539317],[-85.38772182550905,48.96869829667623],[-85.38743192674265,48.9776902979589],[-85.3871954277488,48.98502099900431],[-85.38714182797688,48.98668229924122],[-85.3868515292118,48.99567440052314],[-85.3868512292133,48.995685000524645],[-85.38656123044751,49.00466640180462],[-85.3862706316838,49.01365840308573],[-85.38597993292082,49.022650404366495],[-85.38568913415853,49.031642305646834],[-85.38539803539693,49.040634306926755],[-85.385106936636,49.04962630820628],[-85.38483433779648,49.058042709403615],[-85.38483413779714,49.05804790940434],[-85.38481573787584,49.05861820948544],[-85.37113313341261,49.05842581033535],[-85.35745052894859,49.05823191118471],[-85.34509032491542,49.05805531195149],[-85.34376832448406,49.058036412033495],[-85.34337932435709,49.0580308120576],[-85.33586832190586,49.05792251252321],[-85.3330992210021,49.057882612694875],[-85.3323080207439,49.057871212743926],[-85.33228772073726,49.05787091274517],[-85.33228262073557,49.057870812745506],[-85.33228262073693,49.05788001274677],[-85.33228472140999,49.06241661338277],[-85.33229042322529,49.07464591509679]]]},"properties":{"OGF_ID":67872604,"BEAR_MANAGEMENT_IDENT":"WA-21B-053","BEAR_MANAGEMENT_IDENT_SX":1,"LOCATION_ACCURACY":"Within 10 metres","LOCATION_DESCR":null,"VERIFICATION_STATUS_FLG":"Verified","VERIFICATION_STATUS_DATE":1199145600000,"BUSINESS_EFF_DATE_FLG":"Estimated","BUSINESS_EFFECTIVE_DATE":1199145600000,"BUSINESS_EXPIRY_DATE":null,"SYSTEM_CALCULATED_AREA":308992446.611,"SYSTEM_CALCULATED_LENGTH":101880.472,"GEOMETRY_UPDATE_DATETIME":1363978037000,"EFFECTIVE_DATETIME":1368091215000,"OBJECTID":91265}},{"type":"Feature","id":97441,"geometry":{"type":"Polygon","coordinates":[[[-85.0855586334836,49.00906112161139],[-85.08398733898595,49.050001127473536],[-85.08383333952608,49.05401392804767],[-85.0837607397806,49.05590452831811],[-85.08372423990853,49.056854928454094],[-85.08371213995105,49.05717052849927],[-85.19888817739547,49.05743742120582],[-85.20455867923889,49.057456220846916],[-85.2479612933456,49.05760021809773],[-85.2479959932123,49.056622217958264],[-85.24800039319568,49.05649991794076],[-85.24828399209463,49.04842661678927],[-85.24831189198609,49.04763091667572],[-85.24862759076062,49.03863961539287],[-85.24894318953577,49.02964831410959],[-85.24925858831166,49.02065701282595],[-85.24957388708816,49.01166561154187],[-85.24988898586541,49.002674310257426],[-85.25020398464332,48.99368290897256],[-85.26386808910328,48.993889308130285],[-85.27753229356253,48.994094107287395],[-85.29119669802108,48.99429730644391],[-85.30486130247895,48.994498905599826],[-85.31852600693618,48.9946988047552],[-85.3321909113927,48.99489710390991],[-85.3458558158485,48.99509390306413],[-85.35952092030364,48.9952890022177],[-85.37318622475811,48.995482501370724],[-85.3868512292133,48.995685000524645],[-85.3868515292118,48.99567440052314],[-85.38714182797688,48.98668229924122],[-85.3871954277488,48.98502099900431],[-85.38743192674265,48.9776902979589],[-85.38772182550905,48.96869829667623],[-85.38801162427615,48.95970629539317],[-85.38890452456701,48.959718595337755],[-85.40166742872387,48.95989629454628],[-85.41532333317085,48.960084693698875],[-85.4289793376171,48.960271492850865],[-85.4292617363809,48.951279191568375],[-85.42954383514532,48.94228689028545],[-85.4298259339105,48.93329458900219],[-85.43010773267635,48.92430228771853],[-85.4303896314429,48.91530988643444],[-85.43067123021015,48.906317585150006],[-85.44431273464768,48.9065023843034],[-85.4579543390845,48.90668558345621],[-85.4715960435206,48.906867182608465],[-85.4852379479561,48.90704708176009],[-85.49887995239087,48.90722548091121],[-85.51252205682488,48.90740218006171],[-85.52616436125825,48.90757727921158],[-85.53946386557955,48.90774647838232],[-85.5398067656909,48.90775077836092],[-85.55296396996525,48.90791657753993],[-85.55344937012292,48.907922677509646],[-85.55370876887878,48.89892987622784],[-85.55396826763534,48.88993687494555],[-85.5540308673354,48.887766574636046],[-85.56693797151557,48.887853073820054],[-85.56767027175276,48.887857873773726],[-85.56786277081984,48.88111407281212],[-85.56802997001034,48.87525937197706],[-85.56745176987721,48.87562227206527],[-85.56744806987636,48.87562457206584],[-85.56615186957792,48.876438372263586],[-85.5661508695777,48.876438972263706],[-85.56398736907957,48.87779717259377],[-85.56397346907644,48.87780637259592],[-85.55560106722646,48.88359077394747],[-85.55446786696795,48.884318974122664],[-85.55084246613553,48.88661177467803],[-85.5508185661302,48.88662817468186],[-85.54833656560281,48.888486175102656],[-85.5483034655963,48.888514475108764],[-85.54722216540434,48.88958037532813],[-85.54719266539989,48.88961467533487],[-85.54602556526206,48.89123547563791],[-85.54468726497004,48.89218557585744],[-85.54380866474962,48.892614875974225],[-85.54231826416438,48.89191017597066],[-85.54182646380367,48.890541775809524],[-85.54211566382001,48.89001927571745],[-85.54213276381958,48.889978675710644],[-85.54214036381508,48.88993187570357],[-85.54213876381026,48.88990247569951],[-85.541831763381,48.88766417540409],[-85.54201146339075,48.88733677534648],[-85.54322396362073,48.886241175114485],[-85.54324376362425,48.886221475110446],[-85.54327516362815,48.88617917510247],[-85.5432903636284,48.88614747509706],[-85.54386646358998,48.884625374845776],[-85.5438710635895,48.884611974843594],[-85.54387876358504,48.8845651748365],[-85.54387386357652,48.88451827483023],[-85.54385686356434,48.88447257482491],[-85.54384146355567,48.8844473748223],[-85.54365806345761,48.884184174797056],[-85.54364446345059,48.8841663747954],[-85.54360476343203,48.88412737479242],[-85.54355526341105,48.884093474790845],[-85.5434976633884,48.884065774790656],[-85.5434598633742,48.88405247479117],[-85.54219246290717,48.88366077481732],[-85.5428795629496,48.88244367460188],[-85.54279346289701,48.8822753745837],[-85.54091296174447,48.87857557418329],[-85.53837365978123,48.87081567325306],[-85.53763335921253,48.86857737298518],[-85.53783605926003,48.86845567295503],[-85.5378982592732,48.868408672944426],[-85.539651959591,48.8667215725943],[-85.53968545959607,48.86668287258668],[-85.54033965967072,48.865755572414095],[-85.54037555966978,48.86567047239984],[-85.54050835959237,48.86485347227623],[-85.54051065958964,48.864829872272736],[-85.54050575958114,48.86478297226647],[-85.54048865956888,48.864737172261094],[-85.54045975955322,48.86469427225687],[-85.54043795954273,48.86467097225505],[-85.53957545914339,48.86384977219457],[-85.53954735908054,48.8634844721449],[-85.54094475926165,48.861650271796854],[-85.5409839592622,48.86156807178276],[-85.54155785906524,48.85897147138006],[-85.54291585917588,48.85674507097927],[-85.54419415938311,48.85534967070069],[-85.544225559387,48.855307170692676],[-85.54424545938681,48.85526197068504],[-85.54425295938233,48.855215270677945],[-85.54425005937581,48.855177470672835],[-85.5441204592305,48.85447417058201],[-85.54411855922856,48.85446497058079],[-85.54410145921628,48.85441927057547],[-85.5440725592006,48.85437627057127],[-85.5440329591821,48.854337270568294],[-85.54398335916109,48.85430337056674],[-85.54393495914196,48.85427937056641],[-85.54318015885143,48.8539608705699],[-85.54296345874674,48.85372457055049],[-85.54293195869263,48.85342617051041],[-85.54385895862227,48.85091457009699],[-85.54499595884113,48.849907569882156],[-85.54501265884592,48.849903369880515],[-85.54533175893742,48.849825269849056],[-85.54561635902486,48.849795369826595],[-85.54605975916523,48.84977666979556],[-85.54642535928265,48.84977266977156],[-85.54644795928984,48.84977216977005],[-85.54679295939955,48.84976076974635],[-85.54707065949182,48.8497789697311],[-85.54741235960662,48.8498093697135],[-85.54759405966526,48.84980936970186],[-85.54794945977531,48.84977786967466],[-85.54811115982336,48.849749869660315],[-85.54837215989754,48.84968126963396],[-85.54844915991882,48.8496571696256],[-85.5485476599442,48.84961346961312],[-85.54863325996382,48.849559069599984],[-85.54867465997208,48.84952446959245],[-85.54885676000606,48.849355869557016],[-85.54892146001608,48.849281969542446],[-85.5490636600318,48.849076869504394],[-85.5490832600335,48.84904556949874],[-85.54918096003937,48.848870969467875],[-85.54932656006048,48.84869506943376],[-85.54936296006466,48.84864366942416],[-85.54948686007397,48.848435069386824],[-85.54968816010543,48.84820766934189],[-85.54990966015424,48.84805356930595],[-85.55017126021544,48.847895269266836],[-85.550463060286,48.847735169225615],[-85.5507663603593,48.847567769182575],[-85.55107676043745,48.84741816914161],[-85.55139026051918,48.84728586910285],[-85.55140626052328,48.84727886910084],[-85.55173776060839,48.84713006905857],[-85.551800660624,48.84709816905004],[-85.55207786069018,48.84693976900998],[-85.55215296070699,48.84688936899805],[-85.55239006075614,48.84670336895665],[-85.55242846076368,48.846670368949546],[-85.55262466079957,48.846483868910646],[-85.55264806080359,48.846460068905785],[-85.55280286082869,48.84629106887207],[-85.55282806083241,48.846261168866214],[-85.55297416085146,48.84607016882996],[-85.55306846087132,48.84599826881376],[-85.55324926091788,48.84591806879085],[-85.55349786098428,48.845823868761656],[-85.55378076106057,48.84572186872912],[-85.55383406107461,48.84570046872271],[-85.5541012611434,48.84558196868888],[-85.5544269612287,48.845447168649],[-85.55472746131055,48.84534446861525],[-85.55503936139611,48.84524206858083],[-85.5550750614058,48.84522946857677],[-85.55535476148047,48.8451233685439],[-85.55552826153117,48.84508766852774],[-85.5558411616308,48.84507826850632],[-85.5561609617346,48.845082268486394],[-85.55643886182688,48.8450998684711],[-85.55668866191343,48.845140568460835],[-85.5570581620414,48.84519966844546],[-85.55707236204633,48.845201868444846],[-85.55741166216305,48.84525106843007],[-85.5574375621719,48.84525446842886],[-85.55777716228742,48.84529476841281],[-85.55783436230666,48.84529986840987],[-85.55820176242851,48.84532246838946],[-85.5582293624376,48.84532376838789],[-85.5586378625715,48.84533786836368],[-85.55871086259503,48.845337768359016],[-85.55907926271196,48.8453244683335],[-85.55909066271559,48.845323968332686],[-85.55938836280961,48.84530986831166],[-85.55949506284331,48.84530526830415],[-85.55961766288408,48.845313068297386],[-85.55969046290787,48.84531506829303],[-85.5601111630431,48.84531196826562],[-85.56051536317653,48.84533186824251],[-85.56087106329981,48.84538956822785],[-85.5613903634813,48.84548436820793],[-85.56149146351589,48.845497468203284],[-85.56203546369773,48.845540268174474],[-85.562066463708,48.84554226817275],[-85.5625652638725,48.84556626814415],[-85.56314136406327,48.845599368111884],[-85.56355726420317,48.84563796809064],[-85.56407826438071,48.845701968066265],[-85.56458656455935,48.84580106804766],[-85.564625764573,48.84580786804611],[-85.56506956472617,48.84587576802726],[-85.56560806491278,48.845962868004975],[-85.56568956494051,48.84597256800115],[-85.56609776507693,48.84600466797948],[-85.56616546509923,48.84600776797555],[-85.56655256522485,48.84601256795141],[-85.56685796532949,48.84605376793769],[-85.5668972653428,48.84605836793579],[-85.5673322654893,48.84609976791376],[-85.56741666551719,48.84610426790897],[-85.56753516555462,48.84609886790059],[-85.56762386558128,48.84608566789305],[-85.5679254656699,48.84602646786539],[-85.56810346571932,48.84597196784629],[-85.56819756574374,48.84593146783454],[-85.56807476573348,48.84613086787054],[-85.56807026573317,48.84613846787187],[-85.56803736573362,48.84621376788463],[-85.56802476574104,48.846291767896396],[-85.56803286575511,48.846369967906924],[-85.56803756575924,48.846387467909096],[-85.56806616578253,48.84648296792072],[-85.56804176577829,48.846507867925745],[-85.56798956577184,48.84657826793905],[-85.5679566657723,48.84665356795176],[-85.56794406577973,48.84673156796355],[-85.56795216579386,48.846809767974065],[-85.56795816579896,48.84683136797676],[-85.56801156584118,48.8470010679972],[-85.56801416584571,48.84702646800064],[-85.56801996585048,48.84704576800301],[-85.56803706586443,48.84710326801],[-85.56809426591036,48.8472897680326],[-85.56811746592615,48.8473462680391],[-85.56822086598883,48.847545468060545],[-85.56823626599774,48.847572168063294],[-85.56832746604852,48.8477172680779],[-85.56836046606583,48.84776226808213],[-85.56842656609669,48.8478273680871],[-85.56850906613164,48.847883768089744],[-85.56853776614318,48.84789946809012],[-85.56859376616552,48.84792826809059],[-85.56861366617528,48.847951068092534],[-85.5686205661787,48.84795896809317],[-85.56869306622015,48.84808166810585],[-85.56869856622323,48.848090768106765],[-85.56878976627405,48.84823576812133],[-85.56880026627952,48.84825016812269],[-85.56888886585064,48.84514196767891],[-85.56914496461037,48.83615156639505],[-85.56910936459845,48.83614846639688],[-85.50103084250016,48.835283470634565],[-85.50237073634086,48.79031916419884],[-85.51598114075757,48.7904951633537],[-85.5295918451737,48.790669662507966],[-85.543202449589,48.79084246166163],[-85.55681335400368,48.79101366081475],[-85.57007695830502,48.791178959988905],[-85.57042445841768,48.791183259967255],[-85.57067975718122,48.78219005868064],[-85.57093505594557,48.773196957393594],[-85.5845413603562,48.77336475654618],[-85.58479415911988,48.764371555259046],[-85.58504685788422,48.75537825397156],[-85.58529935664926,48.746384952683655],[-85.58555175541503,48.73739165139536],[-85.59914835981967,48.737557650548716],[-85.61274506422357,48.737722049701524],[-85.6129257633207,48.73115404876091],[-85.61299256298742,48.72872864841349],[-85.61318336304919,48.72873094840161],[-85.62658696738931,48.72889144756605],[-85.64018157179054,48.72905254671805],[-85.64020557166825,48.72816444659088],[-85.64030647115283,48.72442094605487],[-85.64013657109784,48.724419146065486],[-85.63451596927959,48.72436094641733],[-85.63450326927548,48.72436084641811],[-85.63450266927539,48.72436124641819],[-85.63417556916946,48.724357446438596],[-85.63090006810646,48.724300546640386],[-85.6288056673613,48.72381684670607],[-85.62758476687915,48.72320854669816],[-85.62605546620243,48.72194884661788],[-85.6250844657736,48.721154546567654],[-85.62318066487046,48.7191706464088],[-85.62185966409287,48.716761746152464],[-85.62093036360132,48.71544614602576],[-85.61951456301013,48.71452054598537],[-85.61834326257174,48.71410174600109],[-85.61642036191243,48.71382674608525],[-85.6133063609134,48.71385234628814],[-85.61096456010529,48.71348224638562],[-85.60606575826542,48.71168674644486],[-85.60223025682511,48.71028184649139],[-85.60109555642222,48.710025246527636],[-85.59937105585595,48.70995024662727],[-85.5976095553302,48.71023474678028],[-85.59608645491453,48.71074694695021],[-85.58519985196301,48.714545348184274],[-85.58441885172783,48.714657548250116],[-85.584381452291,48.718596148810164],[-85.58431235232322,48.71896894886734],[-85.58216425163545,48.718997349008745],[-85.57992925092205,48.71904234915805],[-85.57757595017155,48.71909404931582],[-85.57602094967675,48.719135749421135],[-85.57388924899732,48.71918574956455],[-85.57259924858616,48.719215749651255],[-85.56935264755218,48.719297349870345],[-85.5670159469578,48.72038235017333],[-85.56485424640546,48.72136905045122],[-85.5633392460212,48.72208065064886],[-85.56201924556679,48.72188075070487],[-85.55948264469893,48.72153405081796],[-85.55748924401553,48.721252350905445],[-85.55577764329084,48.7200657508468],[-85.55396764252501,48.71881405078519],[-85.55275844201307,48.7179756507437],[-85.5525109419083,48.717804150735255],[-85.55081594119237,48.716640750678785],[-85.54933764056705,48.7156190506285],[-85.54753923980793,48.71438735056889],[-85.54621593924688,48.71346405052263],[-85.54473423862315,48.71246075047516],[-85.54312423794013,48.711334050418394],[-85.54160593730339,48.71032235037197],[-85.53947763650567,48.70955405039906],[-85.5371559356415,48.70875735043441],[-85.53484263478146,48.70797075047063],[-85.53244263390788,48.70728235052629],[-85.53003763303215,48.70659075058184],[-85.5276009321462,48.70589905063934],[-85.52523083128489,48.70522905069564],[-85.52325263056517,48.704664050741826],[-85.52091422971287,48.70398575079491],[-85.51905092903434,48.703449050837726],[-85.51852842884452,48.703302050850255],[-85.51834592969703,48.70955775174857],[-85.50477442529774,48.70938245258963],[-85.50475692537876,48.70997715267506],[-85.50370743019894,48.74535445775325],[-85.36773148606014,48.74350866615624],[-85.31334486838554,48.742725269501165],[-85.31304396959402,48.75171747079577],[-85.3127427708032,48.760709672089924],[-85.31244147201295,48.769701773383666],[-85.31213997322344,48.77869387467705],[-85.31183837443459,48.78768597597006],[-85.31153667564642,48.796678077262634],[-85.29792587121814,48.7964778780994],[-85.28431516678911,48.796276078935584],[-85.27070476235946,48.79607257977116],[-85.2570943579291,48.79586748060622],[-85.24348415349813,48.79566088144063],[-85.22987404906642,48.79545258227447],[-85.21653854472342,48.79524698309091],[-85.21626414463408,48.79524278310774],[-85.20265444020104,48.79503128394038],[-85.20274163987497,48.79259088358892],[-85.20297563899993,48.78603978264517],[-85.20250393884622,48.78603228267402],[-85.18936853456756,48.78582668347693],[-85.17576153013451,48.785612084308106],[-85.1621548257009,48.785395885138676],[-85.14854812126649,48.78517798596868],[-85.14827962117897,48.785173685985065],[-85.14520453440636,48.88305500004456],[-85.14493783431953,48.88305220006109],[-85.14489973445721,48.88408130020906],[-85.13126643000739,48.883861101042086],[-85.11763332555692,48.88363930187451],[-85.10400052110586,48.88341590270636],[-85.09036771665409,48.88319090353764],[-85.09005621774338,48.89136800471407],[-85.03994600143137,48.8909366078232],[-84.99097668548424,48.89051491085698],[-84.99101808773005,48.90588451303],[-84.9908277876846,48.90599661305791],[-84.99059198762187,48.90609141308621],[-84.99029188752371,48.9060862131044],[-84.99003248744016,48.90609061312142],[-84.98974608734649,48.90608561313882],[-84.98947258725967,48.90609891315795],[-84.98914418715616,48.90612011318168],[-84.98884168706635,48.906177813208956],[-84.9885117869676,48.90623511323787],[-84.98825088688879,48.90627551326011],[-84.98796298679989,48.90630651328266],[-84.98762028669428,48.90634541330979],[-84.98724918658338,48.906411013342534],[-84.98691928648462,48.90646811337144],[-84.98664328640612,48.9065443133996],[-84.98629768631005,48.90665521343718],[-84.9860075862283,48.90674021346747],[-84.98578688616524,48.906799313489834],[-84.98574568615308,48.906807613493584],[-84.98549618608585,48.906902213522734],[-84.98523058602247,48.90705941356175],[-84.98503418597785,48.90719101359274],[-84.98486548594094,48.90731401362083],[-84.98472228591898,48.90748241365371],[-84.98453728588593,48.90766811369164],[-84.98432438584635,48.90787131373385],[-84.98419448583002,48.9080489137672],[-84.98409178582256,48.90822711379889],[-84.98400448581359,48.90836051382327],[-84.98392828581746,48.90855711385586],[-84.98381128580792,48.90875301389104],[-84.98372258580375,48.90892241392056],[-84.98361978579628,48.90910051395228],[-84.98357488579593,48.90919871396903],[-84.98352968579684,48.90930581398703],[-84.98333118575935,48.909491314025786],[-84.98301708565795,48.90949481404612],[-84.98267648554523,48.909479914065514],[-84.982362085445,48.909492314087124],[-84.98211118538251,48.90962291412148],[-84.98189898534059,48.90980811416106],[-84.98175508532096,48.90999451419653],[-84.98156858529259,48.91021611423967],[-84.98141138526732,48.91039331427465],[-84.981281385251,48.91057101430798],[-84.98117678524942,48.9107941143462],[-84.980950985203,48.910979114386635],[-84.98054998509146,48.91110691443006],[-84.98016338498199,48.91121721447003],[-84.97996628493975,48.91136661450363],[-84.97986608492394,48.911481814526276],[-84.97983808491742,48.91149931453047],[-84.97950598482574,48.91161051456718],[-84.9792306847448,48.91166861459282],[-84.97899668467615,48.911718514614634],[-84.97861448455242,48.911720814639075],[-84.97834198446198,48.91170701465436],[-84.97803898437328,48.91177371468292],[-84.97773178429891,48.911948214727026],[-84.97741038422127,48.91213161477324],[-84.9771166841513,48.9123063148165],[-84.97685128408669,48.91245461485429],[-84.97660148402065,48.91255811488465],[-84.97633688395373,48.91268851491981],[-84.97613978391149,48.91283801495343],[-84.9761604839418,48.91300031497508],[-84.97624938399439,48.913163814992586],[-84.97605408394621,48.91326831501973],[-84.97572318385099,48.913352515052544],[-84.97548658379056,48.91346521508341],[-84.97533178375696,48.91357951510937],[-84.97523448373167,48.91362281512165],[-84.97499898366766,48.91370861514862],[-84.97474978359922,48.91379421517649],[-84.97447018353259,48.91396021521763],[-84.9743109835132,48.914182315259126],[-84.97417908350269,48.914404915298924],[-84.97395428345273,48.914562915335466],[-84.97362188336223,48.914683015373456],[-84.97338418330541,48.914822815408236],[-84.9731597832542,48.91497181544353],[-84.97290728319643,48.91513831548298],[-84.97265278314586,48.91535871553023],[-84.97242798309586,48.91551671556678],[-84.97217508303922,48.915692215607585],[-84.97192268298151,48.915858715647055],[-84.97171188293478,48.91600791568149],[-84.97144618287139,48.91616521572052],[-84.97119408281243,48.91632271575873],[-84.97104858279748,48.916545115799366],[-84.97092998279265,48.916776915839655],[-84.97078488277656,48.91699021587902],[-84.97066988275986,48.91713211590633],[-84.97061168275388,48.917221115922594],[-84.9704252827256,48.91744271596573],[-84.9702251826928,48.91766411600968],[-84.97005458266183,48.91783201604422],[-84.9698300826106,48.91798101607944],[-84.96950838253413,48.91817331612699],[-84.9692702824784,48.91832201616307],[-84.96904578242719,48.91847101619829],[-84.96879448236594,48.91861051623388],[-84.9684877822891,48.91876711627542],[-84.96822168222684,48.91893331631576],[-84.96794418215306,48.91904541634911],[-84.96765178207832,48.91918421638721],[-84.96744178202917,48.91931541641902],[-84.96732998200176,48.91937651643472],[-84.96712068195026,48.91948971646397],[-84.96685388189044,48.91967391650685],[-84.96666738186207,48.91989551654996],[-84.96644328180969,48.92003561658394],[-84.96616458173939,48.92017461662119],[-84.96609448172303,48.92021831663184],[-84.96585798249309,48.92604401747092],[-84.97950118695752,48.92628381664329],[-84.99314459142136,48.926522115815104],[-85.00678819588445,48.92675871498638],[-85.01351679808526,48.92687461457739],[-85.01406619826497,48.92688411454399],[-85.01407099826685,48.926886214543984],[-85.01417199829041,48.92682311452872],[-85.01426999831327,48.92676181451383],[-85.01428399831657,48.92675311451175],[-85.01428539831176,48.92671711450652],[-85.0143546983305,48.9266913144985],[-85.01438239833828,48.92668281449557],[-85.01439699833912,48.92665611449085],[-85.01443869835013,48.92663881448578],[-85.01454819838465,48.92663171447786],[-85.01471189843815,48.92663451446792],[-85.01478269845214,48.92657271445467],[-85.01474459842922,48.92650011444681],[-85.01456789836881,48.926479114455006],[-85.01454269835273,48.92642471444896],[-85.01461389836551,48.926353914434436],[-85.01470999839432,48.926337614426025],[-85.01486079844099,48.92632221441431],[-85.01491859844815,48.926242214399394],[-85.01479829839964,48.92617711439777],[-85.01470819835049,48.92604061438416],[-85.01473979834512,48.925933214366985],[-85.01475839833283,48.92580761434807],[-85.01488259836825,48.9257738143354],[-85.01506029842504,48.92576781432333],[-85.01509079842326,48.92568741431005],[-85.01512089842262,48.925615914298035],[-85.01508279839965,48.92554331429018],[-85.01516719841808,48.92548181427612],[-85.01521029842434,48.92542851426587],[-85.01530649845316,48.92541221425751],[-85.01545799849748,48.92537881424322],[-85.01550169850128,48.92530761423034],[-85.01562349854504,48.92533671422677],[-85.01565949857516,48.9254632142424],[-85.01579449862457,48.92550161423928],[-85.01586479863971,48.92544881422739],[-85.01584209861527,48.925331414212195],[-85.01595379864263,48.92527041419655],[-85.01605039867029,48.92524511418685],[-85.01609409867407,48.92517381417401],[-85.01620689869792,48.92508591415441],[-85.01627859870823,48.92499711413738],[-85.01625459868859,48.92491571412738],[-85.01638029871924,48.92484591410956],[-85.0165424987775,48.924884714104756],[-85.01662609879833,48.92484111409334],[-85.01661639878073,48.92474201407995],[-85.01660629876433,48.92465191406782],[-85.01663649876369,48.92458041405581],[-85.01676169879549,48.92451961403927],[-85.0168701988336,48.92453951403529],[-85.01686699884436,48.92462041404692],[-85.01697539888241,48.92464021404282],[-85.01708669891097,48.9245881140284],[-85.01722309895555,48.92459051402015],[-85.01731639899394,48.924646114022096],[-85.01742739902369,48.92460301400902],[-85.0174025990064,48.92453961400159],[-85.01762299907064,48.92448951398061],[-85.01777239912211,48.92451001397401],[-85.01789339916826,48.92455711397303],[-85.0180064991908,48.9244601139522],[-85.01803159920688,48.92451441395827],[-85.01816519926109,48.92458871396032],[-85.01829049929287,48.924527913943834],[-85.01837659930528,48.92442141392331],[-85.01852629935556,48.92443301391549],[-85.01861759940114,48.9245425139252],[-85.0185726994009,48.92464071394189],[-85.0187510994553,48.92461681392726],[-85.01891529950765,48.924610613915966],[-85.01905269954867,48.92458591390381],[-85.01910509957372,48.924640913908306],[-85.01919709961689,48.92473241391542],[-85.01933349966146,48.92473471390713],[-85.019484699707,48.924710413894125],[-85.01960779974594,48.92470351388535],[-85.01970579976886,48.924642213870456],[-85.01985339982629,48.92470771387038],[-85.01991729986288,48.924816713881775],[-85.0200684999084,48.92479241386875],[-85.02015469992088,48.92468591384829],[-85.0202885999738,48.92475111384905],[-85.02043410003847,48.92487061385672],[-85.02069150012919,48.92492001384745],[-85.02082470018455,48.92500331385078],[-85.02091840022172,48.925049913851474],[-85.02093040022686,48.92505821385187],[-85.02097160024438,48.925086813853305],[-85.02115180029284,48.92501791383214],[-85.02131870033563,48.924939813810546],[-85.02149640039241,48.9249338137985],[-85.02154130039267,48.92483561378175],[-85.02172230043875,48.92474871375803],[-85.02182600049234,48.92488551377082],[-85.02201380056553,48.92496971377085],[-85.02224970062828,48.92487481374249],[-85.02250640072141,48.92494211373579],[-85.02271320078118,48.92489171371562],[-85.02288950084272,48.924921713708684],[-85.02308050090522,48.92492501369708],[-85.0233411009852,48.92489351367611],[-85.02345750104682,48.925057413691945],[-85.02346590106923,48.925192513710535],[-85.02355930110767,48.92524811371247],[-85.02373630116685,48.925260113702954],[-85.02374350119277,48.92542221372543],[-85.0239579012773,48.925524813726376],[-85.02424370137341,48.925547713711566],[-85.02462750149232,48.92550931368187],[-85.0248903015652,48.92542381365316],[-85.02516700164125,48.925329613622296],[-85.0253268017079,48.92543131362659],[-85.02534670174198,48.92562061365209],[-85.02522940173375,48.92582551368849],[-85.02507220170853,48.92600281372351],[-85.02513690174277,48.92609381373229],[-85.02543560184571,48.926134913719196],[-85.02577710195608,48.92613181369714],[-85.02617420208067,48.92610251366788],[-85.026450602158,48.92601741363839],[-85.02663330219806,48.92588551360821],[-85.02676310221432,48.925707813574824],[-85.02686220223362,48.92561951355612],[-85.02697490225735,48.92553151353655],[-85.02721320231167,48.92537361349911],[-85.02739730234698,48.92520581346377],[-85.02758390237395,48.92497511341938],[-85.02776870240689,48.924789413381404],[-85.02797900245467,48.92464911334828],[-85.02823720254305,48.924680513336405],[-85.02857220267487,48.92483911333765],[-85.02879670277582,48.92503191335069],[-85.02898170285856,48.92518791336105],[-85.02917160292462,48.92521821335331],[-85.02921970291415,48.92503911332498],[-85.0291306028614,48.92487571330749],[-85.0290540028167,48.92473941329306],[-85.02918070284372,48.924642613271374],[-85.02956410296383,48.92461321324294],[-85.02986680305366,48.92455541321566],[-85.03009830313063,48.92456831320284],[-85.03025670320214,48.92470601321228],[-85.0302608032388,48.924948913246325],[-85.03022470325978,48.92517321328033],[-85.03019030327474,48.92535261330786],[-85.030211603304,48.9255059133282],[-85.03042600338851,48.92560851332914],[-85.03065760346557,48.92562151331635],[-85.03096200354939,48.92551871328252],[-85.03129540363611,48.92537141324062],[-85.03150290369346,48.92530301321787],[-85.03174820377501,48.92531621320417],[-85.03193390385537,48.925454313211965],[-85.0321049039349,48.925619213224465],[-85.03215310397422,48.9257819132444],[-85.03216150399663,48.92591701326299],[-85.0322402040342,48.92599931326961],[-85.03227930405352,48.926045013273644],[-85.03255150414512,48.926067613259576],[-85.03290760425635,48.92603771323282],[-85.03319480434764,48.9260246132128],[-85.0334124044214,48.92604631320211],[-85.03354460448037,48.926156613209336],[-85.03356560451081,48.92631881323097],[-85.0334620045071,48.92652401326651],[-85.03335870450212,48.92672011330075],[-85.03331000451504,48.92691721333173],[-85.03330290453896,48.92709711335758],[-85.03355680464165,48.927236413361214],[-85.03390770477081,48.927341313353836],[-85.03425780490231,48.927464213349054],[-85.03473150507163,48.92757131333421],[-85.03509670520286,48.92765841332346],[-85.03544770533203,48.92776341331607],[-85.03561970540795,48.92790121332465],[-85.03561200543425,48.92809901335313],[-85.03546630542074,48.928330513395046],[-85.03549990545925,48.92852001341973],[-85.03571250554972,48.928667513427115],[-85.0360638056777,48.92876351341843],[-85.036360105789,48.9288675134144],[-85.03636590581975,48.92906561344202],[-85.0363452058392,48.929245113468696],[-85.03660130593472,48.92933041346458],[-85.03691480603857,48.92934481344677],[-85.03738050618428,48.929307713412086],[-85.03776390630439,48.92927821338361],[-85.03808830642227,48.92936471337532],[-85.03831810650529,48.92942261336896],[-85.03840560651292,48.92928021334335],[-85.03837310647086,48.92906371331478],[-85.03847820646982,48.928822613274065],[-85.0385825064711,48.92859941323588],[-85.0387102064945,48.92847561321032],[-85.03876650650635,48.92843161320054],[-85.03899920657983,48.928417613183875],[-85.0391489066301,48.928429113176],[-85.03939200671876,48.92849631317011],[-85.03972860684588,48.92861891316613],[-85.04010500698993,48.92876931316356],[-85.04043000710534,48.92883781315269],[-85.04056750714635,48.92881311314051],[-85.04071830719307,48.92879771312879],[-85.0410504072846,48.92868631309205],[-85.04141670741224,48.928746613077365],[-85.04168430751943,48.92888611308015],[-85.04196380763702,48.929070713088564],[-85.0422563077615,48.92927361309876],[-85.0426309079115,48.929468913102625],[-85.04295280803777,48.92961841310341],[-85.04324730815503,48.92976731310581],[-85.04343380823309,48.929887413111],[-85.04352720827146,48.929942913112896],[-85.04379100839184,48.930181313129886],[-85.04401550849279,48.9303741131429],[-85.04431080860763,48.93050501314278],[-85.04463380873034,48.93062741313962],[-85.0449189088288,48.93066831312734],[-85.04498710885107,48.93066941312316],[-85.0453002089561,48.930692813106674],[-85.04556300902888,48.93060721307792],[-85.04578240909669,48.930584013060766],[-85.04588830914317,48.930666713065754],[-85.04604750921226,48.93078641307261],[-85.04623050930223,48.930996413090696],[-85.0463865093821,48.93119701310914],[-85.04657410945656,48.93129011311043],[-85.04689170954593,48.931196513077104],[-85.04712690961107,48.931119613051386],[-85.04725980966761,48.93121181305599],[-85.04732030971624,48.93141071308025],[-85.04745300977406,48.93151191308618],[-85.04767130984547,48.931515613072854],[-85.0479046099165,48.9314836130536],[-85.04797990996603,48.93165581307318],[-85.04808271002322,48.931819413089734],[-85.04814611006235,48.93194641310368],[-85.04827341013807,48.93218251312898],[-85.04838951020096,48.932355413146055],[-85.04846721024207,48.93246471315661],[-85.04867851033742,48.93264821316915],[-85.04894481044938,48.932823613177064],[-85.04926981056485,48.93289211316617],[-85.04964181067335,48.93280851313083],[-85.04990871073173,48.932615013086576],[-85.05025411082893,48.9325129130503],[-85.05060751094972,48.93255491303387],[-85.05103891111048,48.93269721302666],[-85.05126491120666,48.932853913034485],[-85.05128591123716,48.933016213056085],[-85.05129711125002,48.933079413064306],[-85.05128761128229,48.93332211309921],[-85.05133351133013,48.933547813128236],[-85.05166551147273,48.93378731314101],[-85.05198571160503,48.93398171314819],[-85.05229181173395,48.93418471315751],[-85.05257041185523,48.934396413169814],[-85.0528356119708,48.93459881318159],[-85.05303401205927,48.93476411319237],[-85.05314001210576,48.93484681319735],[-85.05336361221032,48.935066513214245],[-85.05357331231171,48.935295013233244],[-85.05384901244251,48.93557851325585],[-85.05414191256585,48.93577241326471],[-85.05446341269325,48.935930713266735],[-85.05473151279932,48.936061213268204],[-85.05499851290887,48.936218613273525],[-85.05510131296614,48.93638231329017],[-85.05502581296898,48.93657001332142],[-85.05477251291504,48.936763613364796],[-85.05454751286642,48.93693081340268],[-85.0545265128871,48.93711931343062],[-85.05475261298335,48.93727611343847],[-85.05506231310036,48.937389313434835],[-85.05549661325153,48.937459513417295],[-85.0558765133836,48.93751991340178],[-85.05625691351459,48.937571413384944],[-85.05663771364429,48.93761381336681],[-85.05704641378057,48.93763861334444],[-85.05744041391593,48.93769021332678],[-85.05780641404475,48.937759313313386],[-85.05811261417377,48.937962513322695],[-85.05806291419036,48.938186613357466],[-85.05802731421024,48.938401913390166],[-85.0581540142884,48.938655913417996],[-85.05837941438702,48.9388306134284],[-85.05861911448771,48.93898761343541],[-85.05869301454204,48.939195813460174],[-85.05856071453425,48.93943641350251],[-85.05833471448926,48.93963061354426],[-85.05816361446088,48.93981661358137],[-85.05820081448742,48.939916113593036],[-85.05823851451159,48.9399978136022],[-85.05850561462125,48.94015521360755],[-85.05854581463703,48.940173913607644],[-85.05877291472963,48.940303713611556],[-85.05900991483995,48.9405326136289],[-85.05920591493688,48.94076081364871],[-85.05944351504473,48.94097171366345],[-85.0596959151535,48.94115591367347],[-85.06003151528425,48.94130551367333],[-85.06042451542324,48.941384113659595],[-85.0607916155485,48.94142621364227],[-85.0608478155687,48.9414396136406],[-85.06082921557353,48.941513913652265],[-85.06066811612796,48.94567051424947],[-85.03266290959559,48.96318911849627],[-85.03230931079392,48.9721795197876],[-85.03195541199294,48.981169921078475],[-85.03160131319264,48.99016032236904],[-85.04526261766333,48.990392621536195],[-85.0589241221333,48.990623320702795],[-85.07258582660265,48.99085231986876],[-85.0862463310709,48.9910797190342],[-85.0855586334836,49.00906112161139]]]},"properties":{"OGF_ID":67872668,"BEAR_MANAGEMENT_IDENT":"WA-21B-054","BEAR_MANAGEMENT_IDENT_SX":1,"LOCATION_ACCURACY":"Within 10 metres","LOCATION_DESCR":null,"VERIFICATION_STATUS_FLG":"Verified","VERIFICATION_STATUS_DATE":1199145600000,"BUSINESS_EFF_DATE_FLG":"Estimated","BUSINESS_EFFECTIVE_DATE":1199145600000,"BUSINESS_EXPIRY_DATE":null,"SYSTEM_CALCULATED_AREA":874468403.602,"SYSTEM_CALCULATED_LENGTH":199512.814,"GEOMETRY_UPDATE_DATETIME":1363978034000,"EFFECTIVE_DATETIME":1368090945000,"OBJECTID":97441}},{"type":"Feature","id":99777,"geometry":{"type":"Polygon","coordinates":[[[-85.70411571585873,48.888392565075094],[-85.70522541621725,48.88839716500425],[-85.7052283162182,48.888397165004044],[-85.71214771845362,48.88842536456214],[-85.71214791845367,48.88842536456213],[-85.71857402052969,48.88845146415167],[-85.71858632053365,48.88845156415084],[-85.72438722240754,48.88847516378024],[-85.72442702225068,48.8873307636169],[-85.72442752224899,48.88731786361506],[-85.72479162081717,48.87686336212237],[-85.72486132040972,48.87396056170983],[-85.73172352263299,48.87403636127821],[-85.73195082137431,48.86504275999916],[-85.73244142153324,48.865048059968295],[-85.74558272578973,48.86519175914149],[-85.74560362567264,48.864355459022555],[-85.74577792469576,48.85737875803032],[-85.74580742453051,48.85619805786236],[-85.74603212327199,48.84720435658284],[-85.75965932768406,48.847351755725256],[-85.75988132642487,48.83835795444571],[-85.7600957252096,48.82967265320964],[-85.76010332516643,48.82936405316572],[-85.77372572957513,48.829509752308255],[-85.77852143112705,48.82956045200619],[-85.78734823398312,48.82965375145016],[-85.7875652327228,48.82065995017051],[-85.7877595315939,48.8126003490234],[-85.7877821314631,48.811665948890386],[-85.80103183574874,48.81180444805565],[-85.8013999358678,48.81180834803243],[-85.80161423460747,48.80281424675229],[-85.8018284333479,48.793820245471785],[-85.81544143774919,48.793960844613856],[-85.81544593772315,48.79377454458734],[-85.81565173649777,48.78502894334214],[-85.81565323648908,48.784966843333294],[-85.82044663803846,48.785015743031074],[-85.82926384088834,48.7851058424752],[-85.84287464528691,48.785243241616556],[-85.85648554968478,48.78537904075725],[-85.85662754973065,48.7853804407483],[-85.85718084990944,48.78538584071331],[-85.87009655408195,48.78551303989739],[-85.88370765847839,48.78564573903701],[-85.8973188628741,48.785776738176054],[-85.91093016726913,48.785905937314475],[-85.91095386711477,48.78481203715898],[-85.91170796219872,48.74992833219767],[-85.91188516104364,48.74172093102951],[-85.91190226093298,48.740933930917464],[-85.89830305654445,48.7408047317773],[-85.88470405215531,48.740674032636576],[-85.87110504776541,48.74054163349525],[-85.85750614337483,48.74040763435343],[-85.84390743898356,48.74027203521094],[-85.83030873459154,48.740134936067946],[-85.81671013019879,48.73999613692434],[-85.80311172580538,48.73985573778021],[-85.78951352141125,48.73971383863545],[-85.77591511701638,48.73957023949014],[-85.77164621563654,48.73952463975829],[-85.76231711262088,48.73942504034424],[-85.74871900822458,48.7392782411978],[-85.73512110382765,48.73912984205077],[-85.72152329942998,48.738979842903134],[-85.70792559503161,48.73882824375496],[-85.70769509627777,48.74782204504022],[-85.70746429752457,48.75681574632512],[-85.70723349877208,48.765809547609614],[-85.70700270002034,48.77480324889371],[-85.70677160126924,48.78379695017742],[-85.70654040251881,48.792790651460685],[-85.70630930376926,48.8017843527436],[-85.70607780502023,48.81077805402614],[-85.70584630627198,48.81977165530824],[-85.70561460752444,48.82876535658992],[-85.70538290877754,48.83775885787126],[-85.70515121003147,48.84675245915216],[-85.70491921128598,48.85574606043267],[-85.70468711254124,48.86473966171281],[-85.70445501379724,48.87373326299254],[-85.70422261505392,48.882726764271844],[-85.70411161565472,48.88702446488304],[-85.70411601581591,48.88810316503441],[-85.70411561584794,48.88832006506491],[-85.70411571585873,48.888392565075094]]]},"properties":{"OGF_ID":67872596,"BEAR_MANAGEMENT_IDENT":"TR-21B-038","BEAR_MANAGEMENT_IDENT_SX":1,"LOCATION_ACCURACY":"Within 10 metres","LOCATION_DESCR":null,"VERIFICATION_STATUS_FLG":"Verified","VERIFICATION_STATUS_DATE":1199145600000,"BUSINESS_EFF_DATE_FLG":"Estimated","BUSINESS_EFFECTIVE_DATE":1199145600000,"BUSINESS_EXPIRY_DATE":null,"SYSTEM_CALCULATED_AREA":127424409.948,"SYSTEM_CALCULATED_LENGTH":63233.9,"GEOMETRY_UPDATE_DATETIME":1363085581000,"EFFECTIVE_DATETIME":1368091306000,"OBJECTID":99777}},{"type":"Feature","id":103089,"geometry":{"type":"Polygon","coordinates":[[[-85.76463648181331,49.19824370444649],[-85.76686996896052,49.108311291791566],[-85.90386141342272,49.10969328307899],[-85.9028846198119,49.15399858930118],[-85.90286991990766,49.154661889394255],[-85.91658202435664,49.1547913885181],[-85.93029432880485,49.15491918764128],[-85.94400663325234,49.15504528676396],[-85.9577190376991,49.15516988588602],[-85.97143154214513,49.15529278500751],[-85.97161764083992,49.14629888374698],[-85.97180363953544,49.137304982486036],[-85.97198953823172,49.12831108122471],[-85.97217533692871,49.119317079963004],[-85.97236103562643,49.110323178700895],[-85.97236103562626,49.11032207870071],[-86.04086335781183,49.11091217430816],[-86.10891837983323,49.11145696992991],[-86.1091212798989,49.111458569916856],[-86.10936797997869,49.111460469900926],[-86.10937567991579,49.111030469840756],[-86.11086326776388,49.027711758162084],[-86.11097356686277,49.02151585729224],[-86.10966166643894,49.021505757376595],[-86.10913666626936,49.02150175741036],[-86.0425924447628,49.02096946168218],[-86.04344133835907,48.976642855445036],[-86.04345363826594,48.97599755535419],[-86.04431273178751,48.93102524901623],[-86.1125710538211,48.93156984464356],[-86.11273045252103,48.9225752433765],[-86.11288965122164,48.91358054210907],[-86.11304874992301,48.9045858408412],[-86.11320784862517,48.895591139572915],[-86.11336684732801,48.88659643830421],[-86.11352584603162,48.8776017370352],[-86.11368464473594,48.8686069357657],[-86.113843443441,48.85961213449583],[-86.1140021421468,48.85061733322559],[-86.11416074085328,48.84162253195494],[-86.11538974124937,48.84163193187621],[-86.18229856280261,48.84212542758528],[-86.18375874984285,48.752174914873855],[-86.04772910605695,48.75113182356426],[-85.95251337536374,48.75030612961362],[-85.95232637663425,48.75930083089243],[-85.95213917790535,48.76829533217079],[-85.95195197917727,48.7772898334488],[-85.9517646804499,48.7862844347264],[-85.95157738172321,48.79527893600362],[-85.95138988299729,48.804273437280386],[-85.95120218427205,48.8132679385568],[-85.95101458554757,48.82226233983275],[-85.95082678682374,48.83125684110839],[-85.9506388881007,48.84025124238359],[-85.9504508893783,48.84924564365839],[-85.95000078923297,48.849241543686986],[-85.93682238497628,48.84912084452402],[-85.93663838620931,48.857805245754825],[-85.93663758621403,48.85783874575962],[-85.93663178625333,48.85811524579878],[-85.92300068184917,48.857988746664226],[-85.92280778312568,48.86698314793895],[-85.9226146844029,48.875977449213224],[-85.9215116840464,48.87596704928324],[-85.90897887999536,48.87584925007874],[-85.89534327558718,48.87571945094367],[-85.88170777117827,48.87558805180806],[-85.86823946682269,48.87545665266129],[-85.86807236676864,48.875455052671875],[-85.86827516549675,48.86646105139626],[-85.86847796422556,48.85746675012015],[-85.8686805629551,48.84847264884372],[-85.86888326168538,48.839478447566904],[-85.86908496042123,48.83051894629456],[-85.86908576041637,48.83048434628965],[-85.86928805914806,48.821490145012],[-85.85566735474558,48.8213557458732],[-85.85587205347935,48.81236164459478],[-85.85607665221374,48.80336744331603],[-85.85628115094894,48.79437324203685],[-85.85648554968478,48.78537904075725],[-85.84287464528691,48.785243241616556],[-85.82926384088834,48.7851058424752],[-85.82044663803846,48.785015743031074],[-85.81565323648908,48.784966843333294],[-85.81565173649777,48.78502894334214],[-85.81544593772315,48.79377454458734],[-85.81544143774919,48.793960844613856],[-85.8018284333479,48.793820245471785],[-85.80161423460747,48.80281424675229],[-85.8013999358678,48.81180834803243],[-85.80103183574874,48.81180444805565],[-85.7877821314631,48.811665948890386],[-85.7877595315939,48.8126003490234],[-85.7875652327228,48.82065995017051],[-85.78734823398312,48.82965375145016],[-85.77852143112705,48.82956045200619],[-85.77372572957513,48.829509752308255],[-85.76010332516643,48.82936405316572],[-85.7600957252096,48.82967265320964],[-85.75988132642487,48.83835795444571],[-85.75965932768406,48.847351755725256],[-85.74603212327199,48.84720435658284],[-85.74580742453051,48.85619805786236],[-85.74577792469576,48.85737875803032],[-85.74560362567264,48.864355459022555],[-85.74558272578973,48.86519175914149],[-85.73244142153324,48.865048059968295],[-85.73195082137431,48.86504275999916],[-85.73172352263299,48.87403636127821],[-85.72486132040972,48.87396056170983],[-85.72479162081717,48.87686336212237],[-85.72442752224899,48.88731786361506],[-85.72442702225068,48.8873307636169],[-85.72438722240754,48.88847516378024],[-85.71858632053365,48.88845156415084],[-85.71857402052969,48.88845146415167],[-85.71214781845367,48.88842536456214],[-85.7052283162182,48.888397165004044],[-85.70522541621725,48.88839716500425],[-85.70411571585873,48.888392565075094],[-85.7040015158218,48.88839216508235],[-85.70389431578717,48.888391665089195],[-85.6675367040388,48.8882435674096],[-85.66740310399558,48.88824306741814],[-85.6431325961509,48.88814416896574],[-85.64312989615004,48.888144168965916],[-85.64165729567402,48.888138169059786],[-85.64165659567381,48.88813816905983],[-85.64157679564798,48.88813786906492],[-85.64048860104731,48.92697367459271],[-85.63481699920638,48.926906674948356],[-85.5866582835699,48.92632667796421],[-85.58507879641901,49.01632399069205],[-85.58453739675275,49.01974139120562],[-85.58450239674136,49.01974099120779],[-85.51649537459677,49.01875389544545],[-85.51460947987114,49.05830620110647],[-85.51457527986003,49.0583057011086],[-85.51445858074051,49.06446890197863],[-85.44690825874588,49.06367270620966],[-85.44512626963169,49.1405602170765],[-85.44503507019036,49.1444956176319],[-85.33232993347413,49.143495224731744],[-85.33234783421062,49.14839842541602],[-85.33237003512532,49.15448602626544],[-85.33237673540216,49.15632792652239],[-85.33241243687162,49.166100927885516],[-85.33241413693968,49.16655352794864],[-85.33249404023486,49.18844713100057],[-85.3325099408925,49.192812931608884],[-85.36869485272206,49.19333422935716],[-85.36964545303276,49.19334772929793],[-85.49880899521581,49.19511482122685],[-85.72519966898662,49.19783470695201],[-85.72528726901223,49.19781630694372],[-85.76463648181331,49.19824370444649]],[[-85.9890648009776,48.84375634038402],[-85.9780264983401,48.84987654195887],[-85.97799399828067,48.849547941914885],[-85.9778613982111,48.849366841898046],[-85.9777272981544,48.84927594189401],[-85.97765889812554,48.84922954189193],[-85.97748509805072,48.84910264188538],[-85.9772157979397,48.8489383418798],[-85.97702679786524,48.84884664187921],[-85.97683809778962,48.848746041877334],[-85.97662199770507,48.84864514187719],[-85.9764059976206,48.84854424187702],[-85.97619009753485,48.84843444187563],[-85.9759747974452,48.8482975418704],[-85.97593469742691,48.84826124186794],[-85.97558579727408,48.84798824185219],[-85.97545269720837,48.847834141839236],[-85.97536219714297,48.847590441810915],[-85.97520269706202,48.84739114179325],[-85.97500239696785,48.84719144177823],[-85.97480089688136,48.84704564177087],[-85.97455779678675,48.846935541771145],[-85.97421889666398,48.846842541780084],[-85.97387989654247,48.846758641790295],[-85.97363619645174,48.846675441794424],[-85.97341999636852,48.84658354179559],[-85.97317729627142,48.84645544179337],[-85.97298909619192,48.846327841787605],[-85.97291169613479,48.84611124176224],[-85.97287429609727,48.84594004174064],[-85.97276679605183,48.84586704173739],[-85.97265719602042,48.84589304174813],[-85.97258829600356,48.84592844175758],[-85.97246469597037,48.84597234177178],[-85.97228739591444,48.84597974178428],[-85.97209619585543,48.845996041798976],[-85.97186309579087,48.846065941823895],[-85.97157639570233,48.84609034184594],[-85.97123489559745,48.846123341872676],[-85.9708923955002,48.846210241907066],[-85.97061739542883,48.846324741941025],[-85.97024619533306,48.84648334198732],[-85.96983309523047,48.84668654204261],[-85.96950179515433,48.84689044209275],[-85.96918499507612,48.84704954213564],[-85.96892259501685,48.847218142176324],[-85.96861849495342,48.84744884222838],[-85.96858779494762,48.84747644223426],[-85.96854069493911,48.84752064224349],[-85.96591939278503,48.83871044117688],[-85.96594969278763,48.83866224116811],[-85.96604699280564,48.83857314114932],[-85.96617329281963,48.83839434111603],[-85.96631289284065,48.83823374108441],[-85.96641199284586,48.83805464105287],[-85.9664701928379,48.83787524102387],[-85.96655519284121,48.83771414099579],[-85.96662399285488,48.83765724098334],[-85.96666659286264,48.83761714097492],[-85.96666989283962,48.83745524095201],[-85.96667149282892,48.83738014094136],[-85.96667249282169,48.83732934093417],[-85.96667459280766,48.83723044092014],[-85.96663739276887,48.83705014089723],[-85.96657239272514,48.836896640879885],[-85.96654829269464,48.83674344085991],[-85.96657999267272,48.83652784082761],[-85.96662249267439,48.836447240813555],[-85.96666429268122,48.83640264080456],[-85.96640399260792,48.836472340831264],[-85.9662531925659,48.83651594084713],[-85.96606209250689,48.836532240861835],[-85.96584329244156,48.83656624088075],[-85.9657068923989,48.83657404089068],[-85.96555719234921,48.836563640898916],[-85.96535339227938,48.83653484090808],[-85.96534009227244,48.83651674090645],[-85.96525979223581,48.836444040901405],[-85.96511129217849,48.83637974090204],[-85.96502009214855,48.836375540907326],[-85.96502019214839,48.836374440907214],[-85.96830909175996,48.826652139328814],[-85.97261849181047,48.81767203778818],[-85.9790982939017,48.81772963737628],[-85.99572920226697,48.838027939147764],[-85.99560530221876,48.83797183914792],[-85.99548360217285,48.837925839149364],[-85.99547050216461,48.83789873914639],[-85.99515770205963,48.83786903916254],[-85.99495270199748,48.83789423917938],[-85.99481510196377,48.837964939198194],[-85.99458140190305,48.838061939227],[-85.99425390180141,48.8380860392516],[-85.99398100171597,48.83810163927154],[-85.99374790165145,48.838171539296454],[-85.99351500158569,48.838232539320124],[-85.99321400149789,48.838292839348114],[-85.9931030014768,48.8383908393691],[-85.9932929015448,48.838437539363305],[-85.99349450163,48.8385742393694],[-85.99370880172725,48.83876493938227],[-85.99394970183714,48.838982939397255],[-85.9940960019112,48.83916413941318],[-85.99425570199085,48.83935453942955],[-85.99444330207551,48.83951803944031],[-85.99472720218323,48.83962853943741],[-85.99506700229959,48.839676439422036],[-85.99528320238272,48.83976823942092],[-85.99549820247492,48.83992303942872],[-85.995701102563,48.84007683943714],[-85.9890648009776,48.84375634038402]]]},"properties":{"OGF_ID":72770304,"BEAR_MANAGEMENT_IDENT":"TR-21B-032","BEAR_MANAGEMENT_IDENT_SX":1,"LOCATION_ACCURACY":"Within 100 metres","LOCATION_DESCR":null,"VERIFICATION_STATUS_FLG":"Verified","VERIFICATION_STATUS_DATE":1328745600000,"BUSINESS_EFF_DATE_FLG":"Actual","BUSINESS_EFFECTIVE_DATE":1328745600000,"BUSINESS_EXPIRY_DATE":null,"SYSTEM_CALCULATED_AREA":1576095511.504,"SYSTEM_CALCULATED_LENGTH":272802.013,"GEOMETRY_UPDATE_DATETIME":1363978034000,"EFFECTIVE_DATETIME":1368091003000,"OBJECTID":103089}},{"type":"Feature","id":107521,"geometry":{"type":"Polygon","coordinates":[[[-85.64157679564798,48.88813786906492],[-85.64165659567381,48.88813816905983],[-85.64165729567402,48.888138169059786],[-85.64312989615004,48.888144168965916],[-85.6431325961509,48.88814416896574],[-85.66740310399558,48.88824306741814],[-85.6675367040388,48.8882435674096],[-85.70389431578717,48.888391665089195],[-85.7040015158218,48.88839216508235],[-85.70411571585873,48.888392565075094],[-85.70411561584794,48.88832006506491],[-85.70411601581591,48.88810316503441],[-85.70411161565472,48.88702446488304],[-85.70422261505392,48.882726764271844],[-85.70445501379724,48.87373326299254],[-85.70468711254124,48.86473966171281],[-85.70491921128598,48.85574606043267],[-85.70515121003147,48.84675245915216],[-85.70538290877754,48.83775885787126],[-85.70561460752444,48.82876535658992],[-85.70584630627198,48.81977165530824],[-85.70607780502023,48.81077805402614],[-85.70630930376926,48.8017843527436],[-85.70654040251881,48.792790651460685],[-85.70677160126924,48.78379695017742],[-85.70700270002034,48.77480324889371],[-85.70723349877208,48.765809547609614],[-85.70746429752457,48.75681574632512],[-85.70769509627777,48.74782204504022],[-85.70792559503161,48.73882824375496],[-85.69432809063258,48.7386750446062],[-85.6807305862328,48.73852024545683],[-85.66713338183239,48.73836374630691],[-85.65353607743118,48.73820574715642],[-85.63995477303448,48.738046348004396],[-85.63993917302854,48.73804004800453],[-85.63996697288724,48.737014147857685],[-85.64018157179054,48.72905254671805],[-85.62658696738931,48.72889144756605],[-85.61318336304919,48.72873094840161],[-85.61299256298742,48.72872864841349],[-85.6129257633207,48.73115404876091],[-85.61274506422357,48.737722049701524],[-85.59914835981967,48.737557650548716],[-85.58555175541503,48.73739165139536],[-85.58529935664926,48.746384952683655],[-85.58504685788422,48.75537825397156],[-85.58479415911988,48.764371555259046],[-85.5845413603562,48.77336475654618],[-85.57093505594557,48.773196957393594],[-85.57067975718122,48.78219005868064],[-85.57042445841768,48.791183259967255],[-85.57007695830502,48.791178959988905],[-85.55681335400368,48.79101366081475],[-85.543202449589,48.79084246166163],[-85.5295918451737,48.790669662507966],[-85.51598114075757,48.7904951633537],[-85.50237073634086,48.79031916419884],[-85.50103084250016,48.835283470634565],[-85.56910936459845,48.83614846639688],[-85.56914496461037,48.83615156639505],[-85.56888886585064,48.84514196767891],[-85.56880026627952,48.84825016812269],[-85.5688227662913,48.848280768125555],[-85.56888896632223,48.84834586813053],[-85.56892836633926,48.84837526813215],[-85.56907766640255,48.848477568136985],[-85.56921906646794,48.84861206814687],[-85.56924956648174,48.84863886814869],[-85.5694525665716,48.848804168158956],[-85.5695690666246,48.84890886816625],[-85.56977326673685,48.849223868197555],[-85.5698048667533,48.849266368201526],[-85.56989716679917,48.84937546821097],[-85.5699619668294,48.84943876821575],[-85.5700443668643,48.84949516821842],[-85.57011556689251,48.84953096821887],[-85.57026366694984,48.84959576821852],[-85.57030416696486,48.849608868217764],[-85.57032236697636,48.84964716822203],[-85.57007766691007,48.84973316824979],[-85.57004296690067,48.84974546825379],[-85.56976726682711,48.849849968286165],[-85.56967876680444,48.84989006829751],[-85.56959316678486,48.849944468310696],[-85.56953586677369,48.8499944683214],[-85.56939556674935,48.850136668350395],[-85.5693828667472,48.85014996835313],[-85.56933066674075,48.85022036836637],[-85.56929776674123,48.85029576837911],[-85.56928516674864,48.850373668390915],[-85.56929326676276,48.850451868401386],[-85.56929716676613,48.850466468403226],[-85.56934676680743,48.85063806842422],[-85.56937146682449,48.85069956843132],[-85.56941966685058,48.850771168438264],[-85.56943716685913,48.85079086843998],[-85.56958266692884,48.85094556845243],[-85.56969946698025,48.85103886845811],[-85.56994066707973,48.85118576846329],[-85.56996156708826,48.85119796846369],[-85.57025666720789,48.85136356846811],[-85.57034156724127,48.85140426846837],[-85.57057066732888,48.85149706846677],[-85.57068596737157,48.85153436846467],[-85.57081906741941,48.851567668460824],[-85.57092416745944,48.85160896845986],[-85.57119006756477,48.85174166846156],[-85.57127446759732,48.85177776846124],[-85.57157836771151,48.85188716845713],[-85.57182276780401,48.85197986845451],[-85.57210086791169,48.85210156845383],[-85.57222386795767,48.852144168451936],[-85.57261626809954,48.852247968441425],[-85.57262496810269,48.85225016844115],[-85.57281626817155,48.852298768435745],[-85.57301076825026,48.85240676843851],[-85.57301946825378,48.8524114684386],[-85.57332826837781,48.85257726844214],[-85.57338876840163,48.85260626844237],[-85.57367156851059,48.85272666844118],[-85.57368676851644,48.852732968441074],[-85.57400516863804,48.85286086843868],[-85.57437726878102,48.853016368436734],[-85.57443546880295,48.853038068436106],[-85.57477306892842,48.853150168430204],[-85.57514366906624,48.85327396842388],[-85.57543476917691,48.8533873684212],[-85.57583866933044,48.85354506841751],[-85.57588846934911,48.853562668416785],[-85.5762264694741,48.853670668410345],[-85.5766315696261,48.85381506840469],[-85.5766829696451,48.85383166840372],[-85.57707516978829,48.85394446839448],[-85.57712756980719,48.853957868393],[-85.57743136991526,48.85402616838316],[-85.57755276995996,48.854063568380624],[-85.57765397000122,48.85412216838239],[-85.57769737001867,48.85414536838291],[-85.57779147005586,48.85419156838337],[-85.57784607007703,48.85421576838326],[-85.57795287011653,48.85425016838126],[-85.57806707015656,48.854271868376976],[-85.57818507019591,48.854280168370565],[-85.57830367023334,48.85427476836224],[-85.57841897026778,48.854255968352184],[-85.57844977027655,48.85424766834903],[-85.57849067029034,48.854251768347005],[-85.57870297036287,48.854279168337214],[-85.57886497041842,48.85430156833],[-85.57889687043067,48.85431476832977],[-85.57890667043442,48.85431876832977],[-85.57901337047392,48.85435316832776],[-85.57912747051395,48.85437486832349],[-85.57924567055329,48.85438316831708],[-85.57933577058198,48.8543803683109],[-85.57943117061173,48.85437316830373],[-85.57960847067253,48.85439776829584],[-85.57962387067778,48.854399768295124],[-85.57991007077531,48.85443486828171],[-85.58019687087656,48.85449386827166],[-85.58031447091702,48.854510768266486],[-85.58066787103537,48.85454016824796],[-85.58092587112387,48.85457586823645],[-85.58096117113591,48.85458016823479],[-85.5812602712369,48.85461076821993],[-85.58140657128482,48.85461526821117],[-85.58166957136808,48.854604668192806],[-85.5818642714341,48.85462636818337],[-85.58190357144734,48.85462996818135],[-85.58216397153414,48.8546488681673],[-85.5824515716333,48.85469206815492],[-85.5824737716409,48.85469516815395],[-85.58259337168175,48.854710368148424],[-85.58079997175595,48.85914156888775],[-85.57951177181664,48.86237396942575],[-85.57699627172167,48.867237270272064],[-85.57539877157998,48.86977357073179],[-85.57460367145393,48.870659170907516],[-85.56992037044554,48.87407257168867],[-85.56802997001034,48.87525937197706],[-85.56786277081984,48.88111407281212],[-85.56767027175276,48.887857873773726],[-85.58302837672584,48.88795857280204],[-85.64157679564798,48.88813786906492]]]},"properties":{"OGF_ID":67872595,"BEAR_MANAGEMENT_IDENT":"WA-21B-052","BEAR_MANAGEMENT_IDENT_SX":1,"LOCATION_ACCURACY":"Within 10 metres","LOCATION_DESCR":null,"VERIFICATION_STATUS_FLG":"Verified","VERIFICATION_STATUS_DATE":1199145600000,"BUSINESS_EFF_DATE_FLG":"Estimated","BUSINESS_EFFECTIVE_DATE":1199145600000,"BUSINESS_EXPIRY_DATE":null,"SYSTEM_CALCULATED_AREA":188190110.921,"SYSTEM_CALCULATED_LENGTH":66403.469,"GEOMETRY_UPDATE_DATETIME":1363085581000,"EFFECTIVE_DATETIME":1368090870000,"OBJECTID":107521}}]}