{"type":"FeatureCollection","name":"Crown Land \u2013 MNR Non-Freehold Dispositions","features":[{"type":"Feature","geometry":{"type":"Polygon","coordinates":[[[-85.59805188718404,48.92588447716965],[-85.59941218761472,48.92582637707406],[-85.59921768748806,48.92539527702605],[-85.59785558705684,48.92545367712181],[-85.59805188718404,48.92588447716965]]]},"properties":{"CLASS_SUBTYPE":"Crown Disposition Land Use Permit","PURPOSE_OF_DISPOSITION":"Commercial Outpost Camp","SITE_NAME":"612372 Ontario Limited / Northland Enterprises","LOCATION_DESCR":"South Shore of Pickle Lake","AREA_IN_HA":0.5}}]}