{"type":"FeatureCollection","name":"Fishing Access Point","features":[{"type":"Feature","id":19217,"geometry":{"type":"Point","coordinates":[-85.64526209999997,48.91311770000004]},"properties":{"OGF_ID":103605696,"FISHING_ACCESS_POINT_TYPE":"Boat Launch","SITE_LAST_VERIFICATION_DATE":null,"VERIFICATION_DATE_SOURCE":null,"PARKING_PRESENCE_FLG":"Unknown","SITE_OWNERSHIP_TYPE":"Unknown","MATERIAL_TYPE":"Unknown","ACCESSIBILITY_FLG":"Unknown","USER_FEE_FLG":"Unknown","VISIBILITY_IND":"No","SITE_NAME":null,"SITE_PHOTO_URL":null,"SITE_PHOTO_DATE":null,"ADDITIONAL_INFORMATION_URL":null,"GENERAL_COMMENTS":"RECREATION_POINT.OGF_ID = 68076606","GEOMETRY_UPDATE_DATETIME":1358489904000,"EFFECTIVE_DATETIME":1358440901000,"SYSTEM_DATETIME":1358852555000,"OBJECTID":19217}},{"type":"Feature","id":34993,"geometry":{"type":"Point","coordinates":[-85.62051329999997,48.98495940000004]},"properties":{"OGF_ID":103605045,"FISHING_ACCESS_POINT_TYPE":"Boat Launch","SITE_LAST_VERIFICATION_DATE":null,"VERIFICATION_DATE_SOURCE":null,"PARKING_PRESENCE_FLG":"Unknown","SITE_OWNERSHIP_TYPE":"Unknown","MATERIAL_TYPE":"Unknown","ACCESSIBILITY_FLG":"Unknown","USER_FEE_FLG":"Unknown","VISIBILITY_IND":"No","SITE_NAME":null,"SITE_PHOTO_URL":null,"SITE_PHOTO_DATE":null,"ADDITIONAL_INFORMATION_URL":null,"GENERAL_COMMENTS":"RECREATION_POINT.OGF_ID = 68085773","GEOMETRY_UPDATE_DATETIME":1358489858000,"EFFECTIVE_DATETIME":1358440822000,"SYSTEM_DATETIME":1358852555000,"OBJECTID":34993}}]}