{"type":"FeatureCollection","name":"Provincial Park Regulated","features":[{"type":"Feature","geometry":{"type":"Polygon","coordinates":[[[-85.54499595884113,48.849907569882156],[-85.54385895862227,48.85091457009699],[-85.54293195869263,48.85342617051041],[-85.54296345874674,48.85372457055049],[-85.54318015885143,48.8539608705699],[-85.54393495914196,48.85427937056641],[-85.54398335916109,48.85430337056674],[-85.5440328591821,48.8543372705683],[-85.5440725592006,48.85437627057127],[-85.54410145921628,48.85441927057547],[-85.54411855922856,48.85446497058079],[-85.54412055923056,48.854474170582],[-85.54425005937581,48.855177470672835],[-85.54425295938233,48.855215270677945],[-85.54424545938681,48.85526197068504],[-85.54422565938705,48.855307170692676],[-85.54419415938311,48.85534967070069],[-85.54291585917588,48.85674507097927],[-85.54155785906524,48.85897147138006],[-85.5409840592622,48.861568071782756],[-85.54094475926165,48.861650271796854],[-85.53954735908054,48.8634844721449],[-85.53957545914339,48.86384977219457],[-85.54043795954273,48.86467097225505],[-85.54045975955322,48.86469427225687],[-85.5404886595689,48.86473727226108],[-85.54050575958114,48.86478297226647],[-85.54051065958964,48.864829872272736],[-85.54050835959237,48.86485347227623],[-85.54037555966978,48.86567047239984],[-85.54033965967072,48.865755572414095],[-85.53968545959607,48.86668287258668],[-85.539651959591,48.8667215725943],[-85.5378982592732,48.868408672944426],[-85.5378361592601,48.86845567295502],[-85.53763335921253,48.86857737298518],[-85.53837365978123,48.87081567325306],[-85.54091296174447,48.87857557418329],[-85.54279346289701,48.8822753745837],[-85.5428795629496,48.88244367460188],[-85.54219246290717,48.88366077481732],[-85.5434598633742,48.88405247479117],[-85.5434976633884,48.884065774790656],[-85.54355526341105,48.884093474790845],[-85.54360476343203,48.88412737479242],[-85.54364446345059,48.8841663747954],[-85.54365806345761,48.884184174797056],[-85.54384146355567,48.8844473748223],[-85.5438567635643,48.88447257482492],[-85.54387386357652,48.88451827483023],[-85.54387876358504,48.8845651748365],[-85.5438711635895,48.88461197484359],[-85.54386656358997,48.884625374845776],[-85.5432903636284,48.88614747509706],[-85.54327516362815,48.88617917510247],[-85.54324376362425,48.886221475110446],[-85.54322396362073,48.886241175114485],[-85.54201146339075,48.88733677534648],[-85.541831763381,48.88766417540409],[-85.54213876381026,48.88990247569951],[-85.54214036381508,48.88993187570357],[-85.54213276381958,48.889978675710644],[-85.54211566382001,48.89001927571745],[-85.54182646380367,48.890541775809524],[-85.54231826416438,48.89191017597066],[-85.54380866474962,48.892614875974225],[-85.54468726497004,48.89218557585744],[-85.54602556526206,48.89123547563791],[-85.54719266539989,48.88961467533487],[-85.54722216540434,48.88958037532813],[-85.5483035655963,48.88851447510875],[-85.54833656560281,48.888486175102656],[-85.5508185661302,48.88662817468186],[-85.55084246613553,48.88661177467803],[-85.55446786696795,48.884318974122664],[-85.55560106722646,48.88359077394747],[-85.56397346907644,48.87780637259592],[-85.56398736907957,48.87779717259377],[-85.56992037044554,48.87407257168867],[-85.57460367145393,48.870659170907516],[-85.57539877157998,48.86977357073179],[-85.57699627172167,48.867237270272064],[-85.57951177181664,48.86237396942575],[-85.58079997175595,48.85914156888775],[-85.58259337168175,48.854710368148424],[-85.5824737716409,48.85469516815395],[-85.5824515716333,48.85469206815492],[-85.58216397153414,48.8546488681673],[-85.58190357144734,48.85462996818135],[-85.5818642714341,48.85462636818337],[-85.58166967136812,48.85460466819279],[-85.58140657128482,48.85461526821117],[-85.5812602712369,48.85461076821993],[-85.58096117113591,48.85458016823479],[-85.58092587112387,48.85457586823645],[-85.58066787103537,48.85454016824796],[-85.58031457091701,48.854510768266465],[-85.58019687087656,48.85449386827166],[-85.57991017077536,48.8544348682817],[-85.57962387067778,48.854399768295124],[-85.57960847067253,48.85439776829584],[-85.57943117061173,48.85437316830373],[-85.57933577058198,48.8543803683109],[-85.57924567055329,48.85438316831708],[-85.57912747051395,48.85437486832349],[-85.57901337047392,48.85435316832776],[-85.57890667043442,48.85431876832977],[-85.57889687043067,48.85431476832977],[-85.57886497041842,48.85430156833],[-85.57870297036287,48.854279168337214],[-85.57849067029034,48.854251768347005],[-85.57844977027655,48.85424766834903],[-85.57841897026778,48.854255968352184],[-85.57830367023334,48.85427476836224],[-85.57818517019591,48.854280168370565],[-85.57806707015656,48.854271868376976],[-85.57795287011653,48.85425016838126],[-85.57784617007704,48.85421576838326],[-85.57779147005586,48.85419156838337],[-85.57769737001867,48.85414536838291],[-85.57765397000122,48.85412216838239],[-85.57755276995996,48.854063568380624],[-85.57743136991526,48.85402616838316],[-85.57712766980718,48.853957868393],[-85.57707516978829,48.85394446839448],[-85.57668306964514,48.85383166840372],[-85.5766315696261,48.85381506840469],[-85.57622636947403,48.853670668410345],[-85.57588856934916,48.853562668416764],[-85.57583866933044,48.85354506841751],[-85.5754348691769,48.8533873684212],[-85.57514366906624,48.85327396842388],[-85.57477306892842,48.853150168430204],[-85.57443546880295,48.853038068436106],[-85.57437726878102,48.853016368436734],[-85.57400516863804,48.85286086843868],[-85.57368676851644,48.852732968441074],[-85.57367156851059,48.85272666844118],[-85.57338876840163,48.85260626844237],[-85.57332826837781,48.85257726844214],[-85.57301946825378,48.8524114684386],[-85.57301076825026,48.85240676843851],[-85.57281626817155,48.852298768435745],[-85.57262496810269,48.85225016844115],[-85.57261626809954,48.852247968441425],[-85.57222386795767,48.852144168451936],[-85.57210086791169,48.85210156845383],[-85.57182276780401,48.85197986845451],[-85.57157836771151,48.85188716845713],[-85.57127456759738,48.851777768461226],[-85.57119006756477,48.85174166846156],[-85.57092416745944,48.85160896845986],[-85.57081916741946,48.85156766846081],[-85.57068596737157,48.85153436846467],[-85.57057066732888,48.85149706846677],[-85.57034156724127,48.85140426846837],[-85.57025666720789,48.85136356846811],[-85.56996156708826,48.85119796846369],[-85.56994066707973,48.85118576846329],[-85.56969946698025,48.85103886845811],[-85.56958266692884,48.85094556845243],[-85.56943716685913,48.85079086843998],[-85.56941966685058,48.850771168438264],[-85.56937146682449,48.85069956843132],[-85.56934676680743,48.85063806842422],[-85.56929716676613,48.850466468403226],[-85.56929326676276,48.850451868401386],[-85.56928516674864,48.850373668390915],[-85.56929776674123,48.85029576837911],[-85.56933066674075,48.85022036836637],[-85.5693828667472,48.85014996835313],[-85.56939556674935,48.850136668350395],[-85.56953586677369,48.8499944683214],[-85.56959316678486,48.849944468310696],[-85.56967876680444,48.84989006829751],[-85.56976726682711,48.849849968286165],[-85.57004296690067,48.84974546825379],[-85.57007766691007,48.84973316824979],[-85.57032236697636,48.84964716822203],[-85.57030416696486,48.849608868217764],[-85.57026366694984,48.84959576821852],[-85.57011556689251,48.84953096821887],[-85.5700443668643,48.84949516821842],[-85.5699619668294,48.84943876821575],[-85.56989716679917,48.84937546821097],[-85.5698048667533,48.849266368201526],[-85.56977326673685,48.849223868197555],[-85.56956916662465,48.84890886816625],[-85.5694525665716,48.848804168158956],[-85.56924946648171,48.848638868148704],[-85.56921906646794,48.84861206814687],[-85.56907766640255,48.848477568136985],[-85.56892836633926,48.84837526813215],[-85.56888896632223,48.84834586813053],[-85.56882266629124,48.848280768125576],[-85.56878976627405,48.84823576812133],[-85.56869856622323,48.848090768106765],[-85.56869296622008,48.848081668105856],[-85.5686205661787,48.84795896809317],[-85.56859376616552,48.84792826809059],[-85.56853776614318,48.84789946809012],[-85.56850906613164,48.847883768089744],[-85.56842666609676,48.8478273680871],[-85.56836036606576,48.84776226808213],[-85.56832746604852,48.8477172680779],[-85.56823626599774,48.847572168063294],[-85.56822086598883,48.847545468060545],[-85.56811746592615,48.8473462680391],[-85.56809426591036,48.8472897680326],[-85.56803706586443,48.84710326801],[-85.56801996585048,48.84704586800299],[-85.56801416584571,48.84702646800064],[-85.56801156584118,48.8470010679972],[-85.56795816579896,48.84683136797676],[-85.56795216579386,48.846809767974065],[-85.56794406577973,48.84673156796355],[-85.5679566657723,48.84665356795176],[-85.56798956577184,48.84657826793905],[-85.56804176577829,48.846507867925745],[-85.56806616578253,48.84648296792072],[-85.56803756575924,48.846387467909096],[-85.56803286575511,48.846369967906924],[-85.56802476574104,48.846291767896396],[-85.56803736573362,48.84621376788463],[-85.56807026573317,48.84613846787187],[-85.56807476573348,48.84613086787054],[-85.56819756574374,48.84593146783454],[-85.56810356571938,48.845971967846275],[-85.5679254656699,48.84602646786539],[-85.56762386558128,48.84608566789305],[-85.56753516555462,48.84609886790059],[-85.56741666551719,48.84610426790897],[-85.5673322654893,48.84609976791376],[-85.5668972653428,48.84605836793579],[-85.56685786532942,48.846053767937704],[-85.56655256522485,48.84601256795141],[-85.56616546509923,48.84600776797555],[-85.56609776507693,48.84600466797948],[-85.56568966494052,48.84597256800114],[-85.56560816491282,48.84596286800496],[-85.56506956472617,48.84587576802726],[-85.564625764573,48.84580786804611],[-85.56458666455934,48.845801068047656],[-85.56407826438071,48.845701968066265],[-85.56355726420317,48.84563796809064],[-85.56314136406327,48.845599368111884],[-85.5625652638725,48.84556626814415],[-85.562066463708,48.84554226817275],[-85.56203546369773,48.845540268174474],[-85.56149146351589,48.845497468203284],[-85.5613903634813,48.84548436820793],[-85.56087106329981,48.84538956822785],[-85.56051526317648,48.84533186824251],[-85.5601111630431,48.84531196826562],[-85.55969046290787,48.84531506829303],[-85.55961766288408,48.845313068297386],[-85.55949506284331,48.84530526830415],[-85.55938836280961,48.84530986831166],[-85.55909066271559,48.845323968332686],[-85.55907926271196,48.8453244683335],[-85.55871086259503,48.845337768359016],[-85.5586378625715,48.84533786836368],[-85.5582293624376,48.84532376838789],[-85.55820176242851,48.84532246838946],[-85.55783436230666,48.84529986840987],[-85.55777716228742,48.84529476841281],[-85.5574375621719,48.84525446842886],[-85.55741166216305,48.84525106843007],[-85.55707236204633,48.845201868444846],[-85.5570581620414,48.84519966844546],[-85.55668866191344,48.845140668460814],[-85.55643886182688,48.8450998684711],[-85.5561609617346,48.845082268486394],[-85.5558411616308,48.84507826850632],[-85.55552826153117,48.84508766852774],[-85.55535476148047,48.8451233685439],[-85.5550750614058,48.84522946857677],[-85.55503936139611,48.84524206858083],[-85.5547275613106,48.84534446861525],[-85.5544269612287,48.845447168649],[-85.5541012611434,48.84558196868888],[-85.55383406107461,48.84570046872271],[-85.55378076106057,48.84572186872912],[-85.55349786098428,48.845823868761656],[-85.55324926091788,48.84591806879085],[-85.55306856087137,48.84599826881376],[-85.55297416085146,48.84607016882996],[-85.55282806083241,48.846261168866214],[-85.55280286082869,48.84629106887207],[-85.55264806080359,48.846460068905785],[-85.55262466079957,48.846483868910646],[-85.55242846076368,48.846670368949546],[-85.55239016075619,48.84670336895663],[-85.552153060707,48.846889368998035],[-85.55207786069018,48.84693976900998],[-85.551800660624,48.84709816905004],[-85.55173776060839,48.84713006905857],[-85.55140626052328,48.84727886910084],[-85.55139016051913,48.84728586910285],[-85.55107676043745,48.84741816914161],[-85.5507663603593,48.847567769182575],[-85.55046316028607,48.847735169225615],[-85.55017126021544,48.847895269266836],[-85.54990966015424,48.84805356930595],[-85.54968816010543,48.84820766934189],[-85.54948686007397,48.848435069386824],[-85.54936296006466,48.84864366942416],[-85.54932656006048,48.84869506943376],[-85.54918096003937,48.848870969467875],[-85.5490832600335,48.84904556949874],[-85.5490636600318,48.849076869504394],[-85.54892146001608,48.849281969542446],[-85.54885676000606,48.849355869557016],[-85.54867465997208,48.84952446959245],[-85.54863325996382,48.849559069599984],[-85.5485476599442,48.84961346961312],[-85.54844915991882,48.8496571696256],[-85.54837215989754,48.84968126963396],[-85.54811115982336,48.849749869660315],[-85.54794945977531,48.84977786967466],[-85.54759415966524,48.849809369701845],[-85.54741235960662,48.8498093697135],[-85.54707065949182,48.8497789697311],[-85.54679295939955,48.84976076974635],[-85.54644795928984,48.84977216977005],[-85.54642535928265,48.84977266977156],[-85.54605975916523,48.84977666979556],[-85.54561635902486,48.849795369826595],[-85.54533175893742,48.849825269849056],[-85.54501265884592,48.849903369880515],[-85.54499595884113,48.849907569882156]]]},"properties":{"PROTECTED_AREA_NAME_ENG":"WHITE LAKE PEATLANDS PROVINCIAL PARK (NATURE RESERVE CLASS)","PROVINCIAL_PARK_CLASS_ENG":"Nature Reserve"}}]}