{"type":"FeatureCollection","name":"Crown Land \u2013 MNR Non-Freehold Dispositions","features":[{"type":"Feature","geometry":{"type":"Polygon","coordinates":[[[-84.0650283004857,46.74522935021356],[-84.06476690040161,46.74522255022775],[-84.06475710042068,46.74540235025597],[-84.06501860050483,46.74540905024175],[-84.0650283004857,46.74522935021356]]]},"properties":{"CLASS_SUBTYPE":"Crown Disposition Land Use Permit","PURPOSE_OF_DISPOSITION":"Private Recreation Camp","SITE_NAME":null,"LOCATION_DESCR":null,"AREA_IN_HA":0.14}}]}