{"type":"FeatureCollection","name":"Fishing Access Point","features":[{"type":"Feature","id":107201,"geometry":{"type":"Point","coordinates":[-83.95986259999995,46.77180370000002]},"properties":{"OGF_ID":103606204,"FISHING_ACCESS_POINT_TYPE":"Boat Launch","SITE_LAST_VERIFICATION_DATE":null,"VERIFICATION_DATE_SOURCE":null,"PARKING_PRESENCE_FLG":"Yes","SITE_OWNERSHIP_TYPE":"Unknown","MATERIAL_TYPE":"Natural","ACCESSIBILITY_FLG":"No","USER_FEE_FLG":"No","VISIBILITY_IND":"Yes","SITE_NAME":"Devil's Lake Boat Launch","SITE_PHOTO_URL":null,"SITE_PHOTO_DATE":null,"ADDITIONAL_INFORMATION_URL":null,"GENERAL_COMMENTS":"RECREATION_POINT.OGF_ID = 800330786","GEOMETRY_UPDATE_DATETIME":1723562192000,"EFFECTIVE_DATETIME":1723561758000,"SYSTEM_DATETIME":1723588499000,"OBJECTID":107201}}]}