{"type":"FeatureCollection","name":"Territoires récréatifs du Québec","features":[{"type":"Feature","geometry":{"type":"Polygon","coordinates":[[[-69.784898,49.44234],[-69.784928,49.44216],[-69.784811,49.441665],[-69.784886,49.441243],[-69.784397,49.440736],[-69.783876,49.440526],[-69.783406,49.440604],[-69.78225,49.440444],[-69.780857,49.440453],[-69.780427,49.440622],[-69.780162,49.440845],[-69.780089,49.441078],[-69.780462,49.441071],[-69.780294,49.441232],[-69.779841,49.441068],[-69.779358,49.440138],[-69.779542,49.439843],[-69.779602,49.439537],[-69.779536,49.439303],[-69.779635,49.439133],[-69.77957,49.43889],[-69.779659,49.438432],[-69.779553,49.438161],[-69.779667,49.437892],[-69.779689,49.437344],[-69.779431,49.437045],[-69.779504,49.436776],[-69.779675,49.436706],[-69.779543,49.436574],[-69.77885,49.436592],[-69.778898,49.436745],[-69.778715,49.436969],[-69.77823,49.437128],[-69.777639,49.437025],[-69.777531,49.436845],[-69.777243,49.436789],[-69.776152,49.436908],[-69.775849,49.436825],[-69.775498,49.436337],[-69.775113,49.436245],[-69.774252,49.435772],[-69.773853,49.435689],[-69.773756,49.435751],[-69.774164,49.43614],[-69.774162,49.436266],[-69.773872,49.436255],[-69.772981,49.435917],[-69.772623,49.43587],[-69.772534,49.436301],[-69.773243,49.436881],[-69.773337,49.437052],[-69.772849,49.4374],[-69.772812,49.438011],[-69.773236,49.438275],[-69.773343,49.438482],[-69.773145,49.438831],[-69.772841,49.438875],[-69.7727,49.439053],[-69.77278,49.439243],[-69.774804,49.440425],[-69.77477,49.44082],[-69.773977,49.441328],[-69.772867,49.441779],[-69.772281,49.442207],[-69.771149,49.442308],[-69.770912,49.442441],[-69.770526,49.442466],[-69.770197,49.442338],[-69.769638,49.441921],[-69.769529,49.441803],[-69.769465,49.441497],[-69.770284,49.441124],[-69.770382,49.440999],[-69.770399,49.440801],[-69.771418,49.439972],[-69.771671,49.439614],[-69.771241,49.438882],[-69.771183,49.438136],[-69.77098,49.437856],[-69.770983,49.437667],[-69.770862,49.437459],[-69.770018,49.436726],[-69.769607,49.436561],[-69.769056,49.436495],[-69.769837,49.436877],[-69.770027,49.437085],[-69.770213,49.437527],[-69.770218,49.438112],[-69.769989,49.438713],[-69.76997,49.439054],[-69.769841,49.439395],[-69.769298,49.439706],[-69.767767,49.439742],[-69.767157,49.439981],[-69.765375,49.440203],[-69.764832,49.440514],[-69.765007,49.440776],[-69.764977,49.440947],[-69.764879,49.441072],[-69.764575,49.441133],[-69.764378,49.441384],[-69.764128,49.441508],[-69.763635,49.441244],[-69.763344,49.441323],[-69.763018,49.440989],[-69.76286,49.440529],[-69.762856,49.439863],[-69.762598,49.439583],[-69.762755,49.439233],[-69.762566,49.438953],[-69.762556,49.438719],[-69.762739,49.438451],[-69.762815,49.438002],[-69.76297,49.437769],[-69.762993,49.437176],[-69.763146,49.437051],[-69.764421,49.436618],[-69.764559,49.436637],[-69.764713,49.436512],[-69.764813,49.436288],[-69.765163,49.43593],[-69.765193,49.435715],[-69.765737,49.435323],[-69.766074,49.434902],[-69.76616,49.434696],[-69.766108,49.434471],[-69.76636,49.434212],[-69.76663,49.43371],[-69.76661,49.43317],[-69.766478,49.432765],[-69.76596,49.432393],[-69.76559,49.431647],[-69.756113,49.431664],[-69.756087,49.43152],[-69.75553,49.430995],[-69.7547,49.430653],[-69.753813,49.430099],[-69.753386,49.42967],[-69.751395,49.428928],[-69.750993,49.428929],[-69.750718,49.429347],[-69.7498,49.429735],[-69.749526,49.42976],[-69.748923,49.429571],[-69.747746,49.428879],[-69.747081,49.428736],[-69.746702,49.428537],[-69.746289,49.428552],[-69.746175,49.428731],[-69.745804,49.428784],[-69.745324,49.428995],[-69.744751,49.428931],[-69.743534,49.428302],[-69.74277,49.428136],[-69.742535,49.427718],[-69.742156,49.427599],[-69.741665,49.427614],[-69.741171,49.427748],[-69.740246,49.428321],[-69.739425,49.428642],[-69.738159,49.427894],[-69.738044,49.42778],[-69.738185,49.427632],[-69.738092,49.427549],[-69.737978,49.427506],[-69.737647,49.427578],[-69.737058,49.427234],[-69.737121,49.426817],[-69.73689,49.426491],[-69.736895,49.426092],[-69.736238,49.425678],[-69.736148,49.425488],[-69.736156,49.424963],[-69.736662,49.424118],[-69.738416,49.422793],[-69.73896,49.422506],[-69.739603,49.422519],[-69.7401,49.422738],[-69.740671,49.422732],[-69.741264,49.422264],[-69.742656,49.421453],[-69.74311,49.420885],[-69.743213,49.42048],[-69.743754,49.419421],[-69.743756,49.419092],[-69.743447,49.418958],[-69.743298,49.418635],[-69.743609,49.418104],[-69.743618,49.417497],[-69.744071,49.416895],[-69.743841,49.416459],[-69.7439,49.416064],[-69.744098,49.415929],[-69.744391,49.415896],[-69.744957,49.415122],[-69.745772,49.414805],[-69.746172,49.414539],[-69.747516,49.414359],[-69.747953,49.414006],[-69.74845,49.413373],[-69.748538,49.41316],[-69.748416,49.412922],[-69.747997,49.412527],[-69.748134,49.412191],[-69.748314,49.412093],[-69.748362,49.411952],[-69.748146,49.411655],[-69.74811,49.411164],[-69.747821,49.410986],[-69.748347,49.41094],[-69.748552,49.410728],[-69.748835,49.410761],[-69.748924,49.410504],[-69.748886,49.41044],[-69.748601,49.410442],[-69.748557,49.409984],[-69.74834,49.409753],[-69.74804,49.40976],[-69.747982,49.409508],[-69.747645,49.409409],[-69.747317,49.409076],[-69.747366,49.40895],[-69.747208,49.408866],[-69.746675,49.408852],[-69.746539,49.408654],[-69.746717,49.40852],[-69.746794,49.408083],[-69.746897,49.407986],[-69.747038,49.407933],[-69.747372,49.408164],[-69.748712,49.408002],[-69.749116,49.407699],[-69.749302,49.407242],[-69.748789,49.406555],[-69.748186,49.406335],[-69.748382,49.406103],[-69.748274,49.405994],[-69.747938,49.406334],[-69.747619,49.40644],[-69.74722,49.406401],[-69.747015,49.406301],[-69.746945,49.405504],[-69.746103,49.404588],[-69.746066,49.404409],[-69.746162,49.404244],[-69.746638,49.403814],[-69.746945,49.40281],[-69.746923,49.402751],[-69.746584,49.40281],[-69.746404,49.402716],[-69.746577,49.402521],[-69.746508,49.402274],[-69.74621,49.402193],[-69.746172,49.401951],[-69.746268,49.401076],[-69.746563,49.400766],[-69.747105,49.400837],[-69.747377,49.400672],[-69.747665,49.400014],[-69.747404,49.39983],[-69.746881,49.399722],[-69.74683,49.399566],[-69.746997,49.399363],[-69.74695,49.398838],[-69.747025,49.39843],[-69.746868,49.397805],[-69.746472,49.397394],[-69.746371,49.397154],[-69.746614,49.396933],[-69.746454,49.39671],[-69.745924,49.396357],[-69.745893,49.395893],[-69.745464,49.395478],[-69.7451,49.395281],[-69.744784,49.394548],[-69.74476,49.394283],[-69.744414,49.394079],[-69.744206,49.393857],[-69.744817,49.393306],[-69.744822,49.392939],[-69.744741,49.392746],[-69.744453,49.392296],[-69.744065,49.392185],[-69.743127,49.391632],[-69.741901,49.390625],[-69.741558,49.390502],[-69.740689,49.390496],[-69.740063,49.390294],[-69.739429,49.390224],[-69.739218,49.390056],[-69.739142,49.389592],[-69.738612,49.387956],[-69.738339,49.389005],[-69.737751,49.38964],[-69.736751,49.390146],[-69.736006,49.390222],[-69.733583,49.390143],[-69.732838,49.390192],[-69.731539,49.390453],[-69.729693,49.390477],[-69.724274,49.39161],[-69.723071,49.391943],[-69.722765,49.392085],[-69.722193,49.392558],[-69.721781,49.39251],[-69.721518,49.39258],[-69.72121,49.392839],[-69.720801,49.393493],[-69.720877,49.39388],[-69.72112,49.394187],[-69.721028,49.395661],[-69.720883,49.39611],[-69.720838,49.397234],[-69.720593,49.39788],[-69.720118,49.39829],[-69.717798,49.398652],[-69.717123,49.398638],[-69.715288,49.398806],[-69.712374,49.3992],[-69.70948,49.399225],[-69.707237,49.399057],[-69.705753,49.398804],[-69.702035,49.398715],[-69.70129,49.398719],[-69.700472,49.399046],[-69.699002,49.398811],[-69.69807,49.398508],[-69.695598,49.397978],[-69.693729,49.397677],[-69.693291,49.397503],[-69.693033,49.397268],[-69.692836,49.396718],[-69.692879,49.395738],[-69.693353,49.39459],[-69.693652,49.393154],[-69.693779,49.391293],[-69.694117,49.390001],[-69.694084,49.388651],[-69.693997,49.388066],[-69.693851,49.387724],[-69.693741,49.386041],[-69.693339,49.38531],[-69.693136,49.385093],[-69.692038,49.38406],[-69.691309,49.383165],[-69.690317,49.382294],[-69.689574,49.381444],[-69.688407,49.380348],[-69.686772,49.379293],[-69.685952,49.378919],[-69.684992,49.378642],[-69.683069,49.378341],[-69.681788,49.378332],[-69.6787,49.378553],[-69.677856,49.37878],[-69.677565,49.378886],[-69.677144,49.379333],[-69.67612,49.379631],[-69.67491,49.380297],[-69.674225,49.380949],[-69.674,49.382026],[-69.673815,49.382358],[-69.673254,49.382992],[-69.672695,49.383456],[-69.671889,49.383881],[-69.670884,49.384657],[-69.670426,49.384896],[-69.669777,49.384963],[-69.669237,49.385139],[-69.668568,49.385566],[-69.665577,49.386489],[-69.664687,49.387004],[-69.661186,49.387959],[-69.660242,49.388357],[-69.659505,49.388792],[-69.659008,49.388833],[-69.657523,49.388688],[-69.65655,49.389166],[-69.655352,49.389175],[-69.654691,49.389117],[-69.653649,49.388848],[-69.65179,49.387989],[-69.650694,49.387693],[-69.648606,49.3873],[-69.647976,49.387089],[-69.646422,49.386151],[-69.645479,49.385722],[-69.643274,49.385031],[-69.640935,49.384051],[-69.639612,49.383331],[-69.638937,49.382508],[-69.638312,49.382035],[-69.636127,49.380976],[-69.634772,49.38048],[-69.632624,49.380428],[-69.631354,49.380617],[-69.630579,49.380818],[-69.630042,49.380778],[-69.629185,49.38096],[-69.628819,49.380669],[-69.62892,49.380382],[-69.628281,49.379928],[-69.628029,49.37936],[-69.628198,49.379163],[-69.628572,49.379031],[-69.62879,49.379158],[-69.629093,49.379179],[-69.629177,49.379089],[-69.6291,49.378765],[-69.629186,49.378586],[-69.629936,49.378223],[-69.62997,49.377863],[-69.630262,49.377677],[-69.630294,49.377425],[-69.629981,49.377234],[-69.629671,49.376827],[-69.629606,49.37662],[-69.628898,49.376165],[-69.628862,49.375877],[-69.627767,49.3755],[-69.62754,49.375111],[-69.626999,49.374532],[-69.626685,49.374368],[-69.626354,49.374392],[-69.626228,49.374544],[-69.625869,49.374595],[-69.624725,49.37464],[-69.624515,49.374828],[-69.623892,49.37503],[-69.623209,49.375438],[-69.62242,49.375702],[-69.620685,49.375689],[-69.618747,49.375431],[-69.618476,49.375231],[-69.618453,49.374935],[-69.61788,49.37466],[-69.617367,49.374099],[-69.617134,49.373998],[-69.616336,49.373947],[-69.615785,49.373997],[-69.615656,49.374275],[-69.615818,49.374456],[-69.617141,49.375185],[-69.617533,49.375575],[-69.617677,49.376008],[-69.617674,49.376943],[-69.617899,49.377421],[-69.618622,49.377822],[-69.618934,49.378104],[-69.618827,49.378678],[-69.618379,49.379088],[-69.618004,49.379256],[-69.617563,49.379289],[-69.616861,49.379239],[-69.616286,49.379046],[-69.614171,49.378742],[-69.612434,49.378081],[-69.612231,49.377863],[-69.611269,49.377721],[-69.609851,49.376928],[-69.608687,49.376604],[-69.608141,49.37633],[-69.607565,49.376173],[-69.603133,49.375257],[-69.60143,49.375037],[-69.597041,49.37405],[-69.595297,49.372993],[-69.593901,49.371813],[-69.593084,49.371267],[-69.591625,49.3705],[-69.591383,49.370211],[-69.590649,49.369674],[-69.589255,49.366858],[-69.588879,49.366315],[-69.588404,49.365961],[-69.587485,49.365018],[-69.58734,49.364702],[-69.587135,49.364584],[-69.586934,49.364277],[-69.586176,49.363596],[-69.585613,49.363643],[-69.589022,49.361889],[-69.589803,49.36123],[-69.590403,49.360442],[-69.59071,49.35961],[-69.590749,49.359015],[-69.590583,49.358206],[-69.590002,49.357183],[-69.585685,49.35311],[-69.58511,49.352417],[-69.584511,49.351454],[-69.578778,49.340108],[-69.576289,49.332631],[-69.576545,49.330785],[-69.576774,49.330236],[-69.577209,49.329536],[-69.577681,49.328997],[-69.583583,49.323943],[-69.58432,49.323062],[-69.584665,49.322509],[-69.5849,49.321784],[-69.584968,49.321101],[-69.584716,49.316155],[-69.584977,49.314662],[-69.585584,49.31295],[-69.586605,49.311242],[-69.587662,49.309093],[-69.588081,49.308499],[-69.588752,49.307805],[-69.591168,49.30558],[-69.594961,49.302938],[-69.594445,49.302963],[-69.593763,49.303151],[-69.592098,49.303926],[-69.588934,49.304205],[-69.587049,49.304763],[-69.585443,49.305635],[-69.585087,49.305974],[-69.58465,49.30713],[-69.584565,49.307942],[-69.584399,49.308193],[-69.584044,49.308293],[-69.583516,49.308239],[-69.581693,49.307051],[-69.578591,49.305729],[-69.576638,49.305003],[-69.574807,49.304472],[-69.572953,49.303828],[-69.570269,49.302648],[-69.567119,49.301716],[-69.567026,49.3013],[-69.567446,49.300886],[-69.567941,49.299985],[-69.568476,49.300093],[-69.569417,49.300064],[-69.569789,49.299989],[-69.57023,49.299712],[-69.570528,49.299731],[-69.571483,49.29996],[-69.573359,49.300606],[-69.573671,49.300598],[-69.573989,49.299135],[-69.57396,49.298487],[-69.573728,49.298002],[-69.573302,49.297558],[-69.573152,49.296105],[-69.572776,49.295494],[-69.571495,49.294792],[-69.571212,49.294705],[-69.570563,49.294597],[-69.568897,49.294721],[-69.565886,49.293601],[-69.563541,49.293177],[-69.562174,49.292558],[-69.56104,49.292153],[-69.560092,49.291752],[-69.559659,49.291482],[-69.559589,49.290649],[-69.559241,49.29026],[-69.558631,49.290148],[-69.557413,49.29013],[-69.556708,49.289962],[-69.556292,49.290008],[-69.554851,49.288421],[-69.554077,49.287701],[-69.553463,49.287372],[-69.553433,49.286888],[-69.553509,49.286686],[-69.555146,49.285496],[-69.555614,49.284248],[-69.555568,49.28378],[-69.555878,49.283557],[-69.556086,49.283565],[-69.556459,49.283835],[-69.557117,49.284622],[-69.557559,49.284918],[-69.558278,49.285091],[-69.559722,49.285263],[-69.560538,49.285554],[-69.560556,49.284623],[-69.560737,49.284482],[-69.560813,49.284087],[-69.560733,49.283979],[-69.560336,49.283971],[-69.559997,49.283553],[-69.560028,49.28318],[-69.559323,49.282706],[-69.559087,49.282231],[-69.558738,49.281834],[-69.558647,49.281288],[-69.557718,49.280811],[-69.557043,49.280349],[-69.556733,49.279959],[-69.556566,49.279898],[-69.556278,49.279939],[-69.555754,49.279567],[-69.555464,49.279129],[-69.555332,49.278564],[-69.554233,49.277854],[-69.554022,49.277632],[-69.553937,49.277117],[-69.554154,49.27674],[-69.554124,49.27662],[-69.555177,49.275763],[-69.555429,49.275656],[-69.555572,49.275518],[-69.555569,49.275424],[-69.555944,49.275612],[-69.556797,49.275565],[-69.557022,49.275297],[-69.557395,49.275166],[-69.557628,49.275248],[-69.557857,49.275493],[-69.558238,49.275685],[-69.558637,49.275652],[-69.55875,49.275509],[-69.558699,49.275302],[-69.558103,49.27483],[-69.55803,49.274334],[-69.557747,49.274017],[-69.557514,49.27389],[-69.557535,49.273483],[-69.55773,49.273342],[-69.558476,49.273221],[-69.559174,49.272812],[-69.559585,49.272664],[-69.560074,49.272584],[-69.560485,49.272312],[-69.560581,49.272127],[-69.561398,49.271659],[-69.561529,49.271492],[-69.56333,49.272337],[-69.563643,49.272583],[-69.564186,49.272734],[-69.564528,49.272967],[-69.565222,49.273223],[-69.565402,49.273509],[-69.565945,49.273671],[-69.567058,49.274241],[-69.567326,49.273722],[-69.569677,49.273754],[-69.571004,49.273645],[-69.571227,49.273524],[-69.571326,49.273285],[-69.571278,49.273115],[-69.570092,49.272246],[-69.567755,49.271719],[-69.567348,49.271569],[-69.566987,49.271258],[-69.566878,49.270851],[-69.566964,49.270518],[-69.567688,49.269793],[-69.567994,49.269249],[-69.567981,49.268959],[-69.567565,49.268461],[-69.567455,49.26806],[-69.56811,49.268112],[-69.568863,49.267921],[-69.56981,49.26809],[-69.570205,49.267993],[-69.570704,49.2674],[-69.572318,49.266634],[-69.572494,49.266439],[-69.572903,49.265497],[-69.573161,49.26534],[-69.573791,49.265153],[-69.574084,49.264911],[-69.574391,49.264471],[-69.574249,49.263968],[-69.574202,49.263528],[-69.574254,49.263311],[-69.573641,49.26358],[-69.573419,49.263562],[-69.57324,49.263423],[-69.573023,49.263405],[-69.57265,49.263145],[-69.572488,49.262807],[-69.573114,49.262783],[-69.574014,49.262537],[-69.575078,49.262106],[-69.576243,49.261835],[-69.577005,49.261534],[-69.577456,49.261229],[-69.578348,49.260049],[-69.578316,49.259521],[-69.57811,49.258833],[-69.57905,49.25758],[-69.579718,49.256985],[-69.580552,49.256452],[-69.582281,49.255063],[-69.582779,49.254816],[-69.583606,49.254233],[-69.583583,49.253235],[-69.584852,49.252017],[-69.585594,49.251533],[-69.58653,49.251414],[-69.586918,49.251194],[-69.587448,49.250157],[-69.587327,49.249226],[-69.587021,49.248691],[-69.587011,49.248481],[-69.588063,49.247024],[-69.588593,49.246963],[-69.590383,49.246986],[-69.590828,49.246854],[-69.591473,49.246868],[-69.593024,49.24634],[-69.593565,49.246274],[-69.593874,49.246283],[-69.593922,49.246358],[-69.593848,49.246456],[-69.593956,49.246547],[-69.594532,49.246632],[-69.595127,49.246349],[-69.595973,49.245673],[-69.596741,49.24553],[-69.597053,49.245285],[-69.597348,49.244892],[-69.598115,49.24433],[-69.59848,49.24376],[-69.59894,49.243456],[-69.599086,49.243181],[-69.599181,49.242508],[-69.599702,49.24106],[-69.599599,49.240674],[-69.59966,49.240349],[-69.599577,49.240179],[-69.598781,49.23952],[-69.598729,49.238628],[-69.599726,49.237284],[-69.60027,49.23683],[-69.600318,49.236603],[-69.599826,49.236278],[-69.599482,49.235573],[-69.59923,49.235377],[-69.598676,49.235325],[-69.598301,49.235205],[-69.597737,49.235281],[-69.597349,49.235152],[-69.59748,49.235046],[-69.59796,49.235127],[-69.597986,49.23494],[-69.597826,49.234754],[-69.597358,49.23464],[-69.597323,49.234426],[-69.597452,49.234317],[-69.597873,49.234438],[-69.598124,49.234346],[-69.599097,49.233652],[-69.600293,49.233101],[-69.600401,49.232783],[-69.600283,49.232407],[-69.600038,49.232151],[-69.598716,49.231148],[-69.598854,49.231046],[-69.598676,49.230845],[-69.598837,49.230699],[-69.599021,49.230665],[-69.599148,49.230914],[-69.599263,49.230979],[-69.59943,49.230907],[-69.599505,49.230625],[-69.599696,49.230485],[-69.600223,49.230391],[-69.600528,49.230537],[-69.600693,49.230527],[-69.600959,49.230021],[-69.600923,49.229787],[-69.600996,49.229718],[-69.602024,49.2297],[-69.602258,49.229496],[-69.602361,49.229101],[-69.602519,49.228949],[-69.602893,49.228803],[-69.603465,49.228912],[-69.603803,49.228607],[-69.604368,49.228504],[-69.604504,49.228377],[-69.604439,49.228188],[-69.604491,49.228078],[-69.605014,49.227824],[-69.605135,49.227698],[-69.605137,49.227567],[-69.605499,49.227376],[-69.605269,49.227109],[-69.605344,49.227042],[-69.605977,49.227324],[-69.607115,49.227233],[-69.6075,49.227111],[-69.607948,49.227195],[-69.608309,49.227086],[-69.608628,49.226841],[-69.60934,49.227017],[-69.609312,49.22676],[-69.609506,49.226651],[-69.609689,49.226744],[-69.610035,49.22712],[-69.61011,49.227486],[-69.610241,49.227641],[-69.610886,49.227782],[-69.611462,49.228085],[-69.611881,49.228134],[-69.612148,49.227791],[-69.612273,49.227474],[-69.61265,49.227294],[-69.612945,49.22683],[-69.613395,49.226649],[-69.613763,49.226396],[-69.613907,49.22594],[-69.614394,49.225886],[-69.614502,49.225798],[-69.614591,49.225639],[-69.614565,49.225326],[-69.614932,49.225317],[-69.615132,49.22519],[-69.615094,49.225093],[-69.614766,49.225039],[-69.614826,49.224944],[-69.615201,49.22494],[-69.615347,49.224816],[-69.615189,49.22462],[-69.614884,49.224507],[-69.61506,49.224242],[-69.615792,49.224174],[-69.615883,49.223873],[-69.616201,49.223636],[-69.616328,49.223439],[-69.616816,49.223322],[-69.617116,49.223131],[-69.617247,49.222945],[-69.617258,49.222292],[-69.617793,49.221871],[-69.618201,49.221697],[-69.618699,49.221602],[-69.619066,49.221327],[-69.619314,49.221329],[-69.619553,49.221482],[-69.620066,49.221543],[-69.620298,49.221292],[-69.620075,49.221028],[-69.620128,49.220974],[-69.620436,49.22096],[-69.621004,49.221162],[-69.621444,49.221004],[-69.621808,49.221115],[-69.622694,49.22095],[-69.624211,49.22097],[-69.624889,49.22066],[-69.625308,49.220681],[-69.625462,49.220371],[-69.62546,49.219594],[-69.625884,49.219261],[-69.626475,49.219061],[-69.626903,49.218795],[-69.627637,49.21865],[-69.628024,49.218652],[-69.628298,49.21879],[-69.628791,49.218748],[-69.62925,49.219029],[-69.630362,49.219164],[-69.630858,49.219339],[-69.632163,49.219304],[-69.633287,49.219529],[-69.633867,49.219309],[-69.636201,49.218939],[-69.637258,49.218938],[-69.638646,49.219147],[-69.638979,49.219113],[-69.638927,49.218968],[-69.639263,49.218601],[-69.640254,49.21809],[-69.641113,49.216998],[-69.641654,49.21673],[-69.641796,49.216364],[-69.642006,49.216211],[-69.642485,49.215416],[-69.64312,49.21509],[-69.643686,49.214194],[-69.644166,49.213976],[-69.644494,49.213649],[-69.644629,49.213045],[-69.645211,49.211926],[-69.645649,49.211523],[-69.646234,49.211327],[-69.646463,49.210999],[-69.646497,49.210656],[-69.646722,49.210332],[-69.646644,49.210097],[-69.646774,49.209619],[-69.647415,49.209396],[-69.647525,49.209163],[-69.647706,49.209022],[-69.649293,49.208539],[-69.650074,49.208075],[-69.650723,49.20781],[-69.651357,49.20719],[-69.651379,49.206906],[-69.651572,49.206767],[-69.652857,49.206652],[-69.653092,49.206905],[-69.653902,49.206856],[-69.654419,49.206705],[-69.655669,49.20601],[-69.655747,49.205865],[-69.655739,49.20551],[-69.655821,49.205442],[-69.656174,49.205589],[-69.656661,49.205638],[-69.656688,49.205374],[-69.656841,49.205213],[-69.656843,49.205099],[-69.656691,49.205043],[-69.656336,49.205097],[-69.656132,49.205212],[-69.656076,49.205157],[-69.656194,49.205007],[-69.656546,49.204842],[-69.656589,49.204603],[-69.656945,49.204553],[-69.657382,49.204085],[-69.65751,49.203797],[-69.657799,49.203579],[-69.657879,49.203115],[-69.658104,49.202883],[-69.658048,49.202669],[-69.657808,49.202534],[-69.657821,49.202385],[-69.658086,49.202408],[-69.658159,49.20235],[-69.657974,49.2022],[-69.658471,49.202126],[-69.658491,49.202052],[-69.65826,49.201967],[-69.65845,49.201826],[-69.658883,49.201783],[-69.658923,49.201865],[-69.659651,49.201954],[-69.659855,49.202085],[-69.66086,49.202043],[-69.661216,49.202145],[-69.661543,49.202098],[-69.661445,49.202212],[-69.661583,49.202367],[-69.661722,49.202342],[-69.661736,49.202263],[-69.661924,49.202283],[-69.66188,49.202088],[-69.662023,49.202205],[-69.662248,49.202139],[-69.662235,49.202235],[-69.662346,49.202288],[-69.663777,49.20246],[-69.664236,49.202428],[-69.66459,49.202276],[-69.66479,49.201919],[-69.665286,49.202022],[-69.665945,49.201927],[-69.666428,49.201975],[-69.66743,49.200974],[-69.66957,49.200829],[-69.670401,49.200991],[-69.671009,49.201277],[-69.671815,49.201494],[-69.674131,49.201806],[-69.675543,49.201872],[-69.676539,49.20214],[-69.676978,49.202124],[-69.677978,49.202556],[-69.678457,49.202613],[-69.679997,49.203118],[-69.682152,49.203149],[-69.684014,49.202516],[-69.685547,49.202419],[-69.686581,49.20223],[-69.687815,49.201635],[-69.688279,49.200665],[-69.688558,49.199467],[-69.688793,49.198993],[-69.689048,49.198696],[-69.690234,49.197764],[-69.690539,49.197391],[-69.691279,49.1968],[-69.691936,49.196136],[-69.692048,49.195858],[-69.692068,49.195471],[-69.691977,49.19511],[-69.691999,49.194625],[-69.691782,49.193601],[-69.691789,49.193205],[-69.691913,49.192331],[-69.692073,49.192035],[-69.69244,49.191749],[-69.694153,49.19097],[-69.695589,49.18996],[-69.695858,49.189861],[-69.695915,49.189692],[-69.696226,49.189489],[-69.696593,49.189003],[-69.697248,49.187584],[-69.697367,49.186843],[-69.697209,49.185572],[-69.696372,49.183017],[-69.696274,49.182307],[-69.696291,49.18123],[-69.696188,49.180853],[-69.696195,49.179548],[-69.696544,49.178355],[-69.696522,49.177975],[-69.696879,49.176314],[-69.696815,49.174307],[-69.696934,49.174005],[-69.697114,49.173929],[-69.697633,49.173924],[-69.700242,49.174536],[-69.701535,49.174589],[-69.701998,49.174385],[-69.702617,49.173858],[-69.703415,49.172698],[-69.703668,49.172113],[-69.703826,49.171589],[-69.703816,49.170529],[-69.703359,49.169844],[-69.702871,49.169481],[-69.702473,49.168981],[-69.702341,49.168438],[-69.702402,49.167197],[-69.702301,49.166756],[-69.701951,49.166248],[-69.701173,49.165753],[-69.700237,49.164658],[-69.700499,49.164576],[-69.701096,49.164433],[-69.702029,49.164532],[-69.702345,49.164683],[-69.702964,49.165326],[-69.70393,49.165451],[-69.704518,49.165466],[-69.705172,49.165281],[-69.706524,49.165154],[-69.70678,49.165272],[-69.707062,49.165634],[-69.707324,49.165827],[-69.707772,49.165935],[-69.708176,49.16589],[-69.709047,49.165385],[-69.709099,49.164519],[-69.709586,49.164108],[-69.710785,49.164125],[-69.712344,49.164592],[-69.714212,49.164626],[-69.715752,49.165637],[-69.716354,49.166186],[-69.716771,49.167253],[-69.717321,49.168021],[-69.717676,49.169022],[-69.717979,49.169566],[-69.718869,49.170461],[-69.719511,49.1714],[-69.719987,49.171911],[-69.720321,49.172499],[-69.721351,49.173912],[-69.721874,49.174351],[-69.722615,49.174627],[-69.724271,49.175573],[-69.724741,49.175698],[-69.725407,49.176071],[-69.726393,49.176434],[-69.728719,49.176591],[-69.729886,49.17678],[-69.730994,49.17731],[-69.731855,49.178112],[-69.733467,49.179129],[-69.735689,49.179889],[-69.73731,49.180592],[-69.739603,49.181408],[-69.740142,49.181858],[-69.740909,49.182253],[-69.741896,49.18268],[-69.743022,49.183011],[-69.74358,49.183359],[-69.746684,49.184591],[-69.74839,49.184796],[-69.754185,49.185049],[-69.7556,49.185015],[-69.758127,49.184381],[-69.75884,49.184056],[-69.760148,49.183197],[-69.761212,49.182326],[-69.761295,49.18201],[-69.762013,49.181198],[-69.762647,49.180744],[-69.76345,49.180326],[-69.764518,49.179961],[-69.765718,49.179314],[-69.767236,49.178698],[-69.768182,49.178408],[-69.768983,49.178237],[-69.769675,49.178217],[-69.771379,49.177793],[-69.772736,49.177001],[-69.774983,49.176072],[-69.776619,49.17509],[-69.777895,49.174181],[-69.779518,49.172807],[-69.780173,49.172395],[-69.781182,49.171568],[-69.7818,49.17128],[-69.783478,49.170982],[-69.789124,49.170235],[-69.791474,49.169764],[-69.79355,49.169462],[-69.796417,49.169226],[-69.797914,49.168956],[-69.801659,49.168691],[-69.803871,49.168256],[-69.805825,49.168195],[-69.807003,49.168418],[-69.807948,49.168441],[-69.809612,49.168228],[-69.811653,49.167754],[-69.812331,49.16779],[-69.812823,49.168043],[-69.813695,49.168969],[-69.814645,49.169679],[-69.814938,49.170009],[-69.815537,49.170445],[-69.815987,49.170938],[-69.817014,49.17174],[-69.81751,49.17232],[-69.817714,49.172651],[-69.817751,49.172919],[-69.818349,49.173603],[-69.818849,49.173946],[-69.819369,49.174129],[-69.819722,49.174401],[-69.820721,49.175786],[-69.821092,49.176122],[-69.821597,49.176317],[-69.821818,49.178593],[-69.821934,49.178778],[-69.822377,49.178905],[-69.823193,49.178974],[-69.823776,49.179176],[-69.824973,49.18032],[-69.826533,49.181396],[-69.826981,49.181982],[-69.827205,49.182549],[-69.827618,49.183239],[-69.828387,49.184014],[-69.82907,49.184432],[-69.829933,49.185108],[-69.830209,49.185385],[-69.830618,49.186025],[-69.830625,49.186672],[-69.830435,49.187571],[-69.830293,49.187895],[-69.830271,49.188542],[-69.830474,49.189673],[-69.830777,49.190712],[-69.830792,49.191637],[-69.830449,49.192634],[-69.830057,49.194221],[-69.829673,49.195115],[-69.829352,49.196656],[-69.829069,49.197397],[-69.828987,49.198228],[-69.828993,49.19884],[-69.829083,49.199255],[-69.829012,49.199594],[-69.829042,49.200265],[-69.829432,49.200752],[-69.829818,49.200967],[-69.831136,49.201213],[-69.834868,49.201396],[-69.836168,49.201386],[-69.836943,49.201206],[-69.838806,49.200403],[-69.839375,49.200436],[-69.840324,49.200882],[-69.84091,49.201481],[-69.841143,49.20228],[-69.841852,49.203504],[-69.842299,49.204035],[-69.842249,49.204221],[-69.842762,49.204579],[-69.843912,49.205191],[-69.844947,49.206089],[-69.845597,49.206396],[-69.847938,49.207984],[-69.848257,49.208088],[-69.850003,49.209206],[-69.850337,49.209291],[-69.851177,49.209999],[-69.852134,49.211253],[-69.852887,49.211862],[-69.854705,49.212839],[-69.855171,49.212977],[-69.855787,49.213327],[-69.856045,49.213371],[-69.857964,49.214358],[-69.859333,49.214916],[-69.859524,49.215056],[-69.859811,49.215107],[-69.860828,49.215641],[-69.861219,49.215731],[-69.862552,49.216308],[-69.864873,49.217518],[-69.865812,49.218198],[-69.866006,49.218235],[-69.866799,49.218919],[-69.867144,49.219054],[-69.868366,49.219918],[-69.869445,49.220883],[-69.874014,49.22252],[-69.875063,49.222975],[-69.877802,49.223818],[-69.879049,49.224339],[-69.880428,49.225114],[-69.882037,49.225354],[-69.88326,49.225055],[-69.884043,49.224582],[-69.884976,49.224188],[-69.887554,49.22346],[-69.888162,49.223445],[-69.89041,49.223033],[-69.891556,49.222958],[-69.89206,49.223069],[-69.892639,49.223063],[-69.89343,49.223176],[-69.894235,49.223409],[-69.894958,49.223686],[-69.895641,49.224206],[-69.897918,49.226701],[-69.898587,49.22728],[-69.898964,49.22746],[-69.900591,49.229049],[-69.901335,49.229507],[-69.902475,49.23042],[-69.903913,49.231404],[-69.90226,49.23331],[-69.899687,49.234877],[-69.89848,49.235699],[-69.897457,49.236269],[-69.896639,49.236886],[-69.895815,49.237275],[-69.894759,49.237946],[-69.894352,49.238074],[-69.89435,49.238361],[-69.894175,49.238632],[-69.893277,49.239427],[-69.891923,49.240004],[-69.889427,49.240782],[-69.888191,49.241616],[-69.886993,49.242289],[-69.886639,49.242587],[-69.886115,49.243401],[-69.88583,49.244417],[-69.885611,49.244898],[-69.884395,49.245996],[-69.883772,49.246426],[-69.883587,49.246698],[-69.883484,49.247544],[-69.883552,49.248719],[-69.883656,49.249147],[-69.882965,49.250171],[-69.882648,49.251221],[-69.882288,49.251626],[-69.880585,49.252572],[-69.880204,49.252887],[-69.879935,49.253153],[-69.879308,49.254121],[-69.879241,49.25493],[-69.879479,49.25521],[-69.87984,49.255894],[-69.881747,49.257216],[-69.879511,49.257723],[-69.878503,49.256989],[-69.878329,49.256583],[-69.877567,49.256022],[-69.877404,49.255652],[-69.877105,49.255605],[-69.875998,49.255096],[-69.875496,49.254671],[-69.874699,49.254639],[-69.874138,49.254438],[-69.874045,49.254186],[-69.874036,49.253826],[-69.873147,49.253525],[-69.872958,49.253272],[-69.871809,49.252861],[-69.870896,49.252298],[-69.870368,49.251684],[-69.869874,49.251618],[-69.869671,49.251438],[-69.869293,49.250869],[-69.868557,49.250442],[-69.868098,49.249936],[-69.865909,49.249115],[-69.865651,49.248844],[-69.866343,49.248488],[-69.866298,49.248419],[-69.865591,49.248761],[-69.8641,49.248961],[-69.863113,49.248854],[-69.861484,49.248407],[-69.860483,49.248383],[-69.859958,49.248484],[-69.858982,49.248837],[-69.85849,49.24912],[-69.856743,49.250334],[-69.855336,49.251195],[-69.847997,49.254917],[-69.834424,49.259885],[-69.833277,49.260401],[-69.832534,49.260629],[-69.831769,49.261023],[-69.830735,49.261795],[-69.829962,49.262513],[-69.829318,49.26332],[-69.827324,49.265485],[-69.826221,49.266897],[-69.824565,49.268655],[-69.823985,49.269432],[-69.823681,49.269671],[-69.822479,49.271201],[-69.821865,49.271703],[-69.821644,49.272057],[-69.821005,49.272739],[-69.819556,49.273625],[-69.81192,49.276927],[-69.807911,49.27887],[-69.805897,49.279717],[-69.805081,49.28017],[-69.804776,49.280246],[-69.804377,49.280782],[-69.80439,49.281837],[-69.804258,49.282422],[-69.804301,49.283083],[-69.804591,49.283614],[-69.805826,49.284773],[-69.806116,49.28552],[-69.807512,49.28693],[-69.807912,49.287517],[-69.807886,49.28825],[-69.807242,49.289041],[-69.807094,49.289823],[-69.806882,49.290112],[-69.806672,49.290657],[-69.806693,49.291081],[-69.806547,49.291694],[-69.806778,49.2931],[-69.807024,49.293011],[-69.807073,49.293191],[-69.807235,49.293192],[-69.80731,49.292985],[-69.807417,49.292942],[-69.807476,49.293102],[-69.807746,49.293176],[-69.807662,49.29344],[-69.807739,49.293514],[-69.807436,49.293979],[-69.807634,49.294337],[-69.807827,49.294387],[-69.807744,49.294568],[-69.808401,49.294989],[-69.808439,49.295194],[-69.80861,49.295365],[-69.808977,49.295455],[-69.80913,49.295634],[-69.809008,49.295897],[-69.808695,49.295993],[-69.808997,49.296254],[-69.808784,49.296506],[-69.808529,49.296607],[-69.808672,49.297006],[-69.808422,49.297222],[-69.808446,49.297467],[-69.808193,49.297625],[-69.808276,49.297848],[-69.808126,49.297891],[-69.807869,49.297821],[-69.807429,49.298623],[-69.806924,49.298939],[-69.806582,49.29901],[-69.806565,49.299233],[-69.806675,49.299532],[-69.806765,49.299562],[-69.80688,49.299447],[-69.806845,49.299712],[-69.80699,49.299896],[-69.807274,49.29984],[-69.807356,49.300033],[-69.807653,49.300068],[-69.8076,49.300253],[-69.807123,49.30066],[-69.807081,49.300854],[-69.806778,49.301007],[-69.806895,49.301496],[-69.806799,49.30153],[-69.806399,49.301322],[-69.806534,49.301605],[-69.806815,49.30187],[-69.806829,49.302257],[-69.806644,49.302225],[-69.806311,49.30231],[-69.806396,49.302463],[-69.806155,49.302455],[-69.805987,49.302556],[-69.805954,49.302438],[-69.805777,49.302332],[-69.805459,49.302488],[-69.805261,49.302448],[-69.805224,49.302553],[-69.805439,49.30283],[-69.805977,49.302914],[-69.805961,49.303096],[-69.805677,49.303305],[-69.805773,49.303402],[-69.805498,49.30362],[-69.805533,49.303787],[-69.805249,49.303813],[-69.805397,49.304075],[-69.805461,49.304422],[-69.805283,49.304313],[-69.805101,49.304389],[-69.805209,49.304664],[-69.805068,49.304894],[-69.805221,49.305126],[-69.804639,49.305299],[-69.804883,49.305466],[-69.804815,49.305785],[-69.804578,49.305739],[-69.804076,49.306097],[-69.8041,49.306313],[-69.803624,49.306512],[-69.80383,49.306924],[-69.803799,49.307162],[-69.804033,49.307327],[-69.803791,49.307474],[-69.803826,49.307545],[-69.804277,49.307572],[-69.804386,49.307501],[-69.804662,49.307637],[-69.804885,49.307627],[-69.80492,49.307773],[-69.805173,49.307838],[-69.805232,49.307949],[-69.805216,49.308121],[-69.804707,49.308133],[-69.804421,49.308326],[-69.804112,49.308747],[-69.803762,49.308964],[-69.80366,49.30913],[-69.803895,49.309748],[-69.803376,49.30969],[-69.803239,49.309826],[-69.803146,49.310559],[-69.8032,49.310774],[-69.803452,49.311084],[-69.803136,49.311476],[-69.803047,49.311765],[-69.803114,49.312014],[-69.80327,49.312188],[-69.803149,49.312345],[-69.803171,49.312739],[-69.803385,49.313001],[-69.803233,49.313217],[-69.803188,49.313466],[-69.803289,49.314013],[-69.803233,49.314155],[-69.803265,49.314815],[-69.803395,49.315328],[-69.803231,49.316232],[-69.803274,49.31708],[-69.803216,49.31725],[-69.803384,49.317535],[-69.80321,49.317733],[-69.803071,49.318247],[-69.802837,49.318274],[-69.803124,49.318468],[-69.802719,49.318621],[-69.8027,49.318689],[-69.802918,49.318888],[-69.802832,49.319074],[-69.802879,49.319158],[-69.803262,49.319222],[-69.803323,49.319523],[-69.803228,49.31957],[-69.802715,49.319379],[-69.802485,49.319404],[-69.802548,49.319877],[-69.802885,49.320301],[-69.802347,49.3206],[-69.802313,49.320891],[-69.802048,49.321099],[-69.802132,49.32129],[-69.802429,49.321525],[-69.802419,49.321603],[-69.801839,49.321342],[-69.801849,49.32157],[-69.802053,49.322019],[-69.802228,49.322144],[-69.80272,49.322196],[-69.802595,49.32233],[-69.802229,49.322366],[-69.802212,49.322507],[-69.802383,49.322569],[-69.802997,49.322554],[-69.803017,49.322644],[-69.802471,49.322881],[-69.802267,49.323127],[-69.802577,49.323689],[-69.8026,49.323917],[-69.802498,49.324138],[-69.802637,49.324236],[-69.802509,49.324501],[-69.802433,49.325043],[-69.802484,49.325355],[-69.802398,49.325594],[-69.802872,49.325899],[-69.803006,49.3259],[-69.802956,49.326025],[-69.803007,49.326259],[-69.803196,49.326575],[-69.803304,49.327646],[-69.803274,49.327817],[-69.803149,49.327897],[-69.80286,49.327895],[-69.802733,49.328119],[-69.802727,49.329549],[-69.802304,49.330266],[-69.802217,49.330598],[-69.802228,49.330805],[-69.80251,49.331301],[-69.802454,49.331373],[-69.802179,49.331353],[-69.801728,49.331135],[-69.800947,49.331822],[-69.799366,49.332739],[-69.798601,49.333292],[-69.796649,49.334143],[-69.796345,49.33424],[-69.796153,49.334203],[-69.795566,49.333849],[-69.794983,49.334178],[-69.79475,49.334132],[-69.794522,49.333735],[-69.794538,49.333555],[-69.794722,49.333241],[-69.795166,49.332974],[-69.795183,49.331787],[-69.794569,49.33137],[-69.794436,49.331072],[-69.79412,49.331016],[-69.793616,49.330672],[-69.793525,49.330356],[-69.793306,49.330211],[-69.793195,49.330273],[-69.793286,49.33067],[-69.79405,49.331115],[-69.794087,49.331403],[-69.793825,49.331482],[-69.792581,49.330899],[-69.792169,49.33087],[-69.792099,49.330923],[-69.792153,49.330977],[-69.792795,49.331368],[-69.793295,49.331956],[-69.793129,49.332045],[-69.791783,49.331865],[-69.791804,49.332342],[-69.791198,49.332374],[-69.790539,49.332226],[-69.790294,49.332081],[-69.790255,49.331901],[-69.789752,49.331511],[-69.789645,49.331241],[-69.789455,49.331069],[-69.787644,49.330734],[-69.787274,49.330597],[-69.787331,49.330453],[-69.787692,49.330285],[-69.787681,49.330042],[-69.787369,49.32977],[-69.786158,49.329798],[-69.785509,49.329956],[-69.785041,49.329944],[-69.784602,49.329834],[-69.784412,49.329644],[-69.78374,49.329559],[-69.783096,49.329357],[-69.782769,49.329103],[-69.782262,49.328983],[-69.782298,49.329325],[-69.782486,49.329641],[-69.78299,49.329986],[-69.784243,49.329975],[-69.784737,49.330059],[-69.784983,49.33016],[-69.785117,49.330386],[-69.785116,49.330493],[-69.785005,49.330565],[-69.78447,49.330418],[-69.783851,49.330405],[-69.783325,49.330599],[-69.782484,49.330729],[-69.78229,49.330836],[-69.781981,49.331238],[-69.783151,49.331264],[-69.783685,49.33142],[-69.784175,49.331801],[-69.784673,49.332541],[-69.784834,49.333792],[-69.784741,49.334529],[-69.784585,49.334816],[-69.78458,49.335184],[-69.78442,49.33575],[-69.783822,49.336205],[-69.783214,49.337298],[-69.782544,49.33795],[-69.78202,49.338019],[-69.781046,49.337833],[-69.781031,49.337896],[-69.781441,49.338123],[-69.781602,49.338421],[-69.781585,49.33861],[-69.781347,49.338896],[-69.781286,49.339318],[-69.780909,49.339658],[-69.779857,49.34011],[-69.779402,49.340161],[-69.77879,49.340598],[-69.777719,49.340456],[-69.777323,49.340211],[-69.776854,49.340271],[-69.776556,49.339945],[-69.775474,49.339633],[-69.775256,49.339496],[-69.774402,49.338574],[-69.774522,49.337927],[-69.774634,49.337802],[-69.774581,49.337631],[-69.773996,49.337178],[-69.773672,49.336789],[-69.772851,49.336469],[-69.772756,49.336333],[-69.772752,49.335686],[-69.772875,49.334787],[-69.772974,49.334653],[-69.773431,49.334449],[-69.773879,49.33393],[-69.77365,49.333569],[-69.773469,49.332813],[-69.773526,49.332624],[-69.773889,49.332312],[-69.77388,49.331997],[-69.773576,49.332094],[-69.772934,49.331766],[-69.772873,49.331244],[-69.772739,49.330956],[-69.773122,49.330221],[-69.772903,49.330085],[-69.772367,49.330054],[-69.772286,49.329955],[-69.772688,49.32975],[-69.773115,49.329726],[-69.773132,49.329537],[-69.772941,49.329383],[-69.772584,49.329354],[-69.772224,49.329505],[-69.772243,49.330071],[-69.772182,49.330485],[-69.77207,49.330628],[-69.771079,49.330631],[-69.770244,49.331255],[-69.769406,49.33116],[-69.76868,49.330966],[-69.76812,49.33072],[-69.767753,49.330385],[-69.767262,49.330112],[-69.765942,49.330059],[-69.765738,49.329868],[-69.765646,49.329598],[-69.765584,49.328204],[-69.76523,49.327968],[-69.764764,49.327803],[-69.764671,49.327622],[-69.764751,49.326886],[-69.765316,49.32679],[-69.765292,49.326592],[-69.765752,49.326155],[-69.765756,49.325858],[-69.765605,49.325848],[-69.765065,49.326123],[-69.763923,49.326134],[-69.763553,49.326033],[-69.763428,49.326113],[-69.763326,49.326463],[-69.763229,49.326543],[-69.761904,49.326813],[-69.761628,49.32683],[-69.761396,49.326738],[-69.761208,49.326431],[-69.760976,49.326295],[-69.760738,49.326581],[-69.760815,49.326923],[-69.760757,49.327112],[-69.760343,49.327244],[-69.759958,49.327215],[-69.758986,49.326885],[-69.757742,49.326328],[-69.756822,49.32625],[-69.756563,49.326096],[-69.756323,49.325591],[-69.75624,49.325572],[-69.753582,49.325798],[-69.75329,49.325086],[-69.754118,49.324911],[-69.754229,49.324813],[-69.75367,49.32453],[-69.753578,49.324233],[-69.753347,49.324043],[-69.753101,49.323906],[-69.751849,49.323898],[-69.751397,49.323778],[-69.75118,49.323615],[-69.75168,49.323259],[-69.751736,49.323178],[-69.751668,49.323133],[-69.750433,49.322945],[-69.749776,49.322716],[-69.749613,49.32258],[-69.748763,49.322367],[-69.748067,49.322057],[-69.748013,49.321976],[-69.74811,49.321905],[-69.748799,49.321837],[-69.750131,49.322026],[-69.750382,49.321802],[-69.750316,49.321586],[-69.7494,49.321248],[-69.749346,49.321148],[-69.749915,49.320819],[-69.751308,49.320594],[-69.751504,49.320371],[-69.75145,49.320308],[-69.751229,49.32036],[-69.751025,49.320188],[-69.750541,49.320338],[-69.749177,49.320509],[-69.748335,49.320719],[-69.747963,49.320726],[-69.747621,49.320615],[-69.747406,49.320272],[-69.747504,49.320129],[-69.748424,49.319389],[-69.749086,49.319249],[-69.749005,49.319132],[-69.748289,49.31919],[-69.747957,49.319323],[-69.747567,49.319626],[-69.746596,49.32015],[-69.746177,49.320579],[-69.745732,49.320864],[-69.74503,49.320904],[-69.74488,49.320849],[-69.744718,49.320633],[-69.74429,49.320738],[-69.743975,49.320646],[-69.743727,49.320689],[-69.743793,49.320842],[-69.744051,49.321042],[-69.744048,49.321285],[-69.74369,49.321309],[-69.742159,49.320616],[-69.741159,49.320384],[-69.739867,49.319396],[-69.739387,49.319312],[-69.738683,49.319469],[-69.73772,49.319471],[-69.737432,49.319398],[-69.736696,49.318997],[-69.735805,49.318784],[-69.735423,49.318539],[-69.734874,49.318455],[-69.734056,49.318026],[-69.73384,49.317773],[-69.733764,49.317332],[-69.733546,49.317169],[-69.732767,49.316849],[-69.732509,49.316658],[-69.731427,49.316318],[-69.731241,49.315895],[-69.730937,49.315991],[-69.730897,49.31591],[-69.730554,49.315845],[-69.730584,49.315692],[-69.729782,49.315975],[-69.729139,49.315782],[-69.728744,49.315518],[-69.728645,49.314834],[-69.728745,49.314547],[-69.729264,49.313921],[-69.729434,49.31358],[-69.729394,49.313544],[-69.729021,49.313659],[-69.728851,49.313927],[-69.728615,49.314096],[-69.727674,49.314423],[-69.727104,49.314851],[-69.726518,49.314505],[-69.725274,49.313975],[-69.724493,49.313781],[-69.723441,49.313342],[-69.723126,49.313295],[-69.72295,49.313087],[-69.722622,49.312941],[-69.722569,49.312815],[-69.722243,49.312588],[-69.722385,49.312256],[-69.722361,49.312076],[-69.722017,49.312056],[-69.721718,49.311865],[-69.720965,49.311626],[-69.720583,49.311417],[-69.720294,49.311406],[-69.719803,49.311178],[-69.719418,49.311148],[-69.718802,49.310964],[-69.718052,49.31059],[-69.717654,49.310525],[-69.717327,49.310307],[-69.717084,49.310017],[-69.716057,49.309732],[-69.714342,49.309486],[-69.714253,49.309881],[-69.71454,49.31],[-69.715409,49.310707],[-69.71638,49.311065],[-69.716556,49.311228],[-69.717075,49.311438],[-69.717549,49.311945],[-69.718192,49.312129],[-69.718977,49.312953],[-69.719109,49.313295],[-69.71898,49.313609],[-69.719064,49.314401],[-69.718495,49.315575],[-69.718725,49.315865],[-69.71858,49.316331],[-69.71893,49.316801],[-69.719007,49.317134],[-69.719224,49.317316],[-69.719163,49.317747],[-69.718676,49.318076],[-69.71764,49.319202],[-69.71718,49.319568],[-69.716799,49.320231],[-69.716469,49.321056],[-69.715905,49.321915],[-69.715752,49.322004],[-69.715422,49.322002],[-69.715337,49.322172],[-69.714924,49.322161],[-69.71422,49.322336],[-69.71345,49.322303],[-69.71338,49.322375],[-69.71401,49.322577],[-69.714144,49.322776],[-69.714417,49.322921],[-69.714643,49.323418],[-69.715013,49.323528],[-69.71512,49.323682],[-69.715287,49.323557],[-69.715494,49.323531],[-69.715382,49.323674],[-69.715394,49.323782],[-69.715899,49.324065],[-69.716256,49.324076],[-69.717453,49.323221],[-69.717749,49.322782],[-69.717942,49.32273],[-69.718125,49.322488],[-69.71843,49.322301],[-69.718664,49.322285],[-69.718793,49.321953],[-69.718932,49.321864],[-69.719096,49.321964],[-69.719077,49.32227],[-69.719239,49.32246],[-69.719303,49.322784],[-69.719672,49.322975],[-69.719756,49.32285],[-69.720045,49.322825],[-69.720145,49.322601],[-69.720339,49.322503],[-69.721402,49.321422],[-69.721691,49.321388],[-69.7219,49.321237],[-69.722604,49.320198],[-69.722592,49.32009],[-69.722523,49.32009],[-69.720767,49.320671],[-69.720247,49.320488],[-69.719909,49.320144],[-69.719856,49.319991],[-69.719903,49.319613],[-69.7202,49.319112],[-69.721169,49.317841],[-69.721039,49.317391],[-69.721224,49.317014],[-69.721054,49.316465],[-69.721143,49.316043],[-69.72131,49.315918],[-69.722153,49.315636],[-69.723321,49.315725],[-69.724467,49.31549],[-69.725166,49.315638],[-69.725423,49.315865],[-69.726108,49.316085],[-69.727577,49.316257],[-69.727794,49.316474],[-69.728163,49.316611],[-69.728275,49.316495],[-69.728523,49.31647],[-69.728849,49.316706],[-69.729686,49.316873],[-69.73336,49.318507],[-69.734504,49.319261],[-69.735476,49.319583],[-69.735706,49.319809],[-69.736446,49.320039],[-69.738123,49.320994],[-69.739435,49.321542],[-69.740004,49.322103],[-69.74054,49.323042],[-69.740692,49.323025],[-69.741013,49.322721],[-69.741552,49.322527],[-69.742088,49.322567],[-69.742421,49.322407],[-69.743404,49.322872],[-69.744307,49.323193],[-69.747238,49.324057],[-69.747551,49.324275],[-69.747686,49.324492],[-69.74761,49.324968],[-69.747647,49.32522],[-69.748022,49.325879],[-69.748525,49.327159],[-69.749655,49.328902],[-69.749886,49.329074],[-69.750142,49.329427],[-69.750514,49.330328],[-69.751043,49.330817],[-69.751661,49.330902],[-69.751726,49.331154],[-69.751969,49.331462],[-69.752908,49.332106],[-69.753315,49.332505],[-69.753501,49.332919],[-69.754141,49.333418],[-69.754192,49.33367],[-69.753909,49.334199],[-69.753125,49.335057],[-69.752127,49.335527],[-69.75042,49.335579],[-69.750198,49.335722],[-69.749797,49.335818],[-69.748449,49.335782],[-69.748143,49.335987],[-69.747551,49.336945],[-69.747675,49.338754],[-69.747848,49.339133],[-69.748674,49.339992],[-69.749279,49.340059],[-69.749518,49.340636],[-69.749627,49.340664],[-69.74974,49.340485],[-69.749748,49.339981],[-69.749494,49.339494],[-69.749059,49.339086],[-69.749074,49.338133],[-69.749861,49.337968],[-69.750329,49.337962],[-69.750512,49.337675],[-69.750777,49.33747],[-69.751108,49.337382],[-69.751208,49.337176],[-69.751857,49.336982],[-69.752656,49.33697],[-69.753278,49.336803],[-69.753654,49.336454],[-69.754053,49.336502],[-69.754389,49.337017],[-69.75465,49.337954],[-69.754703,49.338997],[-69.754338,49.339462],[-69.755195,49.340169],[-69.755401,49.341097],[-69.755655,49.341584],[-69.755594,49.341943],[-69.755308,49.34267],[-69.755289,49.343021],[-69.755381,49.343327],[-69.755965,49.343825],[-69.756974,49.344479],[-69.75808,49.345035],[-69.758534,49.345083],[-69.758711,49.345174],[-69.759372,49.346095],[-69.759186,49.34658],[-69.759319,49.346859],[-69.759879,49.347133],[-69.760501,49.346993],[-69.761283,49.347124],[-69.762094,49.348172],[-69.763791,49.349684],[-69.765112,49.351599],[-69.765414,49.352563],[-69.765618,49.353671],[-69.76556,49.353877],[-69.765611,49.354138],[-69.766997,49.354453],[-69.768844,49.355166],[-69.769298,49.355205],[-69.76953,49.355341],[-69.769487,49.355467],[-69.76972,49.355522],[-69.769897,49.355676],[-69.769737,49.356242],[-69.769798,49.356746],[-69.77058,49.357875],[-69.770757,49.35802],[-69.771238,49.358095],[-69.771522,49.358402],[-69.772016,49.358531],[-69.772864,49.358914],[-69.7745,49.359977],[-69.775286,49.360881],[-69.775879,49.361721],[-69.776093,49.362136],[-69.776317,49.362857],[-69.77702,49.362789],[-69.778098,49.362499],[-69.779089,49.362505],[-69.779568,49.362742],[-69.780181,49.363204],[-69.781694,49.36325],[-69.783356,49.363548],[-69.784034,49.3633],[-69.78562,49.363139],[-69.786092,49.362845],[-69.787484,49.3628],[-69.788047,49.362911],[-69.789209,49.363431],[-69.789525,49.363496],[-69.789622,49.363443],[-69.789976,49.362752],[-69.790366,49.362485],[-69.790634,49.362046],[-69.790815,49.361903],[-69.791741,49.361639],[-69.791916,49.360939],[-69.792811,49.360926],[-69.793015,49.36109],[-69.793648,49.361138],[-69.793967,49.360969],[-69.794248,49.360593],[-69.794427,49.360586],[-69.794893,49.360759],[-69.795651,49.360683],[-69.796022,49.360721],[-69.796363,49.360957],[-69.797088,49.361276],[-69.797429,49.361539],[-69.797978,49.363539],[-69.798193,49.363954],[-69.798599,49.364424],[-69.801065,49.366291],[-69.802771,49.367354],[-69.802922,49.367345],[-69.804811,49.368175],[-69.806052,49.369037],[-69.806514,49.369462],[-69.808199,49.37012],[-69.809563,49.371045],[-69.809865,49.371092],[-69.809922,49.369941],[-69.810268,49.369817],[-69.810902,49.369821],[-69.811973,49.369999],[-69.813315,49.370591],[-69.81386,49.371008],[-69.814332,49.371667],[-69.814398,49.371928],[-69.814694,49.372371],[-69.814622,49.372613],[-69.813849,49.37277],[-69.813326,49.372722],[-69.811875,49.372129],[-69.811572,49.372091],[-69.811227,49.372188],[-69.810987,49.372591],[-69.81119,49.372862],[-69.811241,49.373115],[-69.810915,49.373778],[-69.810665,49.373947],[-69.809242,49.374299],[-69.80906,49.374459],[-69.809072,49.374639],[-69.809553,49.374678],[-69.809775,49.374536],[-69.810395,49.37453],[-69.810813,49.374209],[-69.811602,49.37389],[-69.81194,49.374369],[-69.811972,49.374998],[-69.811885,49.375313],[-69.811938,49.375484],[-69.81221,49.37571],[-69.812581,49.37582],[-69.812816,49.375732],[-69.812902,49.375525],[-69.812973,49.375328],[-69.812938,49.374869],[-69.812583,49.374696],[-69.812546,49.374327],[-69.812328,49.374182],[-69.812357,49.374083],[-69.812733,49.37378],[-69.813215,49.373801],[-69.813448,49.373838],[-69.814119,49.374157],[-69.814594,49.374618],[-69.814959,49.375106],[-69.815314,49.375342],[-69.815658,49.375389],[-69.81588,49.375246],[-69.81672,49.375242],[-69.817683,49.375365],[-69.818436,49.375657],[-69.819291,49.376588],[-69.819577,49.377786],[-69.819778,49.37821],[-69.819788,49.378444],[-69.820968,49.37979],[-69.821711,49.381872],[-69.821744,49.382484],[-69.821503,49.382923],[-69.820681,49.382657],[-69.820294,49.382727],[-69.81991,49.382599],[-69.819564,49.382705],[-69.819784,49.383785],[-69.819998,49.384245],[-69.820006,49.384659],[-69.820337,49.385578],[-69.820651,49.385814],[-69.821308,49.386105],[-69.822133,49.386254],[-69.822681,49.386464],[-69.823007,49.386754],[-69.823595,49.387099],[-69.824474,49.387311],[-69.824965,49.387601],[-69.825829,49.387885],[-69.826253,49.388157],[-69.826308,49.388122],[-69.826038,49.387733],[-69.826438,49.387727],[-69.825594,49.38694],[-69.825529,49.386714],[-69.825668,49.386562],[-69.825848,49.386563],[-69.825864,49.386348],[-69.825783,49.386248],[-69.825838,49.38624],[-69.826402,49.386333],[-69.82699,49.386633],[-69.827807,49.387357],[-69.828243,49.387638],[-69.828923,49.388317],[-69.82936,49.388607],[-69.829588,49.389058],[-69.830265,49.389907],[-69.830152,49.390122],[-69.83,49.390166],[-69.829942,49.3904],[-69.829598,49.390335],[-69.829692,49.390551],[-69.82984,49.390759],[-69.83025,49.391004],[-69.831037,49.39189],[-69.831307,49.392341],[-69.832003,49.392795],[-69.832623,49.393797],[-69.832828,49.393969],[-69.832945,49.394464],[-69.83324,49.395041],[-69.833383,49.395698],[-69.832932,49.397449],[-69.833092,49.397873],[-69.833085,49.398385],[-69.833313,49.398809],[-69.833332,49.399439],[-69.833508,49.39971],[-69.833597,49.400232],[-69.83325,49.400383],[-69.833289,49.400608],[-69.83352,49.400834],[-69.833842,49.401474],[-69.833915,49.402158],[-69.834024,49.402302],[-69.834272,49.403284],[-69.834476,49.403519],[-69.834663,49.403952],[-69.834725,49.404429],[-69.834625,49.404734],[-69.834676,49.404977],[-69.83458,49.405003],[-69.834507,49.405309],[-69.834471,49.405911],[-69.834747,49.405859],[-69.835178,49.405627],[-69.835258,49.405772],[-69.835267,49.406149],[-69.834775,49.406857],[-69.834744,49.407091],[-69.835016,49.40738],[-69.835109,49.407623],[-69.835064,49.407893],[-69.834688,49.408187],[-69.834929,49.40871],[-69.834872,49.408881],[-69.834904,49.409546],[-69.834818,49.409834],[-69.834871,49.409942],[-69.834837,49.410427],[-69.834652,49.410849],[-69.834571,49.411757],[-69.834284,49.412627],[-69.834418,49.412907],[-69.834771,49.41325],[-69.834726,49.413538],[-69.834816,49.414051],[-69.835235,49.415636],[-69.835336,49.417354],[-69.835247,49.417812],[-69.835402,49.418632],[-69.835431,49.419542],[-69.824564,49.421912],[-69.824008,49.422207],[-69.823208,49.422266],[-69.82285,49.42221],[-69.821536,49.421572],[-69.82136,49.421302],[-69.820826,49.421065],[-69.81969,49.422443],[-69.819524,49.422505],[-69.819001,49.422439],[-69.8177,49.422809],[-69.817425,49.422789],[-69.817373,49.422564],[-69.817237,49.422419],[-69.817411,49.421809],[-69.817371,49.421719],[-69.818285,49.420384],[-69.818705,49.419955],[-69.818626,49.419685],[-69.817902,49.419186],[-69.817135,49.418876],[-69.816639,49.418864],[-69.816433,49.418755],[-69.816075,49.41878],[-69.815409,49.419045],[-69.815131,49.419269],[-69.814863,49.419672],[-69.814434,49.419813],[-69.814148,49.419515],[-69.81341,49.419079],[-69.81287,49.419246],[-69.812554,49.419172],[-69.812367,49.418785],[-69.812079,49.418675],[-69.811943,49.41853],[-69.81138,49.418338],[-69.810253,49.418143],[-69.808226,49.418184],[-69.807742,49.418289],[-69.80738,49.41853],[-69.807416,49.418962],[-69.807629,49.419512],[-69.807768,49.420385],[-69.807748,49.420798],[-69.807498,49.421903],[-69.806828,49.422528],[-69.806444,49.422364],[-69.805982,49.421894],[-69.805505,49.421549],[-69.803193,49.420258],[-69.802816,49.419663],[-69.802528,49.418582],[-69.801935,49.417589],[-69.8015,49.417182],[-69.801245,49.416695],[-69.800604,49.416259],[-69.800239,49.415849],[-69.799686,49.41607],[-69.799607,49.416121],[-69.799728,49.416775],[-69.799542,49.417242],[-69.799092,49.417878],[-69.79862,49.418136],[-69.798159,49.418564],[-69.797877,49.418976],[-69.7979,49.419282],[-69.79773,49.419641],[-69.797449,49.420008],[-69.797226,49.420132],[-69.796593,49.421082],[-69.796755,49.421272],[-69.796737,49.421586],[-69.796897,49.421983],[-69.796866,49.422207],[-69.796945,49.42246],[-69.796861,49.422576],[-69.796682,49.422566],[-69.79597,49.422211],[-69.795725,49.422003],[-69.795216,49.421919],[-69.794532,49.421519],[-69.794079,49.421426],[-69.79337,49.4209],[-69.792727,49.420689],[-69.792583,49.420943],[-69.792509,49.421345],[-69.79258,49.422141],[-69.791663,49.4226],[-69.791392,49.42317],[-69.790361,49.424015],[-69.790372,49.4242],[-69.790631,49.424402],[-69.790614,49.424665],[-69.790843,49.424994],[-69.79183,49.425405],[-69.792235,49.425983],[-69.792458,49.426758],[-69.792452,49.427171],[-69.79224,49.427539],[-69.792425,49.428142],[-69.792486,49.4287],[-69.792329,49.429032],[-69.791424,49.429674],[-69.79126,49.429538],[-69.790739,49.429364],[-69.790312,49.429316],[-69.790228,49.429397],[-69.790225,49.429604],[-69.790429,49.42983],[-69.790744,49.429984],[-69.791184,49.430032],[-69.791319,49.430276],[-69.791362,49.431058],[-69.791557,49.431878],[-69.791708,49.431951],[-69.792319,49.43164],[-69.792461,49.43138],[-69.792821,49.431265],[-69.793207,49.431267],[-69.793397,49.431439],[-69.79346,49.431862],[-69.793142,49.432922],[-69.793044,49.433002],[-69.792272,49.433006],[-69.792156,49.433428],[-69.791761,49.433983],[-69.791356,49.434394],[-69.791065,49.434456],[-69.790529,49.434326],[-69.790164,49.43481],[-69.790258,49.435008],[-69.790421,49.435117],[-69.790165,49.435718],[-69.790011,49.436805],[-69.789842,49.437083],[-69.789682,49.437648],[-69.789742,49.438224],[-69.790468,49.439524],[-69.790575,49.439794],[-69.79053,49.440019],[-69.789916,49.440554],[-69.788065,49.440768],[-69.787418,49.440692],[-69.786836,49.440841],[-69.786169,49.441233],[-69.786397,49.441666],[-69.786338,49.441926],[-69.786088,49.442059],[-69.786043,49.442257],[-69.785614,49.442371],[-69.784898,49.44234]]]},"properties":{"PROTECTED_AREA_NAME_ENG":"Zec Labrieville","PROVINCIAL_PARK_CLASS_ENG":"Zone d'exploitation contrôlée","KIND":"zec","CODE":"Z-095C","RIGHTS":"Chasse et pêche"}}]}