{"type":"FeatureCollection","name":"Historical fire perimeters (BC Wildfire Service)","features":[{"type":"Feature","geometry":{"type":"Polygon","coordinates":[[[-136.579254,59.943745],[-136.58464,59.945457],[-136.585495,59.945744],[-136.588669,59.948685],[-136.587524,59.951511],[-136.582504,59.951527],[-136.570404,59.951855],[-136.562317,59.953033],[-136.555191,59.954212],[-136.550568,59.954803],[-136.55,59.955045],[-136.55,59.941968],[-136.571152,59.943481],[-136.579254,59.943745]]]},"properties":{"FIRE_YEAR":1951,"FIRE_TYPE_CODE":null,"FIRE_FINAL_SIZE":630.4}}]}