{"type":"FeatureCollection","name":"Parks, ecological reserves and protected areas (BC)","features":[{"type":"Feature","geometry":{"type":"Polygon","coordinates":[[[-136.88239,59.999445],[-136.876967,59.999449],[-136.86717,59.999456],[-136.854474,59.999464],[-136.847668,59.999469],[-136.846607,59.997971],[-136.846502,59.99782],[-136.846408,59.997676],[-136.846318,59.997531],[-136.846233,59.997385],[-136.846154,59.997239],[-136.84608,59.997091],[-136.846011,59.996944],[-136.845947,59.996795],[-136.845888,59.996646],[-136.845834,59.996497],[-136.845786,59.996347],[-136.845742,59.996196],[-136.845705,59.996046],[-136.845672,59.995895],[-136.845644,59.995744],[-136.84481,59.990646],[-136.844774,59.990458],[-136.844747,59.990345],[-136.844715,59.990231],[-136.84468,59.990118],[-136.844641,59.990005],[-136.844598,59.989893],[-136.844552,59.989781],[-136.844501,59.989669],[-136.844446,59.989558],[-136.844388,59.989448],[-136.844325,59.989338],[-136.844259,59.989228],[-136.844189,59.989119],[-136.844116,59.989011],[-136.844038,59.988903],[-136.843957,59.988796],[-136.843872,59.98869],[-136.843783,59.988585],[-136.843691,59.98848],[-136.843595,59.988376],[-136.843496,59.988273],[-136.843392,59.988171],[-136.843286,59.98807],[-136.843176,59.98797],[-136.843062,59.987871],[-136.842945,59.987772],[-136.842825,59.987675],[-136.842701,59.987579],[-136.842574,59.987484],[-136.842443,59.98739],[-136.842309,59.987297],[-136.842173,59.987206],[-136.842032,59.987115],[-136.841889,59.987026],[-136.841743,59.986938],[-136.841594,59.986852],[-136.841441,59.986766],[-136.841286,59.986683],[-136.841128,59.9866],[-136.840967,59.986519],[-136.840803,59.986439],[-136.840637,59.986361],[-136.835725,59.984093],[-136.834472,59.983513],[-136.822991,59.978209],[-136.822645,59.978043],[-136.822476,59.977958],[-136.822309,59.977871],[-136.822146,59.977782],[-136.821985,59.977693],[-136.821828,59.977601],[-136.821674,59.977509],[-136.821523,59.977415],[-136.821376,59.97732],[-136.821232,59.977223],[-136.821091,59.977126],[-136.820954,59.977027],[-136.82082,59.976927],[-136.820689,59.976825],[-136.820562,59.976723],[-136.820439,59.976619],[-136.82032,59.976515],[-136.820204,59.976409],[-136.820091,59.976303],[-136.819983,59.976195],[-136.819878,59.976087],[-136.819777,59.975977],[-136.81968,59.975867],[-136.819587,59.975756],[-136.819497,59.975644],[-136.819412,59.975531],[-136.81933,59.975418],[-136.819253,59.975304],[-136.819179,59.975189],[-136.819109,59.975074],[-136.819044,59.974958],[-136.818982,59.974841],[-136.818925,59.974724],[-136.818871,59.974607],[-136.818822,59.974489],[-136.818777,59.97437],[-136.818736,59.974251],[-136.818699,59.974132],[-136.818666,59.974013],[-136.818638,59.973893],[-136.818613,59.973773],[-136.817669,59.968696],[-136.817548,59.96814],[-136.817464,59.967824],[-136.81737,59.96751],[-136.817264,59.967196],[-136.817148,59.966884],[-136.81702,59.966572],[-136.816882,59.966262],[-136.816733,59.965953],[-136.816573,59.965645],[-136.816403,59.965338],[-136.816222,59.965034],[-136.81603,59.96473],[-136.808426,59.953051],[-136.803334,59.94713],[-136.802477,59.946134],[-136.802235,59.945843],[-136.802067,59.945629],[-136.801907,59.945413],[-136.801754,59.945196],[-136.801609,59.944978],[-136.801471,59.944758],[-136.801341,59.944538],[-136.801219,59.944316],[-136.801104,59.944093],[-136.800989,59.94385],[-136.80089,59.943625],[-136.8008,59.943399],[-136.800717,59.943173],[-136.800642,59.942946],[-136.800575,59.942718],[-136.800517,59.94249],[-136.800466,59.942261],[-136.800423,59.942032],[-136.800388,59.941802],[-136.800361,59.941573],[-136.799336,59.931341],[-136.799283,59.930816],[-136.798604,59.924024],[-136.798584,59.923862],[-136.798563,59.923733],[-136.798538,59.923603],[-136.798508,59.923474],[-136.798474,59.923345],[-136.798435,59.923216],[-136.798391,59.923088],[-136.798344,59.92296],[-136.798292,59.922833],[-136.798235,59.922706],[-136.798174,59.922579],[-136.798109,59.922454],[-136.798039,59.922328],[-136.797965,59.922204],[-136.797886,59.92208],[-136.797803,59.921956],[-136.797716,59.921834],[-136.797625,59.921712],[-136.79753,59.921591],[-136.79743,59.921471],[-136.797326,59.921352],[-136.797218,59.921234],[-136.797106,59.921116],[-136.79699,59.921],[-136.79687,59.920885],[-136.796746,59.920771],[-136.796618,59.920658],[-136.78689,59.912236],[-136.786726,59.912097],[-136.786558,59.91196],[-136.786385,59.911824],[-136.786207,59.911689],[-136.786024,59.911556],[-136.785837,59.911425],[-136.785645,59.911295],[-136.785449,59.911168],[-136.785249,59.911041],[-136.785044,59.910917],[-136.784835,59.910795],[-136.784621,59.910674],[-136.784404,59.910555],[-136.784182,59.910438],[-136.783956,59.910323],[-136.783727,59.91021],[-136.783493,59.9101],[-136.783256,59.909991],[-136.783014,59.909884],[-136.78277,59.909779],[-136.782521,59.909677],[-136.782269,59.909577],[-136.782014,59.909479],[-136.781755,59.909383],[-136.781493,59.909289],[-136.781228,59.909198],[-136.775919,59.907407],[-136.771382,59.905875],[-136.765646,59.903939],[-136.764911,59.903682],[-136.764542,59.903545],[-136.764178,59.903405],[-136.763818,59.903262],[-136.763464,59.903116],[-136.763115,59.902967],[-136.762771,59.902815],[-136.762432,59.90266],[-136.762099,59.902502],[-136.761772,59.902341],[-136.76145,59.902177],[-136.761134,59.902011],[-136.760823,59.901841],[-136.752109,59.897],[-136.891,59.897],[-136.891,59.999477],[-136.88239,59.999445]]]},"properties":{"PROTECTED_AREA_NAME_ENG":"Tatshenshini-Alsek Park","PROVINCIAL_PARK_CLASS_ENG":"Provincial Park, class Class A","KIND":"Provincial Park"}}]}