{"type":"FeatureCollection","name":"Digital Road Atlas and TRIM trails (BC)","features":[{"type":"Feature","geometry":{"type":"LineString","coordinates":[[-136.791208,59.916543],[-136.790662,59.916695]]},"properties":{"ROAD_NAME":null,"KIND":"local, paved","SURFACE_TYPE":"paved"}},{"type":"Feature","geometry":{"type":"LineString","coordinates":[[-136.689015,59.865015],[-136.690412,59.865683],[-136.691943,59.866532],[-136.693071,59.867306],[-136.698815,59.87281],[-136.699156,59.873136],[-136.705137,59.878865],[-136.705352,59.879071],[-136.705996,59.879652],[-136.70705,59.880446],[-136.708161,59.881171],[-136.709394,59.881867],[-136.710477,59.882426],[-136.71177,59.883022],[-136.713232,59.883566],[-136.714442,59.883981],[-136.716127,59.884487],[-136.717401,59.884808],[-136.729484,59.887578],[-136.7315,59.888086],[-136.732985,59.888537],[-136.733608,59.888726],[-136.735265,59.88929],[-136.740719,59.891335],[-136.7421,59.891943],[-136.742379,59.892066],[-136.743859,59.892836],[-136.756775,59.900001],[-136.760523,59.902079],[-136.761584,59.902635],[-136.761784,59.902725]]},"properties":{"ROAD_NAME":"Haines Hwy","KIND":"highway, paved","SURFACE_TYPE":"paved"}},{"type":"Feature","geometry":{"type":"LineString","coordinates":[[-136.781136,59.909497],[-136.78183,59.909733],[-136.784032,59.910729],[-136.785548,59.911668],[-136.786801,59.912717],[-136.791208,59.916543]]},"properties":{"ROAD_NAME":"Haines Hwy","KIND":"highway, paved","SURFACE_TYPE":"paved"}},{"type":"Feature","geometry":{"type":"LineString","coordinates":[[-136.791208,59.916543],[-136.791531,59.916821]]},"properties":{"ROAD_NAME":"Haines Hwy","KIND":"highway, paved","SURFACE_TYPE":"paved"}},{"type":"Feature","geometry":{"type":"LineString","coordinates":[[-136.798081,59.924222],[-136.798093,59.924357]]},"properties":{"ROAD_NAME":"Haines Hwy","KIND":"highway, paved","SURFACE_TYPE":"paved"}},{"type":"Feature","geometry":{"type":"LineString","coordinates":[[-136.844445,59.991887],[-136.844457,59.991959],[-136.844481,59.992111],[-136.844502,59.992249]]},"properties":{"ROAD_NAME":"Blanchard River Bridge","KIND":"highway, paved","SURFACE_TYPE":"paved"}},{"type":"Feature","geometry":{"type":"LineString","coordinates":[[-136.844502,59.992249],[-136.844737,59.993773]]},"properties":{"ROAD_NAME":"Haines Hwy","KIND":"highway, paved","SURFACE_TYPE":"paved"}},{"type":"Feature","geometry":{"type":"LineString","coordinates":[[-136.761784,59.902725],[-136.763197,59.903357],[-136.764686,59.903929],[-136.781136,59.909497]]},"properties":{"ROAD_NAME":"Haines Hwy","KIND":"highway, paved","SURFACE_TYPE":"paved"}},{"type":"Feature","geometry":{"type":"LineString","coordinates":[[-136.791531,59.916821],[-136.793696,59.918684]]},"properties":{"ROAD_NAME":"Haines Hwy","KIND":"highway, paved","SURFACE_TYPE":"paved"}},{"type":"Feature","geometry":{"type":"LineString","coordinates":[[-136.793696,59.918684],[-136.79393,59.918885],[-136.796158,59.920802],[-136.797141,59.921855],[-136.797541,59.922467],[-136.797922,59.923413],[-136.798064,59.924134]]},"properties":{"ROAD_NAME":"Haines Hwy","KIND":"highway, paved","SURFACE_TYPE":"paved"}},{"type":"Feature","geometry":{"type":"LineString","coordinates":[[-136.798064,59.924134],[-136.798081,59.924222]]},"properties":{"ROAD_NAME":"Haines Hwy","KIND":"highway, paved","SURFACE_TYPE":"paved"}},{"type":"Feature","geometry":{"type":"LineString","coordinates":[[-136.798093,59.924357],[-136.79844,59.928088],[-136.798602,59.929827],[-136.798975,59.933838]]},"properties":{"ROAD_NAME":"Haines Hwy","KIND":"highway, paved","SURFACE_TYPE":"paved"}},{"type":"Feature","geometry":{"type":"LineString","coordinates":[[-136.798975,59.933838],[-136.799566,59.940187],[-136.799926,59.942385],[-136.800325,59.943611],[-136.800822,59.944619],[-136.801479,59.945631],[-136.801856,59.946115]]},"properties":{"ROAD_NAME":"Haines Hwy","KIND":"highway, paved","SURFACE_TYPE":"paved"}},{"type":"Feature","geometry":{"type":"LineString","coordinates":[[-136.801856,59.946115],[-136.802428,59.94685],[-136.807,59.952096],[-136.807485,59.952718],[-136.808195,59.95363],[-136.808246,59.953706]]},"properties":{"ROAD_NAME":"Haines Hwy","KIND":"highway, paved","SURFACE_TYPE":"paved"}},{"type":"Feature","geometry":{"type":"LineString","coordinates":[[-136.813653,59.96192],[-136.813803,59.962155],[-136.815925,59.965472],[-136.816609,59.966855],[-136.817,59.968087],[-136.818047,59.973586],[-136.818081,59.973723]]},"properties":{"ROAD_NAME":"Haines Hwy","KIND":"highway, paved","SURFACE_TYPE":"paved"}},{"type":"Feature","geometry":{"type":"LineString","coordinates":[[-136.818081,59.973723],[-136.818257,59.974422],[-136.818586,59.975172],[-136.819184,59.976004],[-136.81967,59.976488]]},"properties":{"ROAD_NAME":"Haines Hwy","KIND":"highway, paved","SURFACE_TYPE":"paved"}},{"type":"Feature","geometry":{"type":"LineString","coordinates":[[-136.844737,59.993773],[-136.844797,59.994159]]},"properties":{"ROAD_NAME":"Haines Hwy","KIND":"highway, paved","SURFACE_TYPE":"paved"}},{"type":"Feature","geometry":{"type":"LineString","coordinates":[[-136.846206,59.995312],[-136.847458,59.995898],[-136.849041,59.996602]]},"properties":{"ROAD_NAME":"Blanchard River Rd","KIND":"local, paved","SURFACE_TYPE":"paved"}},{"type":"Feature","geometry":{"type":"LineString","coordinates":[[-136.849041,59.996602],[-136.85082,59.997394],[-136.851802,59.997914],[-136.852546,59.998398],[-136.853271,59.999025],[-136.853881,59.999875]]},"properties":{"ROAD_NAME":"Blanchard River Rd","KIND":"local, paved","SURFACE_TYPE":"paved"}},{"type":"Feature","geometry":{"type":"LineString","coordinates":[[-136.808079,59.906679],[-136.808383,59.906684],[-136.808635,59.906707],[-136.809175,59.906771],[-136.80948,59.906794],[-136.809767,59.906808],[-136.810087,59.906786],[-136.810406,59.906719],[-136.810651,59.906634],[-136.811313,59.906311],[-136.811577,59.906227],[-136.811994,59.906005],[-136.812465,59.905792],[-136.812711,59.905708],[-136.812955,59.905597],[-136.813164,59.905486],[-136.813427,59.905384],[-136.813863,59.905198],[-136.814369,59.904967],[-136.814632,59.904864],[-136.815121,59.904651],[-136.815329,59.904531],[-136.815573,59.90442],[-136.815818,59.904318],[-136.816081,59.904216],[-136.81631,59.90415],[-136.816554,59.904038],[-136.816834,59.903927],[-136.817079,59.903834],[-136.817324,59.903731],[-136.817741,59.90351],[-136.817987,59.903435],[-136.818142,59.903325],[-136.818312,59.90317],[-136.818413,59.903043],[-136.818603,59.902923],[-136.81883,59.902821],[-136.819003,59.902711],[-136.819422,59.902526],[-136.819576,59.902407],[-136.819786,59.902323],[-136.820049,59.90223],[-136.820292,59.902101],[-136.820463,59.901946],[-136.820581,59.901818],[-136.820734,59.901681],[-136.820889,59.901571],[-136.82108,59.90147],[-136.82127,59.901351],[-136.821494,59.901195],[-136.821648,59.901058],[-136.821853,59.900893],[-136.822008,59.900775],[-136.822197,59.900646],[-136.822351,59.900518],[-136.82256,59.900417],[-136.822788,59.900333],[-136.82309,59.900293],[-136.823392,59.90027],[-136.823677,59.90024],[-136.823978,59.900182],[-136.824224,59.900115],[-136.824715,59.899938],[-136.825031,59.899835],[-136.825223,59.899742],[-136.825638,59.899494],[-136.826055,59.899264],[-136.826436,59.899043],[-136.826594,59.898987],[-136.826981,59.898873],[-136.827209,59.898798],[-136.827456,59.898732],[-136.827702,59.898648],[-136.827965,59.898563],[-136.82821,59.898461],[-136.828348,59.898378]]},"properties":{"ROAD_NAME":null,"KIND":"resource, rough","SURFACE_TYPE":"rough"}},{"type":"Feature","geometry":{"type":"LineString","coordinates":[[-136.855204,59.858034],[-136.855232,59.858214],[-136.855293,59.858356],[-136.855373,59.858508],[-136.855416,59.858642],[-136.855477,59.858776],[-136.855609,59.859223],[-136.855636,59.859375],[-136.855697,59.859518],[-136.855704,59.859644],[-136.855641,59.859798],[-136.855541,59.859925],[-136.855551,59.860095],[-136.855496,59.860401],[-136.855415,59.860546],[-136.855263,59.860692],[-136.854911,59.86111],[-136.85474,59.861256],[-136.854516,59.861394],[-136.853909,59.861717],[-136.853685,59.861864],[-136.853566,59.861982],[-136.853413,59.86211],[-136.853278,59.862247],[-136.85316,59.862374],[-136.853061,59.862528],[-136.852972,59.862853],[-136.85291,59.863016],[-136.852845,59.863142],[-136.852783,59.863305],[-136.852666,59.863459],[-136.852658,59.863621],[-136.852675,59.863926],[-136.852655,59.864223],[-136.852595,59.86443],[-136.85253,59.864539],[-136.852376,59.864667],[-136.852204,59.864786],[-136.852051,59.864914],[-136.851934,59.865059],[-136.851924,59.865203],[-136.852031,59.865516],[-136.852075,59.865677],[-136.851996,59.866172],[-136.851906,59.866488],[-136.851808,59.866642],[-136.851392,59.866872],[-136.851239,59.867009],[-136.851139,59.867154],[-136.851129,59.867289],[-136.851022,59.867605],[-136.851004,59.867928],[-136.850978,59.868108],[-136.850915,59.868262],[-136.850716,59.868534],[-136.850581,59.868671],[-136.85041,59.868817],[-136.850239,59.868945],[-136.850103,59.869073],[-136.849986,59.869227],[-136.849941,59.869371],[-136.84995,59.869533],[-136.849924,59.869713],[-136.849789,59.86985],[-136.849672,59.869995],[-136.849473,59.870267],[-136.849355,59.870395],[-136.849219,59.870531],[-136.849048,59.870659],[-136.848877,59.870797],[-136.848759,59.870924],[-136.848541,59.871179],[-136.848425,59.871342],[-136.848307,59.871469],[-136.848208,59.871623],[-136.84818,59.871767],[-136.848189,59.87192],[-136.848161,59.872064],[-136.848115,59.872199],[-136.848032,59.872641],[-136.848049,59.872946],[-136.848112,59.873116],[-136.848246,59.873266],[-136.848361,59.873409],[-136.848545,59.873837],[-136.848625,59.873989],[-136.84882,59.874282],[-136.848901,59.874452],[-136.848925,59.874559],[-136.848946,59.874622],[-136.848922,59.87482],[-136.848893,59.874955],[-136.848797,59.875145],[-136.848734,59.875307],[-136.848686,59.875398],[-136.848658,59.875542],[-136.848595,59.875705],[-136.848496,59.875841],[-136.848433,59.875994],[-136.848407,59.876174],[-136.848346,59.876355],[-136.84802,59.876611],[-136.847904,59.876774],[-136.84777,59.87692],[-136.847616,59.877057],[-136.847548,59.877111],[-136.84748,59.877175],[-136.847137,59.877441],[-136.846967,59.877596],[-136.846849,59.877723],[-136.846752,59.877904],[-136.846724,59.878039],[-136.846699,59.878228],[-136.846591,59.878544],[-136.846528,59.878698],[-136.846412,59.878861],[-136.846242,59.879007],[-136.84607,59.879126],[-136.845517,59.879475],[-136.845448,59.879512],[-136.844556,59.879857],[-136.844311,59.879959],[-136.844048,59.880044],[-136.843766,59.880119],[-136.843503,59.880204],[-136.843258,59.880297],[-136.842994,59.880382],[-136.842749,59.880466],[-136.842469,59.880578],[-136.842225,59.88068],[-136.84179,59.880902],[-136.841583,59.88103],[-136.841412,59.881167],[-136.84124,59.881295],[-136.840952,59.881578],[-136.840764,59.881724],[-136.840419,59.881954],[-136.840212,59.882082],[-136.840022,59.882211],[-136.839796,59.882322],[-136.839533,59.882415],[-136.839234,59.8825],[-136.838917,59.882585],[-136.838284,59.882765],[-136.837986,59.882868],[-136.837706,59.882988],[-136.837427,59.8831],[-136.836515,59.883418],[-136.836235,59.883521],[-136.835557,59.883863],[-136.835102,59.884049],[-136.834803,59.884134],[-136.834486,59.88421],[-136.834169,59.884295],[-136.83387,59.884389],[-136.833572,59.884492],[-136.833293,59.884613],[-136.833033,59.88476],[-136.832741,59.884989],[-136.832518,59.885144],[-136.832231,59.885454],[-136.83213,59.885572],[-136.832113,59.885581],[-136.831978,59.885736],[-136.831828,59.885926],[-136.831731,59.886107],[-136.831615,59.886271],[-136.83142,59.886624],[-136.831357,59.886786],[-136.831235,59.887165],[-136.831058,59.887527],[-136.830996,59.887698],[-136.830976,59.887986],[-136.830986,59.888157],[-136.830976,59.8883],[-136.830923,59.888634],[-136.830913,59.888786],[-136.830922,59.888939],[-136.830949,59.889118],[-136.830959,59.889289],[-136.83095,59.889459],[-136.830958,59.889594],[-136.830949,59.889756],[-136.830893,59.890044],[-136.83092,59.890214],[-136.831001,59.890384],[-136.831195,59.890669],[-136.831258,59.890829],[-136.831337,59.890963],[-136.831362,59.891097],[-136.83137,59.891241],[-136.83136,59.891394],[-136.831423,59.891564],[-136.831574,59.891705],[-136.831743,59.891856],[-136.831859,59.892016],[-136.831958,59.892176],[-136.832054,59.892309],[-136.832249,59.892603],[-136.83231,59.892728],[-136.832429,59.892951],[-136.832468,59.893004],[-136.832444,59.89322],[-136.83238,59.893356],[-136.832318,59.893518],[-136.832201,59.893672],[-136.832065,59.893809],[-136.832055,59.893944],[-136.832134,59.894078],[-136.832303,59.894219],[-136.832346,59.894353],[-136.832318,59.894497],[-136.832219,59.894642],[-136.832058,59.894968],[-136.831958,59.895104],[-136.83167,59.895395],[-136.831463,59.895533],[-136.83131,59.895679],[-136.830977,59.896115],[-136.830805,59.896243],[-136.830669,59.896361],[-136.830533,59.896489],[-136.830414,59.896616],[-136.830244,59.896762],[-136.830109,59.896908],[-136.829973,59.897045],[-136.82982,59.89719],[-136.829668,59.897345],[-136.829124,59.897865],[-136.828954,59.898011],[-136.828555,59.898232],[-136.828348,59.898378]]},"properties":{"ROAD_NAME":null,"KIND":"resource, rough","SURFACE_TYPE":"rough"}},{"type":"Feature","geometry":{"type":"LineString","coordinates":[[-136.819006,59.973675],[-136.819185,59.973672],[-136.819472,59.973686],[-136.819778,59.973718],[-136.819996,59.973769],[-136.820269,59.973846],[-136.820324,59.973872],[-136.82071,59.974047],[-136.820948,59.974133],[-136.82115,59.97422],[-136.821372,59.974343],[-136.821557,59.974457],[-136.821725,59.97458],[-136.821875,59.974695],[-136.822079,59.974818],[-136.822282,59.974932],[-136.822395,59.975029],[-136.8226,59.975179],[-136.822823,59.97532],[-136.82299,59.975425],[-136.823413,59.975626],[-136.823599,59.97574],[-136.823784,59.975854],[-136.824041,59.975967],[-136.824227,59.976082],[-136.824337,59.976125]]},"properties":{"ROAD_NAME":null,"KIND":"resource, rough","SURFACE_TYPE":"rough"}},{"type":"Feature","geometry":{"type":"LineString","coordinates":[[-136.790662,59.916695],[-136.79046,59.916751],[-136.79017,59.916821],[-136.789923,59.916887],[-136.789678,59.91698],[-136.789277,59.917174],[-136.789051,59.917294],[-136.788808,59.917432],[-136.788599,59.917534],[-136.788392,59.917671],[-136.78822,59.917799],[-136.787873,59.918011],[-136.787719,59.91813],[-136.787583,59.918275],[-136.787519,59.91842],[-136.787467,59.918438],[-136.787292,59.918513],[-136.78701,59.918597],[-136.786783,59.91869],[-136.786501,59.918766],[-136.786272,59.918841],[-136.786027,59.918934],[-136.785763,59.919018],[-136.785361,59.919203],[-136.785171,59.919323],[-136.785053,59.91945],[-136.784863,59.919578],[-136.784652,59.919662],[-136.784387,59.919711],[-136.784067,59.91976],[-136.783709,59.919756],[-136.783421,59.919724],[-136.783313,59.919698]]},"properties":{"ROAD_NAME":null,"KIND":"resource, loose","SURFACE_TYPE":"loose"}},{"type":"Feature","geometry":{"type":"LineString","coordinates":[[-136.79478,59.91639],[-136.794922,59.916361],[-136.795276,59.916302],[-136.795595,59.916253],[-136.795915,59.916204],[-136.796235,59.916164],[-136.796518,59.916106],[-136.796784,59.916066],[-136.797085,59.916017],[-136.797386,59.915959],[-136.797687,59.915901],[-136.798006,59.915843],[-136.798306,59.915776],[-136.798589,59.915709],[-136.798926,59.915651],[-136.799243,59.915557],[-136.799543,59.915481],[-136.799807,59.915414],[-136.799983,59.915362],[-136.800019,59.915357],[-136.800107,59.915338],[-136.800389,59.915263],[-136.800636,59.915196],[-136.800882,59.915121],[-136.801164,59.915036],[-136.801374,59.914953],[-136.80162,59.91486],[-136.801828,59.914749],[-136.802108,59.914628],[-136.802335,59.914535],[-136.802579,59.914415],[-136.803017,59.914239],[-136.803263,59.914155],[-136.803491,59.91408],[-136.803757,59.914031],[-136.804111,59.913963]]},"properties":{"ROAD_NAME":null,"KIND":"resource, loose","SURFACE_TYPE":"loose"}},{"type":"Feature","geometry":{"type":"LineString","coordinates":[[-136.803143,59.911623],[-136.803547,59.911492],[-136.803868,59.91147],[-136.804175,59.911528],[-136.804495,59.911488],[-136.804722,59.911386],[-136.804858,59.911259],[-136.804994,59.911122],[-136.805076,59.910986],[-136.805174,59.910814],[-136.805253,59.910624],[-136.805299,59.910489],[-136.805363,59.910345],[-136.805478,59.910163],[-136.805578,59.910027],[-136.805678,59.909891],[-136.805742,59.909756],[-136.805759,59.909737],[-136.805859,59.909592],[-136.805941,59.909456],[-136.806058,59.909311],[-136.80614,59.909175],[-136.806202,59.909004],[-136.806248,59.90885],[-136.806276,59.908715],[-136.806303,59.908553],[-136.806313,59.9084],[-136.806269,59.908248],[-136.806153,59.908097],[-136.80602,59.907955],[-136.805887,59.907805],[-136.805841,59.907626],[-136.805852,59.907491],[-136.806005,59.907354]]},"properties":{"ROAD_NAME":null,"KIND":"resource, rough","SURFACE_TYPE":"rough"}},{"type":"Feature","geometry":{"type":"LineString","coordinates":[[-136.88645,59.897075],[-136.886291,59.897104],[-136.886027,59.897179],[-136.885742,59.89721],[-136.885384,59.897198],[-136.885044,59.897184],[-136.884738,59.897153],[-136.884467,59.897103],[-136.88418,59.897089],[-136.883842,59.897121],[-136.883576,59.897152],[-136.883274,59.897192],[-136.882935,59.897206],[-136.882647,59.897165],[-136.88232,59.89708],[-136.882101,59.896993],[-136.881933,59.89687],[-136.88151,59.89666],[-136.881308,59.896555],[-136.880999,59.896479],[-136.880746,59.896429],[-136.880492,59.89636],[-136.880202,59.896293],[-136.879842,59.896253],[-136.879556,59.896239],[-136.879217,59.896253],[-136.878931,59.896266],[-136.878591,59.896262],[-136.878373,59.896193],[-136.878081,59.896089],[-136.87781,59.896039],[-136.87772,59.896023],[-136.877415,59.896009],[-136.877146,59.895995],[-136.876803,59.895937],[-136.876513,59.89586],[-136.876242,59.895819],[-136.875953,59.89576],[-136.875717,59.895692],[-136.875442,59.895579],[-136.87524,59.895483],[-136.874985,59.895388],[-136.874597,59.895169],[-136.874289,59.895101],[-136.873986,59.895115],[-136.873701,59.895137],[-136.873347,59.895187],[-136.873101,59.895271],[-136.87285,59.895257],[-136.872757,59.895195],[-136.872352,59.894985],[-136.872112,59.894854],[-136.871944,59.894722],[-136.87181,59.894571],[-136.871606,59.894439],[-136.871353,59.894389],[-136.871028,59.894321],[-136.870739,59.894281],[-136.870453,59.894276],[-136.870134,59.894325],[-136.869845,59.894266],[-136.869608,59.894189],[-136.869353,59.894103],[-136.86908,59.894017],[-136.868809,59.893967],[-136.868539,59.893935],[-136.868252,59.893912],[-136.867946,59.893889],[-136.867659,59.893866],[-136.867389,59.893825],[-136.867116,59.893748],[-136.866861,59.893662],[-136.866589,59.893585],[-136.866316,59.893508],[-136.866063,59.893449],[-136.865808,59.893363],[-136.865572,59.893303],[-136.865319,59.893253],[-136.864996,59.89323],[-136.864691,59.893217],[-136.864394,59.893329],[-136.864034,59.893298],[-136.863745,59.893239],[-136.863507,59.893144],[-136.863252,59.893048],[-136.862962,59.892981],[-136.862673,59.892922],[-136.862386,59.892908],[-136.862099,59.892885],[-136.861812,59.892871],[-136.861561,59.892866],[-136.861525,59.892866],[-136.861187,59.89288],[-136.860903,59.89292],[-136.860619,59.892951],[-136.860354,59.893009],[-136.860107,59.893066],[-136.859823,59.893115],[-136.859558,59.893172],[-136.859275,59.893212],[-136.858955,59.893244],[-136.858634,59.893257],[-136.858312,59.893262],[-136.857991,59.893266],[-136.857669,59.893262],[-136.857347,59.893258],[-136.85706,59.893244],[-136.856719,59.89323],[-136.856559,59.893233],[-136.856238,59.893255],[-136.855904,59.893359],[-136.855565,59.893363],[-136.855318,59.893421],[-136.855212,59.893449],[-136.855021,59.893551],[-136.854885,59.893678],[-136.854798,59.893716],[-136.85448,59.893774],[-136.854196,59.893814],[-136.853948,59.893853],[-136.853611,59.893903],[-136.853328,59.893952],[-136.853026,59.894001],[-136.852725,59.894041],[-136.852438,59.894027],[-136.852115,59.894005],[-136.851791,59.893973],[-136.851487,59.89396],[-136.851111,59.893956],[-136.850772,59.893961],[-136.850484,59.89392],[-136.850359,59.893922],[-136.850343,59.893958],[-136.850363,59.893994],[-136.850459,59.894118],[-136.850574,59.894269],[-136.850619,59.89443],[-136.850682,59.894591],[-136.850673,59.894753],[-136.850663,59.894896],[-136.850811,59.894993],[-136.850851,59.895055],[-136.850877,59.895217],[-136.850723,59.895327],[-136.850462,59.895456],[-136.850289,59.895566],[-136.850008,59.89566],[-136.849722,59.895664],[-136.849399,59.895633],[-136.849092,59.895583],[-136.848839,59.895524],[-136.848567,59.895465],[-136.848131,59.895327],[-136.847802,59.895206],[-136.847493,59.895121],[-136.847222,59.895053],[-136.846933,59.895003],[-136.846627,59.894962],[-136.846321,59.89493],[-136.845998,59.894908],[-136.84568,59.894984],[-136.845434,59.89506],[-136.845116,59.895118],[-136.845043,59.895092],[-136.844819,59.894925],[-136.844651,59.894801],[-136.844505,59.894749],[-136.844327,59.894761],[-136.844202,59.894754],[-136.844096,59.894773],[-136.844015,59.894927],[-136.844024,59.895088],[-136.844014,59.895232],[-136.843998,59.895277],[-136.843952,59.895404],[-136.843906,59.895539],[-136.843896,59.895683],[-136.843869,59.895845],[-136.843859,59.89598],[-136.84387,59.896177],[-136.843876,59.896303],[-136.843903,59.896455],[-136.843929,59.896608],[-136.84392,59.896769],[-136.843876,59.896932],[-136.843794,59.897068],[-136.843639,59.897177],[-136.843586,59.897196],[-136.843307,59.897317],[-136.843026,59.897402],[-136.84278,59.897486],[-136.842518,59.897597],[-136.842292,59.897717],[-136.842066,59.897837],[-136.841822,59.897948],[-136.841613,59.89805],[-136.841314,59.898135],[-136.84096,59.898203],[-136.840677,59.898252],[-136.840395,59.898319],[-136.84013,59.898376],[-136.839846,59.898425],[-136.83951,59.898493],[-136.839246,59.898559],[-136.838963,59.898617],[-136.838553,59.898632],[-136.838181,59.898691],[-136.837898,59.898749],[-136.837652,59.898824],[-136.837389,59.898917],[-136.837071,59.899003],[-136.836825,59.899069],[-136.836541,59.899118],[-136.836293,59.899157],[-136.835955,59.899189],[-136.835654,59.899229],[-136.835352,59.899278],[-136.835031,59.899292],[-136.834853,59.899294],[-136.83453,59.899281],[-136.834261,59.899266],[-136.833956,59.899244],[-136.833615,59.899212],[-136.833273,59.899181],[-136.832949,59.899141],[-136.832643,59.899109],[-136.832339,59.899095],[-136.832015,59.899064],[-136.831762,59.899014],[-136.831472,59.898937],[-136.831165,59.898878],[-136.830928,59.89881],[-136.830764,59.898749],[-136.830691,59.898723],[-136.830375,59.898503],[-136.830122,59.898444],[-136.829798,59.898403],[-136.829475,59.89839],[-136.829189,59.898394],[-136.828849,59.89839],[-136.828581,59.898384],[-136.828348,59.898378]]},"properties":{"ROAD_NAME":null,"KIND":"resource, rough","SURFACE_TYPE":"rough"}},{"type":"Feature","geometry":{"type":"LineString","coordinates":[[-136.846206,59.995312],[-136.846037,59.995162],[-136.845891,59.995046],[-136.845722,59.994914],[-136.845589,59.994772],[-136.845472,59.994612],[-136.84534,59.994488],[-136.845187,59.994328],[-136.844797,59.994159]]},"properties":{"ROAD_NAME":null,"KIND":"resource, loose","SURFACE_TYPE":"loose"}},{"type":"Feature","geometry":{"type":"LineString","coordinates":[[-136.844737,59.993773],[-136.845052,59.993817],[-136.845378,59.993895],[-136.845784,59.994104],[-136.845968,59.994183],[-136.84619,59.994296],[-136.846393,59.99441],[-136.846615,59.994524],[-136.847039,59.994734],[-136.84726,59.994838],[-136.847464,59.99497],[-136.847888,59.995171],[-136.848276,59.995381],[-136.848423,59.995442],[-136.848574,59.995583],[-136.848672,59.995726],[-136.848752,59.995877],[-136.848813,59.996011],[-136.848932,59.996207],[-136.848973,59.996305],[-136.849016,59.996458],[-136.849041,59.996602]]},"properties":{"ROAD_NAME":null,"KIND":"resource, loose","SURFACE_TYPE":"loose"}},{"type":"Feature","geometry":{"type":"LineString","coordinates":[[-136.775242,59.907924],[-136.774954,59.907892],[-136.774666,59.907851],[-136.774395,59.90781],[-136.774072,59.907788],[-136.773803,59.907764],[-136.77348,59.907742],[-136.77321,59.907718],[-136.772887,59.907705],[-136.772618,59.907681],[-136.772331,59.907658],[-136.772061,59.907635],[-136.771774,59.907612],[-136.771414,59.907581],[-136.771109,59.907549],[-136.770767,59.907518],[-136.770425,59.907477],[-136.770101,59.907437],[-136.769741,59.907379],[-136.769596,59.907345],[-136.76934,59.907249],[-136.769122,59.907171],[-136.768866,59.907076],[-136.768647,59.906998],[-136.768409,59.906885],[-136.768172,59.906807],[-136.767749,59.906588],[-136.767327,59.906378],[-136.767143,59.906282],[-136.766721,59.906072],[-136.76628,59.905862],[-136.765822,59.905644],[-136.765582,59.905503],[-136.765378,59.90538],[-136.764973,59.905161],[-136.764789,59.905056],[-136.764585,59.904915],[-136.764381,59.904783],[-136.763959,59.904573],[-136.763737,59.904441],[-136.763534,59.904318],[-136.763129,59.904099],[-136.762962,59.903985],[-136.762741,59.903862],[-136.762589,59.903702],[-136.762404,59.90357],[-136.762237,59.903465],[-136.762069,59.903332],[-136.761884,59.903209],[-136.761641,59.903014],[-136.761621,59.90297],[-136.761652,59.902826],[-136.761784,59.902725]]},"properties":{"ROAD_NAME":null,"KIND":"resource, loose","SURFACE_TYPE":"loose"}},{"type":"Feature","geometry":{"type":"LineString","coordinates":[[-136.804111,59.913963],[-136.804198,59.913926],[-136.80428,59.913781],[-136.804309,59.913655],[-136.804354,59.913502],[-136.804382,59.913367],[-136.804411,59.913232],[-136.804474,59.913069],[-136.804519,59.912925],[-136.804548,59.91279],[-136.804574,59.912619],[-136.80462,59.912474]]},"properties":{"ROAD_NAME":null,"KIND":"resource, loose","SURFACE_TYPE":"loose"}},{"type":"Feature","geometry":{"type":"LineString","coordinates":[[-136.818081,59.973723],[-136.818329,59.973702],[-136.818612,59.97368],[-136.819006,59.973675]]},"properties":{"ROAD_NAME":null,"KIND":"resource, rough","SURFACE_TYPE":"rough"}},{"type":"Feature","geometry":{"type":"LineString","coordinates":[[-136.804111,59.913963],[-136.804361,59.913969],[-136.804647,59.913956],[-136.804914,59.913934],[-136.805217,59.913921],[-136.805557,59.913908],[-136.80586,59.913894],[-136.80618,59.913863],[-136.8065,59.913832],[-136.806821,59.9138],[-136.807088,59.913779],[-136.807372,59.913739],[-136.807677,59.913762],[-136.807879,59.913858],[-136.808169,59.913935],[-136.80844,59.913985],[-136.808767,59.914061],[-136.809037,59.914102],[-136.809291,59.914162],[-136.809364,59.914188],[-136.809383,59.914214],[-136.809367,59.914251],[-136.80914,59.914352],[-136.809058,59.914488],[-136.808924,59.914652],[-136.808843,59.914815],[-136.808744,59.914969],[-136.80861,59.915123],[-136.808491,59.915251],[-136.808339,59.915414],[-136.808203,59.915542],[-136.808085,59.915669],[-136.807967,59.915806],[-136.807831,59.915933],[-136.807713,59.916061],[-136.807577,59.916206],[-136.807443,59.916361],[-136.807343,59.916497],[-136.807208,59.916642],[-136.80709,59.916779],[-136.806972,59.916906],[-136.806837,59.917061],[-136.806702,59.917206],[-136.806584,59.917351],[-136.80645,59.917515],[-136.806315,59.91766],[-136.80618,59.917806],[-136.806045,59.917952],[-136.805875,59.918125],[-136.805757,59.918261],[-136.80564,59.918415],[-136.805541,59.918551],[-136.805441,59.918687]]},"properties":{"ROAD_NAME":null,"KIND":"resource, rough","SURFACE_TYPE":"rough"}},{"type":"Feature","geometry":{"type":"LineString","coordinates":[[-136.844957,59.995202],[-136.845377,59.995174],[-136.845611,59.995186],[-136.84585,59.995199],[-136.846206,59.995312]]},"properties":{"ROAD_NAME":"Blanchard River Rd","KIND":"local, paved","SURFACE_TYPE":"paved"}},{"type":"Feature","geometry":{"type":"LineString","coordinates":[[-136.839665,59.99358],[-136.841141,59.994178],[-136.842047,59.994489],[-136.842684,59.994592],[-136.843153,59.994597],[-136.844856,59.994542]]},"properties":{"ROAD_NAME":null,"KIND":"resource, rough","SURFACE_TYPE":"rough"}},{"type":"Feature","geometry":{"type":"LineString","coordinates":[[-136.806129,59.943756],[-136.806296,59.944215],[-136.806298,59.944614],[-136.806326,59.944932],[-136.806801,59.945476],[-136.80796,59.947076],[-136.808742,59.948116],[-136.80954,59.949268],[-136.811751,59.952034],[-136.81237,59.952962],[-136.812591,59.953235],[-136.812642,59.953296]]},"properties":{"ROAD_NAME":null,"KIND":"resource, rough","SURFACE_TYPE":"rough"}},{"type":"Feature","geometry":{"type":"LineString","coordinates":[[-136.806583,59.955528],[-136.807125,59.955877],[-136.807698,59.956186]]},"properties":{"ROAD_NAME":null,"KIND":"resource","SURFACE_TYPE":"unknown"}},{"type":"Feature","geometry":{"type":"LineString","coordinates":[[-136.803517,59.955648],[-136.804459,59.956089],[-136.805015,59.956239],[-136.806037,59.956384],[-136.807072,59.956294],[-136.807698,59.956186]]},"properties":{"ROAD_NAME":null,"KIND":"resource","SURFACE_TYPE":"unknown"}},{"type":"Feature","geometry":{"type":"LineString","coordinates":[[-136.820335,59.976327],[-136.820393,59.976458],[-136.820633,59.976854],[-136.820918,59.977172],[-136.821038,59.977367],[-136.821019,59.977541]]},"properties":{"ROAD_NAME":null,"KIND":"resource, rough","SURFACE_TYPE":"rough"}},{"type":"Feature","geometry":{"type":"LineString","coordinates":[[-136.820142,59.961836],[-136.820521,59.962167],[-136.821859,59.963337],[-136.822786,59.96398],[-136.824221,59.965099],[-136.82552,59.966312],[-136.826604,59.96741],[-136.827494,59.968351],[-136.827614,59.968477]]},"properties":{"ROAD_NAME":null,"KIND":"resource, rough","SURFACE_TYPE":"rough"}},{"type":"Feature","geometry":{"type":"LineString","coordinates":[[-136.8349,59.98229],[-136.834513,59.982347],[-136.833857,59.982398],[-136.83329,59.982485],[-136.832863,59.982635],[-136.832602,59.982794],[-136.832405,59.982958]]},"properties":{"ROAD_NAME":null,"KIND":"resource, rough","SURFACE_TYPE":"rough"}},{"type":"Feature","geometry":{"type":"LineString","coordinates":[[-136.796155,59.9178],[-136.795752,59.917839],[-136.795572,59.917839],[-136.795231,59.917767],[-136.794871,59.917553]]},"properties":{"ROAD_NAME":null,"KIND":"resource, rough","SURFACE_TYPE":"rough"}},{"type":"Feature","geometry":{"type":"LineString","coordinates":[[-136.827614,59.968477],[-136.828179,59.969074],[-136.829085,59.970403],[-136.829349,59.971293],[-136.829684,59.972446],[-136.830127,59.973555],[-136.830346,59.974271],[-136.830342,59.974344]]},"properties":{"ROAD_NAME":null,"KIND":"resource, rough","SURFACE_TYPE":"rough"}},{"type":"Feature","geometry":{"type":"LineString","coordinates":[[-136.803201,59.936762],[-136.803874,59.937964],[-136.804377,59.938995],[-136.804847,59.940141],[-136.805313,59.941414],[-136.805661,59.94247],[-136.806129,59.943756]]},"properties":{"ROAD_NAME":null,"KIND":"resource, rough","SURFACE_TYPE":"rough"}},{"type":"Feature","geometry":{"type":"LineString","coordinates":[[-136.830342,59.974344],[-136.830336,59.974462],[-136.830494,59.974953],[-136.831,59.976322],[-136.831133,59.977066],[-136.831373,59.97771],[-136.831657,59.978806],[-136.832045,59.979934],[-136.832464,59.981782],[-136.832546,59.982218],[-136.832568,59.982428],[-136.832448,59.982741],[-136.832405,59.982958]]},"properties":{"ROAD_NAME":null,"KIND":"resource, rough","SURFACE_TYPE":"rough"}},{"type":"Feature","geometry":{"type":"LineString","coordinates":[[-136.794871,59.917553],[-136.794774,59.917495],[-136.794512,59.917271],[-136.79436,59.917045],[-136.794193,59.916904],[-136.793995,59.916801],[-136.793494,59.9167],[-136.793194,59.916698]]},"properties":{"ROAD_NAME":null,"KIND":"resource, rough","SURFACE_TYPE":"rough"}},{"type":"Feature","geometry":{"type":"LineString","coordinates":[[-136.807698,59.956186],[-136.808437,59.956064],[-136.809677,59.955864]]},"properties":{"ROAD_NAME":null,"KIND":"resource","SURFACE_TYPE":"unknown"}},{"type":"Feature","geometry":{"type":"LineString","coordinates":[[-136.819006,59.973675],[-136.819416,59.974496],[-136.820034,59.975642],[-136.820335,59.976327]]},"properties":{"ROAD_NAME":null,"KIND":"resource, rough","SURFACE_TYPE":"rough"}},{"type":"Feature","geometry":{"type":"LineString","coordinates":[[-136.812642,59.953296],[-136.813089,59.953825],[-136.813355,59.954246],[-136.813752,59.954787],[-136.814563,59.955838],[-136.815339,59.957],[-136.816942,59.958925],[-136.817817,59.959733],[-136.819302,59.961104],[-136.820142,59.961836]]},"properties":{"ROAD_NAME":null,"KIND":"resource, rough","SURFACE_TYPE":"rough"}},{"type":"Feature","geometry":{"type":"LineString","coordinates":[[-136.844797,59.994159],[-136.844856,59.994542]]},"properties":{"ROAD_NAME":"Haines Hwy","KIND":"highway, paved","SURFACE_TYPE":"paved"}},{"type":"Feature","geometry":{"type":"LineString","coordinates":[[-136.844856,59.994542],[-136.844871,59.994641],[-136.844951,59.995158],[-136.844957,59.995202]]},"properties":{"ROAD_NAME":"Haines Hwy","KIND":"highway, paved","SURFACE_TYPE":"paved"}},{"type":"Feature","geometry":{"type":"LineString","coordinates":[[-136.824337,59.976125],[-136.824462,59.976123],[-136.824635,59.976013],[-136.824718,59.975886],[-136.824764,59.975742],[-136.824773,59.97558],[-136.824836,59.975427],[-136.824907,59.975408],[-136.825228,59.975385],[-136.825494,59.975337],[-136.825832,59.975287],[-136.826152,59.975247],[-136.826418,59.975189],[-136.826681,59.975096],[-136.826928,59.975011],[-136.827174,59.974936],[-136.82742,59.974834],[-136.827719,59.97474],[-136.827983,59.974656],[-136.828284,59.974588],[-136.828604,59.974539],[-136.828888,59.974499],[-136.82919,59.97445],[-136.829475,59.974419],[-136.829795,59.97437],[-136.830134,59.974347],[-136.830342,59.974344]]},"properties":{"ROAD_NAME":null,"KIND":"resource, rough","SURFACE_TYPE":"rough"}},{"type":"Feature","geometry":{"type":"LineString","coordinates":[[-136.830342,59.974344],[-136.830421,59.974343]]},"properties":{"ROAD_NAME":null,"KIND":"unclassified, rough","SURFACE_TYPE":"rough"}},{"type":"Feature","geometry":{"type":"LineString","coordinates":[[-136.832405,59.982958],[-136.832711,59.983099],[-136.84048,59.986678],[-136.840533,59.986702],[-136.841602,59.987299],[-136.842717,59.988117],[-136.843522,59.988992],[-136.844067,59.989974],[-136.844256,59.990679],[-136.844445,59.991887]]},"properties":{"ROAD_NAME":"Haines Hwy","KIND":"highway, paved","SURFACE_TYPE":"paved"}},{"type":"Feature","geometry":{"type":"LineString","coordinates":[[-136.81967,59.976488],[-136.819893,59.976711],[-136.820784,59.977398],[-136.821019,59.977541]]},"properties":{"ROAD_NAME":"Haines Hwy","KIND":"highway, paved","SURFACE_TYPE":"paved"}},{"type":"Feature","geometry":{"type":"LineString","coordinates":[[-136.821019,59.977541],[-136.821821,59.978032],[-136.82396,59.979066],[-136.832405,59.982958]]},"properties":{"ROAD_NAME":"Haines Hwy","KIND":"highway, paved","SURFACE_TYPE":"paved"}},{"type":"Feature","geometry":{"type":"LineString","coordinates":[[-136.824337,59.976125],[-136.824321,59.976161],[-136.824033,59.976147],[-136.823744,59.976097],[-136.823401,59.976048],[-136.823078,59.976044],[-136.822701,59.976031],[-136.822456,59.976133],[-136.822155,59.9762],[-136.821871,59.976249],[-136.821568,59.97628],[-136.821301,59.97632],[-136.820979,59.976333],[-136.820674,59.976319],[-136.820565,59.976303],[-136.820422,59.976305],[-136.820335,59.976327]]},"properties":{"ROAD_NAME":null,"KIND":"resource, rough","SURFACE_TYPE":"rough"}},{"type":"Feature","geometry":{"type":"LineString","coordinates":[[-136.820335,59.976327],[-136.820122,59.976381],[-136.81967,59.976488]]},"properties":{"ROAD_NAME":null,"KIND":"resource, rough","SURFACE_TYPE":"rough"}},{"type":"Feature","geometry":{"type":"LineString","coordinates":[[-136.819006,59.973675],[-136.819019,59.973594],[-136.819082,59.973431],[-136.819165,59.973313],[-136.81925,59.973222],[-136.819404,59.973095],[-136.819558,59.972967],[-136.819766,59.972838],[-136.819975,59.972727],[-136.820093,59.972591],[-136.820265,59.972454],[-136.820438,59.972344],[-136.820591,59.972198],[-136.820713,59.972142],[-136.82091,59.972131],[-136.821229,59.972063],[-136.821494,59.971997],[-136.821722,59.971922],[-136.821931,59.971811],[-136.822119,59.971638],[-136.822219,59.971493],[-136.822244,59.971304],[-136.822343,59.971141],[-136.822443,59.971014],[-136.822651,59.970885],[-136.822787,59.970749],[-136.822922,59.970594],[-136.822967,59.97045],[-136.823048,59.970287],[-136.823148,59.970151],[-136.82332,59.970014],[-136.823511,59.969903],[-136.823776,59.969846],[-136.824005,59.969771],[-136.824232,59.96966],[-136.824404,59.969532],[-136.824578,59.96943],[-136.82484,59.969319],[-136.825068,59.969217],[-136.825313,59.969115],[-136.825732,59.968921],[-136.826031,59.968818],[-136.826296,59.968751],[-136.826596,59.968666],[-136.826878,59.96859],[-136.82718,59.968532],[-136.8275,59.968483],[-136.827614,59.968477]]},"properties":{"ROAD_NAME":null,"KIND":"resource, rough","SURFACE_TYPE":"rough"}},{"type":"Feature","geometry":{"type":"LineString","coordinates":[[-136.827614,59.968477],[-136.82775,59.96847]]},"properties":{"ROAD_NAME":null,"KIND":"unclassified, rough","SURFACE_TYPE":"rough"}},{"type":"Feature","geometry":{"type":"LineString","coordinates":[[-136.813653,59.96192],[-136.813915,59.961909],[-136.814272,59.961821],[-136.814677,59.961699],[-136.81498,59.961668],[-136.815299,59.96161],[-136.815527,59.961526],[-136.815794,59.961486],[-136.816096,59.961446],[-136.816398,59.961406],[-136.816682,59.961357],[-136.817022,59.961344],[-136.817347,59.961402],[-136.81762,59.96147],[-136.817873,59.961511],[-136.818198,59.961561],[-136.818543,59.961637],[-136.818832,59.961687],[-136.819085,59.961737],[-136.819375,59.961787],[-136.819646,59.961828],[-136.819934,59.961851],[-136.820142,59.961836]]},"properties":{"ROAD_NAME":null,"KIND":"resource, rough","SURFACE_TYPE":"rough"}},{"type":"Feature","geometry":{"type":"LineString","coordinates":[[-136.820142,59.961836],[-136.820237,59.961829]]},"properties":{"ROAD_NAME":null,"KIND":"unclassified, rough","SURFACE_TYPE":"rough"}},{"type":"Feature","geometry":{"type":"LineString","coordinates":[[-136.808246,59.953706],[-136.808646,59.953591],[-136.809016,59.953478],[-136.809353,59.953419],[-136.809658,59.953433],[-136.809928,59.953456],[-136.810235,59.953488],[-136.810592,59.953474],[-136.810699,59.953464],[-136.811002,59.953442],[-136.811341,59.953419],[-136.811662,59.953397],[-136.811947,59.953375],[-136.812251,59.953353],[-136.812518,59.953322],[-136.812642,59.953296]]},"properties":{"ROAD_NAME":null,"KIND":"resource, rough","SURFACE_TYPE":"rough"}},{"type":"Feature","geometry":{"type":"LineString","coordinates":[[-136.812642,59.953296],[-136.812748,59.953274]]},"properties":{"ROAD_NAME":null,"KIND":"unclassified, rough","SURFACE_TYPE":"rough"}},{"type":"Feature","geometry":{"type":"LineString","coordinates":[[-136.806228,59.943699],[-136.806129,59.943756]]},"properties":{"ROAD_NAME":null,"KIND":"unclassified, rough","SURFACE_TYPE":"rough"}},{"type":"Feature","geometry":{"type":"LineString","coordinates":[[-136.806129,59.943756],[-136.806002,59.943828],[-136.805812,59.943947],[-136.805569,59.944094],[-136.805343,59.944214],[-136.805097,59.944308],[-136.804814,59.944365],[-136.804493,59.944397],[-136.804152,59.944383],[-136.803866,59.944378],[-136.803562,59.944382],[-136.803472,59.944375],[-136.803418,59.944384],[-136.803228,59.944504],[-136.803128,59.94464],[-136.803029,59.944803],[-136.803002,59.944956],[-136.802993,59.945118],[-136.802965,59.945262],[-136.802883,59.945407],[-136.802729,59.945534],[-136.8024,59.945737],[-136.802157,59.945875],[-136.802022,59.945994],[-136.801856,59.946115]]},"properties":{"ROAD_NAME":null,"KIND":"resource, rough","SURFACE_TYPE":"rough"}},{"type":"Feature","geometry":{"type":"LineString","coordinates":[[-136.808246,59.953706],[-136.809677,59.955864]]},"properties":{"ROAD_NAME":"Haines Hwy","KIND":"highway, paved","SURFACE_TYPE":"paved"}},{"type":"Feature","geometry":{"type":"LineString","coordinates":[[-136.809677,59.955864],[-136.812537,59.960176],[-136.813653,59.96192]]},"properties":{"ROAD_NAME":"Haines Hwy","KIND":"highway, paved","SURFACE_TYPE":"paved"}},{"type":"Feature","geometry":{"type":"LineString","coordinates":[[-136.798975,59.933838],[-136.799206,59.933826],[-136.799552,59.933821],[-136.799856,59.933817],[-136.799998,59.933806],[-136.800034,59.933805],[-136.800124,59.933804],[-136.800445,59.9338],[-136.800785,59.933795],[-136.801001,59.933819],[-136.801207,59.933978],[-136.80134,59.93412],[-136.801471,59.934235],[-136.801642,59.934412],[-136.801682,59.934483],[-136.801724,59.9346],[-136.80169,59.934636],[-136.801566,59.934665],[-136.801298,59.934677],[-136.80114,59.934733],[-136.80106,59.934896],[-136.800978,59.935041],[-136.800914,59.935186],[-136.800834,59.935348],[-136.80086,59.93551],[-136.800958,59.935652],[-136.801055,59.935803],[-136.801136,59.935964],[-136.801269,59.936115],[-136.801437,59.936247],[-136.801676,59.936352],[-136.801947,59.936411],[-136.802253,59.936443],[-136.802544,59.93652],[-136.802931,59.936721],[-136.803201,59.936762]]},"properties":{"ROAD_NAME":null,"KIND":"resource, loose","SURFACE_TYPE":"loose"}},{"type":"Feature","geometry":{"type":"LineString","coordinates":[[-136.803201,59.936762],[-136.803509,59.93683],[-136.803814,59.936834],[-136.804137,59.936857],[-136.804409,59.936916],[-136.804576,59.937022],[-136.804726,59.937145],[-136.804822,59.93727],[-136.804813,59.937432],[-136.804928,59.937574],[-136.805132,59.937706],[-136.80526,59.937749],[-136.805566,59.937789],[-136.805622,59.937825]]},"properties":{"ROAD_NAME":null,"KIND":"resource, loose","SURFACE_TYPE":"loose"}},{"type":"Feature","geometry":{"type":"LineString","coordinates":[[-136.791531,59.916821],[-136.791994,59.916805],[-136.792279,59.916783],[-136.792582,59.916761],[-136.792903,59.916739],[-136.793194,59.916698]]},"properties":{"ROAD_NAME":null,"KIND":"resource, loose","SURFACE_TYPE":"loose"}},{"type":"Feature","geometry":{"type":"LineString","coordinates":[[-136.793194,59.916698],[-136.793329,59.916679],[-136.793506,59.91665],[-136.793807,59.916592],[-136.794072,59.916534],[-136.794354,59.916459],[-136.79478,59.91639]]},"properties":{"ROAD_NAME":null,"KIND":"resource, loose","SURFACE_TYPE":"loose"}},{"type":"Feature","geometry":{"type":"LineString","coordinates":[[-136.793696,59.918684],[-136.793921,59.918619],[-136.7942,59.918571],[-136.794466,59.918523],[-136.794675,59.918421],[-136.794865,59.918302],[-136.794879,59.918221],[-136.794892,59.918131],[-136.794901,59.91796],[-136.794856,59.91779],[-136.794847,59.917628],[-136.794871,59.917553]]},"properties":{"ROAD_NAME":null,"KIND":"resource, loose","SURFACE_TYPE":"loose"}},{"type":"Feature","geometry":{"type":"LineString","coordinates":[[-136.794871,59.917553],[-136.794893,59.917484],[-136.794938,59.917322],[-136.794966,59.917187],[-136.795029,59.917033],[-136.795182,59.916878],[-136.795196,59.916806],[-136.79521,59.916734],[-136.795041,59.916584],[-136.794891,59.916451],[-136.79478,59.91639]]},"properties":{"ROAD_NAME":null,"KIND":"resource, loose","SURFACE_TYPE":"loose"}},{"type":"Feature","geometry":{"type":"LineString","coordinates":[[-136.844957,59.995202],[-136.845224,59.996336],[-136.845411,59.996888],[-136.845472,59.997002],[-136.845805,59.997624],[-136.845894,59.997791],[-136.847095,59.999458]]},"properties":{"ROAD_NAME":"Haines Hwy","KIND":"highway, paved","SURFACE_TYPE":"paved"}},{"type":"Feature","geometry":{"type":"LineString","coordinates":[[-136.847095,59.999458],[-136.847408,59.999879]]},"properties":{"ROAD_NAME":"Haines Hwy","KIND":"highway, paved","SURFACE_TYPE":"paved"}},{"type":"Feature","geometry":{"type":"LineString","coordinates":[[-136.846622,59.878453],[-136.846591,59.878545],[-136.846528,59.878697],[-136.846412,59.87886],[-136.846241,59.879007],[-136.84607,59.879126],[-136.845725,59.879346],[-136.845517,59.879475],[-136.845482,59.879494]]},"properties":{"ROAD_NAME":null,"KIND":"trail","SURFACE_TYPE":null}},{"type":"Feature","geometry":{"type":"LineString","coordinates":[[-136.8024,59.945737],[-136.802157,59.945875],[-136.801985,59.946003],[-136.801777,59.946131]]},"properties":{"ROAD_NAME":null,"KIND":"trail","SURFACE_TYPE":null}},{"type":"Feature","geometry":{"type":"LineString","coordinates":[[-136.830985,59.888156],[-136.830976,59.888301],[-136.830948,59.888454],[-136.830923,59.888633],[-136.830913,59.888786],[-136.830921,59.888938],[-136.830949,59.889118],[-136.830959,59.889289],[-136.83095,59.889459],[-136.830958,59.889594],[-136.830948,59.889756],[-136.830921,59.889909],[-136.830893,59.890044],[-136.83092,59.890214],[-136.831001,59.890384],[-136.831098,59.890527],[-136.831196,59.890669],[-136.831258,59.89083],[-136.831337,59.890963],[-136.831362,59.891098],[-136.83137,59.891241],[-136.831361,59.891394],[-136.831423,59.891563],[-136.831574,59.891705],[-136.831743,59.891856],[-136.831859,59.892015],[-136.831957,59.892176],[-136.832054,59.89231],[-136.832152,59.892452],[-136.832249,59.892603],[-136.83231,59.892728],[-136.832429,59.892951]]},"properties":{"ROAD_NAME":null,"KIND":"trail","SURFACE_TYPE":null}},{"type":"Feature","geometry":{"type":"LineString","coordinates":[[-136.847548,59.877111],[-136.84748,59.877176],[-136.847291,59.877321],[-136.847138,59.877441],[-136.846968,59.877596],[-136.846849,59.877723],[-136.846752,59.877904],[-136.846724,59.878039]]},"properties":{"ROAD_NAME":null,"KIND":"trail","SURFACE_TYPE":null}},{"type":"Feature","geometry":{"type":"LineString","coordinates":[[-136.803143,59.911623],[-136.803548,59.911492],[-136.803868,59.91147],[-136.804176,59.911529]]},"properties":{"ROAD_NAME":null,"KIND":"trail","SURFACE_TYPE":null}},{"type":"Feature","geometry":{"type":"LineString","coordinates":[[-136.846724,59.878039],[-136.846699,59.878228],[-136.846622,59.878453]]},"properties":{"ROAD_NAME":null,"KIND":"trail","SURFACE_TYPE":null}},{"type":"Feature","geometry":{"type":"LineString","coordinates":[[-136.810699,59.953463],[-136.811002,59.953442],[-136.811341,59.953419],[-136.811662,59.953397],[-136.811947,59.953375],[-136.812251,59.953352],[-136.812517,59.953321],[-136.812748,59.953274]]},"properties":{"ROAD_NAME":null,"KIND":"trail","SURFACE_TYPE":null}},{"type":"Feature","geometry":{"type":"LineString","coordinates":[[-136.822395,59.975029],[-136.8226,59.975178],[-136.822823,59.97532],[-136.82299,59.975426],[-136.823413,59.975625],[-136.823599,59.975739],[-136.823785,59.975855],[-136.824041,59.975968],[-136.824227,59.976081],[-136.824337,59.976125]]},"properties":{"ROAD_NAME":null,"KIND":"trail","SURFACE_TYPE":null}},{"type":"Feature","geometry":{"type":"LineString","coordinates":[[-136.845448,59.879512],[-136.845308,59.879568],[-136.845063,59.879661],[-136.844818,59.879754],[-136.844556,59.879856],[-136.844311,59.879959],[-136.844048,59.880044],[-136.843766,59.880119],[-136.843503,59.880203],[-136.843258,59.880298],[-136.842994,59.880382],[-136.842749,59.880466],[-136.842469,59.880578],[-136.842225,59.88068],[-136.84179,59.880901],[-136.841583,59.88103],[-136.841412,59.881168],[-136.84124,59.881296],[-136.841104,59.881432],[-136.840952,59.881578],[-136.840764,59.881725],[-136.840419,59.881953],[-136.840212,59.882083],[-136.840022,59.882211],[-136.839796,59.882321],[-136.839533,59.882415],[-136.839234,59.8825],[-136.838917,59.882585],[-136.838618,59.88267],[-136.838283,59.882765],[-136.837985,59.882867],[-136.837706,59.882988],[-136.837427,59.8831],[-136.837111,59.883212],[-136.836813,59.883315],[-136.836515,59.883418],[-136.836235,59.883522],[-136.835973,59.88365]]},"properties":{"ROAD_NAME":null,"KIND":"trail","SURFACE_TYPE":null}},{"type":"Feature","geometry":{"type":"LineString","coordinates":[[-136.830764,59.898749],[-136.830692,59.898724],[-136.830375,59.898504],[-136.830122,59.898444],[-136.829797,59.898403],[-136.829475,59.898389],[-136.829189,59.898393],[-136.82885,59.89839],[-136.828581,59.898384],[-136.828348,59.898379]]},"properties":{"ROAD_NAME":null,"KIND":"trail","SURFACE_TYPE":null}},{"type":"Feature","geometry":{"type":"LineString","coordinates":[[-136.818076,59.973723],[-136.818326,59.973703],[-136.818612,59.973681],[-136.819006,59.973675]]},"properties":{"ROAD_NAME":null,"KIND":"trail","SURFACE_TYPE":null}},{"type":"Feature","geometry":{"type":"LineString","coordinates":[[-136.821028,59.901498],[-136.82108,59.90147],[-136.82127,59.90135],[-136.821494,59.901195],[-136.821648,59.901058],[-136.821853,59.900893],[-136.822008,59.900775],[-136.822197,59.900647],[-136.822351,59.900519],[-136.82256,59.900417],[-136.822788,59.900332],[-136.823089,59.900293],[-136.823393,59.90027],[-136.823677,59.90024],[-136.823978,59.900182],[-136.824225,59.900116],[-136.824452,59.900031],[-136.82454,59.900004]]},"properties":{"ROAD_NAME":null,"KIND":"trail","SURFACE_TYPE":null}},{"type":"Feature","geometry":{"type":"LineString","coordinates":[[-136.824337,59.976125],[-136.824462,59.976123],[-136.824635,59.976013],[-136.824718,59.975886],[-136.824764,59.975742],[-136.824773,59.97558],[-136.824836,59.975427],[-136.824907,59.975408],[-136.825228,59.975385],[-136.825494,59.975336],[-136.825832,59.975287],[-136.826152,59.975246],[-136.826418,59.975189],[-136.826681,59.975096],[-136.826927,59.975011],[-136.827174,59.974937],[-136.827419,59.974834],[-136.827719,59.97474],[-136.827983,59.974656],[-136.828284,59.974588],[-136.828604,59.974539],[-136.828888,59.974499],[-136.829191,59.97445],[-136.829475,59.974419],[-136.829795,59.974369],[-136.830134,59.974347],[-136.830421,59.974343]]},"properties":{"ROAD_NAME":null,"KIND":"trail","SURFACE_TYPE":null}},{"type":"Feature","geometry":{"type":"LineString","coordinates":[[-136.845482,59.879494],[-136.845448,59.879512]]},"properties":{"ROAD_NAME":null,"KIND":"trail","SURFACE_TYPE":null}},{"type":"Feature","geometry":{"type":"LineString","coordinates":[[-136.808079,59.906678],[-136.808383,59.906683],[-136.808635,59.906707],[-136.808905,59.906739],[-136.809175,59.906771],[-136.80948,59.906794],[-136.809767,59.906808],[-136.810088,59.906786],[-136.810406,59.906718],[-136.810652,59.906634],[-136.810878,59.906524],[-136.811313,59.906311],[-136.811577,59.906227],[-136.811994,59.906006],[-136.812239,59.905894],[-136.812465,59.905791],[-136.812711,59.905709],[-136.812956,59.905597],[-136.813164,59.905487],[-136.813427,59.905384],[-136.813863,59.905198],[-136.814108,59.905087],[-136.814369,59.904966],[-136.814632,59.904864],[-136.814911,59.904743],[-136.815121,59.904651]]},"properties":{"ROAD_NAME":null,"KIND":"trail","SURFACE_TYPE":null}},{"type":"Feature","geometry":{"type":"LineString","coordinates":[[-136.819165,59.973313],[-136.81925,59.973222],[-136.819404,59.973094],[-136.819558,59.972966],[-136.819766,59.972839],[-136.819975,59.972728],[-136.820093,59.972591],[-136.820265,59.972454],[-136.820437,59.972344],[-136.820591,59.972198],[-136.820713,59.972143],[-136.82091,59.972131],[-136.821229,59.972063],[-136.821494,59.971997],[-136.821723,59.971922],[-136.821931,59.971811],[-136.822119,59.971637],[-136.822219,59.971493],[-136.822244,59.971304],[-136.822343,59.971141],[-136.822443,59.971014],[-136.822651,59.970886],[-136.822787,59.970748],[-136.822921,59.970594],[-136.822967,59.970449],[-136.823048,59.970287],[-136.823148,59.970151],[-136.82332,59.970014],[-136.823511,59.969904],[-136.823777,59.969846],[-136.824005,59.96977],[-136.824232,59.96966],[-136.824404,59.969532],[-136.824577,59.96943],[-136.82484,59.969318],[-136.825068,59.969217],[-136.825313,59.969115],[-136.825732,59.968921],[-136.826031,59.968817],[-136.826296,59.968751],[-136.826596,59.968666],[-136.826878,59.968591],[-136.827179,59.968532],[-136.827499,59.968483],[-136.82775,59.968471]]},"properties":{"ROAD_NAME":null,"KIND":"trail","SURFACE_TYPE":null}},{"type":"Feature","geometry":{"type":"LineString","coordinates":[[-136.828348,59.898379],[-136.828383,59.898351],[-136.828554,59.898231],[-136.828954,59.898011],[-136.829124,59.897865],[-136.82926,59.897737],[-136.829379,59.897618],[-136.829532,59.897472],[-136.829668,59.897346],[-136.829821,59.89719],[-136.829973,59.897045],[-136.830109,59.896908],[-136.830244,59.896762],[-136.830414,59.896616],[-136.830533,59.896488],[-136.830668,59.896361],[-136.830805,59.896243],[-136.830977,59.896115],[-136.831094,59.89596],[-136.83121,59.895806],[-136.83131,59.895679],[-136.831463,59.895533],[-136.83167,59.895395],[-136.831789,59.895277],[-136.831958,59.895104],[-136.832058,59.894968],[-136.832138,59.894806],[-136.832219,59.894642],[-136.832318,59.894497],[-136.832346,59.894354],[-136.832303,59.894219],[-136.832134,59.894078],[-136.832055,59.893944],[-136.832066,59.89381],[-136.832201,59.893673],[-136.832318,59.893518],[-136.83238,59.893355],[-136.832444,59.89322],[-136.832468,59.893005],[-136.832429,59.892951]]},"properties":{"ROAD_NAME":null,"KIND":"trail","SURFACE_TYPE":null}},{"type":"Feature","geometry":{"type":"LineString","coordinates":[[-136.808259,59.953704],[-136.808646,59.953591]]},"properties":{"ROAD_NAME":null,"KIND":"trail","SURFACE_TYPE":null}},{"type":"Feature","geometry":{"type":"LineString","coordinates":[[-136.848922,59.87482],[-136.848894,59.874956],[-136.848797,59.875145],[-136.848734,59.875307],[-136.848686,59.875398],[-136.848658,59.875543],[-136.848596,59.875705],[-136.848496,59.875841],[-136.848433,59.875994]]},"properties":{"ROAD_NAME":null,"KIND":"trail","SURFACE_TYPE":null}},{"type":"Feature","geometry":{"type":"LineString","coordinates":[[-136.813597,59.961929],[-136.813882,59.961916],[-136.814272,59.961821]]},"properties":{"ROAD_NAME":null,"KIND":"trail","SURFACE_TYPE":null}},{"type":"Feature","geometry":{"type":"LineString","coordinates":[[-136.819778,59.973718],[-136.819996,59.973769],[-136.820269,59.973846],[-136.820324,59.973872]]},"properties":{"ROAD_NAME":null,"KIND":"trail","SURFACE_TYPE":null}},{"type":"Feature","geometry":{"type":"LineString","coordinates":[[-136.815121,59.904651],[-136.815139,59.904641],[-136.815329,59.904531],[-136.815574,59.904421],[-136.815818,59.904318],[-136.816081,59.904215],[-136.81631,59.90415],[-136.816554,59.904039],[-136.816834,59.903927],[-136.817079,59.903834],[-136.817324,59.903731],[-136.817741,59.90351],[-136.817987,59.903435],[-136.818142,59.903325],[-136.818313,59.90317],[-136.818413,59.903043],[-136.818603,59.902923],[-136.81883,59.902822],[-136.819003,59.902711],[-136.819421,59.902525],[-136.819576,59.902407],[-136.819786,59.902323],[-136.820049,59.902229],[-136.820293,59.902101],[-136.820463,59.901946],[-136.820581,59.901818],[-136.820734,59.901681],[-136.820889,59.901571],[-136.821028,59.901498]]},"properties":{"ROAD_NAME":null,"KIND":"trail","SURFACE_TYPE":null}},{"type":"Feature","geometry":{"type":"LineString","coordinates":[[-136.825535,59.899559],[-136.825639,59.899494],[-136.826055,59.899263],[-136.826436,59.899042],[-136.826594,59.898987]]},"properties":{"ROAD_NAME":null,"KIND":"trail","SURFACE_TYPE":null}},{"type":"Feature","geometry":{"type":"LineString","coordinates":[[-136.808646,59.953591],[-136.809016,59.953478],[-136.809354,59.95342],[-136.809659,59.953434],[-136.809928,59.953456],[-136.810235,59.953488],[-136.810592,59.953474],[-136.810699,59.953463]]},"properties":{"ROAD_NAME":null,"KIND":"trail","SURFACE_TYPE":null}},{"type":"Feature","geometry":{"type":"LineString","coordinates":[[-136.805742,59.909755],[-136.805759,59.909738],[-136.805859,59.909592],[-136.805941,59.909457],[-136.806058,59.909312],[-136.80614,59.909175],[-136.806203,59.909004],[-136.806248,59.908851],[-136.806276,59.908715],[-136.806303,59.908553],[-136.806312,59.9084],[-136.806269,59.908248],[-136.806153,59.908098],[-136.80602,59.907956],[-136.805887,59.907805],[-136.805842,59.907626],[-136.805852,59.907491],[-136.806006,59.907354]]},"properties":{"ROAD_NAME":null,"KIND":"trail","SURFACE_TYPE":null}},{"type":"Feature","geometry":{"type":"LineString","coordinates":[[-136.826594,59.898987],[-136.826981,59.898874],[-136.827209,59.898799],[-136.827456,59.898732],[-136.827702,59.898648],[-136.827965,59.898564],[-136.82821,59.898462],[-136.828348,59.898379]]},"properties":{"ROAD_NAME":null,"KIND":"trail","SURFACE_TYPE":null}},{"type":"Feature","geometry":{"type":"LineString","coordinates":[[-136.804111,59.913963],[-136.804361,59.913969],[-136.804647,59.913956],[-136.804914,59.913934],[-136.805218,59.913921],[-136.805556,59.913907],[-136.80586,59.913895],[-136.80618,59.913863],[-136.8065,59.913831],[-136.806821,59.9138],[-136.807088,59.913779],[-136.807371,59.913739],[-136.807677,59.913762],[-136.807879,59.913858],[-136.80817,59.913935],[-136.80844,59.913985],[-136.808767,59.914062],[-136.809037,59.914102],[-136.809291,59.914162],[-136.809363,59.914187],[-136.809383,59.914214],[-136.809367,59.914251],[-136.80914,59.914353],[-136.809058,59.914489],[-136.808924,59.914652],[-136.808843,59.914815],[-136.808744,59.914968],[-136.80861,59.915123],[-136.808491,59.915251],[-136.808339,59.915414],[-136.808203,59.915542],[-136.808085,59.915669],[-136.807967,59.915805],[-136.807831,59.915934],[-136.807713,59.916061],[-136.807577,59.916206],[-136.807443,59.91636],[-136.807343,59.916496],[-136.807207,59.916642],[-136.80709,59.916779],[-136.806972,59.916906],[-136.806837,59.917061],[-136.806702,59.917206],[-136.806584,59.917352],[-136.80645,59.917516],[-136.806315,59.91766],[-136.80618,59.917805],[-136.806045,59.917952],[-136.805875,59.918125],[-136.805758,59.918261],[-136.805641,59.918416],[-136.80554,59.918551],[-136.80544,59.918687]]},"properties":{"ROAD_NAME":null,"KIND":"trail","SURFACE_TYPE":null}},{"type":"Feature","geometry":{"type":"LineString","coordinates":[[-136.855318,59.893421],[-136.855565,59.893363],[-136.855904,59.893359],[-136.856238,59.893256],[-136.856559,59.893233],[-136.85672,59.893231],[-136.85706,59.893244],[-136.857347,59.893258],[-136.857669,59.893262],[-136.857991,59.893267],[-136.858312,59.893262],[-136.858634,59.893258],[-136.858955,59.893244],[-136.859275,59.893212],[-136.859558,59.893173],[-136.859823,59.893115],[-136.860107,59.893066],[-136.860354,59.893008],[-136.860618,59.89295],[-136.860903,59.89292],[-136.861187,59.89288],[-136.861526,59.892866],[-136.861561,59.892866]]},"properties":{"ROAD_NAME":null,"KIND":"trail","SURFACE_TYPE":null}},{"type":"Feature","geometry":{"type":"LineString","coordinates":[[-136.835973,59.88365],[-136.835557,59.883862]]},"properties":{"ROAD_NAME":null,"KIND":"trail","SURFACE_TYPE":null}},{"type":"Feature","geometry":{"type":"LineString","coordinates":[[-136.806227,59.943699],[-136.806002,59.943829],[-136.805812,59.943947],[-136.805569,59.944095],[-136.805343,59.944214],[-136.805097,59.944307],[-136.804813,59.944365],[-136.804494,59.944396],[-136.804152,59.944383],[-136.803866,59.944378],[-136.803562,59.944382],[-136.803471,59.944374],[-136.803418,59.944384],[-136.803228,59.944504],[-136.803128,59.94464],[-136.803029,59.944802],[-136.803002,59.944956],[-136.802993,59.945118],[-136.802965,59.945263],[-136.802883,59.945407],[-136.802729,59.945535],[-136.8024,59.945737]]},"properties":{"ROAD_NAME":null,"KIND":"trail","SURFACE_TYPE":null}},{"type":"Feature","geometry":{"type":"LineString","coordinates":[[-136.820324,59.973872],[-136.82071,59.974046],[-136.820948,59.974133]]},"properties":{"ROAD_NAME":null,"KIND":"trail","SURFACE_TYPE":null}},{"type":"Feature","geometry":{"type":"LineString","coordinates":[[-136.844202,59.894753],[-136.844327,59.894761],[-136.844505,59.894749],[-136.844651,59.894801],[-136.844819,59.894925],[-136.845043,59.895092],[-136.845116,59.895118],[-136.845434,59.895059],[-136.845681,59.894985],[-136.845998,59.894908],[-136.846321,59.894931],[-136.846626,59.894961],[-136.846933,59.895002],[-136.847221,59.895052],[-136.847493,59.89512],[-136.847802,59.895207],[-136.84813,59.895327]]},"properties":{"ROAD_NAME":null,"KIND":"trail","SURFACE_TYPE":null}},{"type":"Feature","geometry":{"type":"LineString","coordinates":[[-136.83213,59.885571],[-136.832113,59.885582],[-136.831978,59.885736],[-136.831828,59.885927],[-136.831731,59.886108],[-136.831615,59.886271],[-136.831518,59.886452],[-136.831419,59.886623],[-136.831357,59.886786],[-136.831296,59.886976],[-136.831235,59.887166],[-136.831155,59.887328],[-136.831058,59.887527],[-136.830996,59.887699],[-136.830986,59.887842],[-136.830976,59.887986],[-136.830985,59.888156]]},"properties":{"ROAD_NAME":null,"KIND":"trail","SURFACE_TYPE":null}},{"type":"Feature","geometry":{"type":"LineString","coordinates":[[-136.820948,59.974133],[-136.82115,59.97422],[-136.821372,59.974343],[-136.821557,59.974457],[-136.821725,59.974581],[-136.821875,59.974695],[-136.822079,59.974818],[-136.822282,59.974932]]},"properties":{"ROAD_NAME":null,"KIND":"trail","SURFACE_TYPE":null}},{"type":"Feature","geometry":{"type":"LineString","coordinates":[[-136.844202,59.894753],[-136.844095,59.894773],[-136.844015,59.894927],[-136.844024,59.895088],[-136.844014,59.895232],[-136.843998,59.895277],[-136.843952,59.895403],[-136.843906,59.895539],[-136.843896,59.895683],[-136.843869,59.895846],[-136.843859,59.89598],[-136.84387,59.896178],[-136.843876,59.896303],[-136.843903,59.896455],[-136.843929,59.896608],[-136.84392,59.896769],[-136.843876,59.896932],[-136.843793,59.897067],[-136.843639,59.897178],[-136.843587,59.897197],[-136.843307,59.897317],[-136.843025,59.897401],[-136.84278,59.897486],[-136.842518,59.897598],[-136.842292,59.897717],[-136.842067,59.897838],[-136.841822,59.897949],[-136.841613,59.898051],[-136.841314,59.898134],[-136.84096,59.898203],[-136.840677,59.898252],[-136.840395,59.898319],[-136.84013,59.898377],[-136.839847,59.898425],[-136.839511,59.898493],[-136.839246,59.898559],[-136.838963,59.898618],[-136.838553,59.898632],[-136.83818,59.898691],[-136.837898,59.898749],[-136.837652,59.898825],[-136.837389,59.898918],[-136.837071,59.899002],[-136.836825,59.899069],[-136.836541,59.899117],[-136.836294,59.899158],[-136.835955,59.899189],[-136.835654,59.89923],[-136.835352,59.899278],[-136.835032,59.899292],[-136.834853,59.899294],[-136.83453,59.899281],[-136.834261,59.899266],[-136.833956,59.899245],[-136.833614,59.899212],[-136.833273,59.899182],[-136.832949,59.899141],[-136.832644,59.89911],[-136.832339,59.899095],[-136.832015,59.899063],[-136.831762,59.899014],[-136.831472,59.898937],[-136.831165,59.898879],[-136.830929,59.89881],[-136.830764,59.898749]]},"properties":{"ROAD_NAME":null,"KIND":"trail","SURFACE_TYPE":null}},{"type":"Feature","geometry":{"type":"LineString","coordinates":[[-136.820565,59.976303],[-136.820422,59.976305],[-136.820122,59.976381],[-136.819679,59.976485]]},"properties":{"ROAD_NAME":null,"KIND":"trail","SURFACE_TYPE":null}},{"type":"Feature","geometry":{"type":"LineString","coordinates":[[-136.822282,59.974932],[-136.822395,59.975029]]},"properties":{"ROAD_NAME":null,"KIND":"trail","SURFACE_TYPE":null}},{"type":"Feature","geometry":{"type":"LineString","coordinates":[[-136.814272,59.961821],[-136.814677,59.961699],[-136.81498,59.961668],[-136.815299,59.961609],[-136.815527,59.961526],[-136.815793,59.961486],[-136.816096,59.961446],[-136.816398,59.961406],[-136.816682,59.961356],[-136.817022,59.961344],[-136.817347,59.961401],[-136.81762,59.96147],[-136.817873,59.961511],[-136.818198,59.961561],[-136.818542,59.961636],[-136.818832,59.961687],[-136.819085,59.961738],[-136.819375,59.961787],[-136.819645,59.961829],[-136.819933,59.961851],[-136.820237,59.961829]]},"properties":{"ROAD_NAME":null,"KIND":"trail","SURFACE_TYPE":null}},{"type":"Feature","geometry":{"type":"LineString","coordinates":[[-136.835557,59.883862],[-136.83533,59.883956],[-136.835102,59.884048],[-136.834803,59.884134],[-136.834485,59.88421],[-136.834168,59.884295],[-136.83387,59.884389],[-136.833572,59.884492],[-136.833292,59.884612],[-136.833033,59.88476],[-136.832742,59.884989],[-136.832518,59.885145],[-136.832349,59.885327],[-136.832231,59.885454],[-136.83213,59.885571]]},"properties":{"ROAD_NAME":null,"KIND":"trail","SURFACE_TYPE":null}},{"type":"Feature","geometry":{"type":"LineString","coordinates":[[-136.848433,59.875994],[-136.848407,59.876174],[-136.848346,59.876355],[-136.848191,59.876474],[-136.848021,59.876611],[-136.847904,59.876774],[-136.84777,59.87692],[-136.847617,59.877057],[-136.847548,59.877111]]},"properties":{"ROAD_NAME":null,"KIND":"trail","SURFACE_TYPE":null}},{"type":"Feature","geometry":{"type":"LineString","coordinates":[[-136.819006,59.973675],[-136.819185,59.973673],[-136.819472,59.973687],[-136.819778,59.973718]]},"properties":{"ROAD_NAME":null,"KIND":"trail","SURFACE_TYPE":null}},{"type":"Feature","geometry":{"type":"LineString","coordinates":[[-136.804176,59.911529],[-136.804495,59.911488],[-136.804722,59.911386],[-136.804858,59.911259],[-136.804994,59.911122],[-136.805076,59.910986],[-136.805174,59.910814],[-136.805253,59.910625],[-136.8053,59.910489],[-136.805363,59.910344],[-136.805479,59.910163],[-136.805578,59.910027],[-136.805678,59.909892],[-136.805742,59.909755]]},"properties":{"ROAD_NAME":null,"KIND":"trail","SURFACE_TYPE":null}},{"type":"Feature","geometry":{"type":"LineString","coordinates":[[-136.82454,59.900004],[-136.824715,59.899938],[-136.825031,59.899834],[-136.825223,59.899742],[-136.825535,59.899559]]},"properties":{"ROAD_NAME":null,"KIND":"trail","SURFACE_TYPE":null}},{"type":"Feature","geometry":{"type":"LineString","coordinates":[[-136.861561,59.892866],[-136.861812,59.892871],[-136.862098,59.892885],[-136.862386,59.892908],[-136.862673,59.892922],[-136.862962,59.892981],[-136.863252,59.893048],[-136.863507,59.893143],[-136.863745,59.893239],[-136.864034,59.893298],[-136.864394,59.893329],[-136.864691,59.893217],[-136.864996,59.893231],[-136.865319,59.893252],[-136.865572,59.893303],[-136.865808,59.893363],[-136.866063,59.893449],[-136.866316,59.893508],[-136.866589,59.893586],[-136.866861,59.893662],[-136.867116,59.893748],[-136.867388,59.893825],[-136.867659,59.893866],[-136.867946,59.893889],[-136.868252,59.893911],[-136.868539,59.893934],[-136.868809,59.893968],[-136.86908,59.894017],[-136.869353,59.894103],[-136.869608,59.894188],[-136.869844,59.894267],[-136.870134,59.894325],[-136.870453,59.894276],[-136.870739,59.894281],[-136.871028,59.894322],[-136.871353,59.894388],[-136.871606,59.894439],[-136.87181,59.894571],[-136.871944,59.894722],[-136.872112,59.894854],[-136.872352,59.894985],[-136.872758,59.895195],[-136.87285,59.895256],[-136.873101,59.895271],[-136.873347,59.895187],[-136.873702,59.895138],[-136.873986,59.895115],[-136.874289,59.895101],[-136.874597,59.895169],[-136.874984,59.895388],[-136.87524,59.895483],[-136.875442,59.89558],[-136.875717,59.895691],[-136.875953,59.895761],[-136.876243,59.895819],[-136.876513,59.89586],[-136.876804,59.895938],[-136.877146,59.895995],[-136.877415,59.896008],[-136.87772,59.896023],[-136.87781,59.89604],[-136.878081,59.896089],[-136.878373,59.896193],[-136.878592,59.896262],[-136.878932,59.896266],[-136.879217,59.896253],[-136.879556,59.896239],[-136.879842,59.896253],[-136.880202,59.896292],[-136.880492,59.89636],[-136.880746,59.896428],[-136.880999,59.896479],[-136.881307,59.896555],[-136.88151,59.89666],[-136.881933,59.89687],[-136.882101,59.896994],[-136.882321,59.89708],[-136.882647,59.897165],[-136.882936,59.897206],[-136.883275,59.897192],[-136.883576,59.897151],[-136.883843,59.897122],[-136.88418,59.897089],[-136.884467,59.897103],[-136.884738,59.897153],[-136.885044,59.897185],[-136.885384,59.897197],[-136.885742,59.89721],[-136.886027,59.897179],[-136.886291,59.897103],[-136.88645,59.897075]]},"properties":{"ROAD_NAME":null,"KIND":"trail","SURFACE_TYPE":null}},{"type":"Feature","geometry":{"type":"LineString","coordinates":[[-136.848925,59.874559],[-136.848946,59.874621],[-136.848922,59.87482]]},"properties":{"ROAD_NAME":null,"KIND":"trail","SURFACE_TYPE":null}},{"type":"Feature","geometry":{"type":"LineString","coordinates":[[-136.819006,59.973675],[-136.819019,59.973594],[-136.819081,59.973431],[-136.819165,59.973313]]},"properties":{"ROAD_NAME":null,"KIND":"trail","SURFACE_TYPE":null}},{"type":"Feature","geometry":{"type":"LineString","coordinates":[[-136.84813,59.895327],[-136.848567,59.895466],[-136.848839,59.895524],[-136.849093,59.895584],[-136.849399,59.895633],[-136.849722,59.895664],[-136.850008,59.895661],[-136.850289,59.895567],[-136.850462,59.895456],[-136.850723,59.895327],[-136.850877,59.895217],[-136.85085,59.895055],[-136.850812,59.894994],[-136.850663,59.894897],[-136.850673,59.894753],[-136.850682,59.894591],[-136.850619,59.89443],[-136.850574,59.894269],[-136.850459,59.894117],[-136.850362,59.893993],[-136.850343,59.893958],[-136.850359,59.893922],[-136.850484,59.89392],[-136.850772,59.893961],[-136.851111,59.893956],[-136.851487,59.89396],[-136.851792,59.893974],[-136.852115,59.894005],[-136.852438,59.894027],[-136.852725,59.894041],[-136.853026,59.894001],[-136.853327,59.893952],[-136.853611,59.893902],[-136.853948,59.893853],[-136.854196,59.893815],[-136.854479,59.893774],[-136.854798,59.893715],[-136.854886,59.893679],[-136.855021,59.893551],[-136.855212,59.89345],[-136.855318,59.893421]]},"properties":{"ROAD_NAME":null,"KIND":"trail","SURFACE_TYPE":null}},{"type":"Feature","geometry":{"type":"LineString","coordinates":[[-136.848541,59.871179],[-136.848424,59.871341],[-136.848307,59.871469],[-136.848208,59.871623],[-136.84818,59.871768],[-136.848189,59.87192],[-136.848161,59.872064],[-136.848115,59.872199],[-136.848088,59.872352],[-136.84806,59.872487],[-136.848032,59.872641],[-136.848041,59.872802],[-136.848049,59.872946],[-136.848113,59.873116],[-136.848246,59.873267],[-136.848361,59.873408],[-136.848423,59.873561],[-136.848484,59.873704],[-136.848545,59.873837],[-136.848625,59.873989],[-136.848723,59.87414],[-136.84882,59.874283],[-136.848901,59.874452],[-136.848925,59.874559]]},"properties":{"ROAD_NAME":null,"KIND":"trail","SURFACE_TYPE":null}},{"type":"Feature","geometry":{"type":"LineString","coordinates":[[-136.824337,59.976125],[-136.824321,59.976161],[-136.824033,59.976147],[-136.823744,59.976097],[-136.823401,59.976048],[-136.823078,59.976043],[-136.822701,59.976031],[-136.822456,59.976133],[-136.822155,59.976201],[-136.82187,59.976249],[-136.821567,59.97628],[-136.821301,59.97632],[-136.82098,59.976333],[-136.820674,59.976319],[-136.820565,59.976303]]},"properties":{"ROAD_NAME":null,"KIND":"trail","SURFACE_TYPE":null}}]}