{"type":"FeatureCollection","name":"Crown Land \u2013 MNR Non-Freehold Dispositions","features":[{"type":"Feature","geometry":{"type":"Polygon","coordinates":[[[-80.88033443387737,48.120798939826294],[-80.88033403390038,48.12098923985504],[-80.88078583405022,48.12098973983051],[-80.88078623402724,48.12079933980171],[-80.88033443387737,48.120798939826294]]]},"properties":{"CLASS_SUBTYPE":"Crown Disposition Land Use Permit","PURPOSE_OF_DISPOSITION":"Private Recreation Camp","SITE_NAME":"Club Talhsoma","LOCATION_DESCR":"WHITEFISH LAKE\r\n","AREA_IN_HA":0.5}},{"type":"Feature","geometry":{"type":"Polygon","coordinates":[[[-80.83280432408637,48.16996344983977],[-80.83304352412654,48.16964104977815],[-80.83256172394715,48.169481049780174],[-80.83232242390692,48.16980344984188],[-80.83280432408637,48.16996344983977]]]},"properties":{"CLASS_SUBTYPE":"Crown Disposition Land Use Permit","PURPOSE_OF_DISPOSITION":"Private Recreation Camp","SITE_NAME":null,"LOCATION_DESCR":"Whitefish Lake/Whitefish River\r\n","AREA_IN_HA":0.5}},{"type":"Feature","geometry":{"type":"Polygon","coordinates":[[[-80.89290854304721,48.161879545344256],[-80.89386084343984,48.16250884538727],[-80.894465743601,48.16218474530537],[-80.89354954322748,48.16161354526914],[-80.89290854304721,48.161879545344256]]]},"properties":{"CLASS_SUBTYPE":"Crown Disposition Land Use Permit","PURPOSE_OF_DISPOSITION":"Private Recreation Camp","SITE_NAME":"Club Talhsoma","LOCATION_DESCR":"WHITEFISH LAKE","AREA_IN_HA":0.5}}]}