{"type":"FeatureCollection","name":"Patent Land External","features":[{"type":"Feature","geometry":{"type":"Polygon","coordinates":[[[-80.74560728558127,48.09102914264272],[-80.74557618563583,48.09156624272572],[-80.74557178564366,48.09164314273762],[-80.74675418603972,48.09167384267815],[-80.74674258603154,48.09163804267339],[-80.74675088601579,48.091484842649734],[-80.74674648599803,48.09134994262957],[-80.74674258598264,48.09123294261202],[-80.74672028595543,48.091069042588444],[-80.7466600859248,48.09098074257832],[-80.74647648585778,48.09093054258069],[-80.74599888569595,48.09090254260229],[-80.7456158855663,48.09088134261984],[-80.74560728558127,48.09102914264272]]]},"properties":{"TITLE_HOLDER_TYPE":"Private","CROWN_RESERVATION_TYPE":null}},{"type":"Feature","geometry":{"type":"Polygon","coordinates":[[[-80.75167148794692,48.09395664275737],[-80.75138918785973,48.094009942780744],[-80.75116068779032,48.09406344280121],[-80.75102468774955,48.09409954281403],[-80.75128458789867,48.09462004287874],[-80.75134168793139,48.09473424289298],[-80.75210298816248,48.09455594282469],[-80.75187098801172,48.09394494274477],[-80.75167148794692,48.09395664275737]]]},"properties":{"TITLE_HOLDER_TYPE":"Private","CROWN_RESERVATION_TYPE":null}},{"type":"Feature","geometry":{"type":"Polygon","coordinates":[[[-80.81961551792453,48.15529004834235],[-80.81954811790759,48.155334948352824],[-80.81951411789963,48.155362148358776],[-80.81946911788866,48.15539464836611],[-80.81942681787716,48.15541574837161],[-80.81937291786252,48.155442648378646],[-80.81931911784795,48.15546954838559],[-80.81923821782654,48.15551434839676],[-80.81920411781797,48.155537048402046],[-80.81917081780965,48.1555592484072],[-80.8191397178012,48.155574848411284],[-80.81916281781338,48.155612248415665],[-80.81992691816004,48.156377648489666],[-80.82020491822988,48.15619324844667],[-80.8204030182797,48.15606184841605],[-80.8196447179324,48.155275448338585],[-80.81961551792453,48.15529004834235]]]},"properties":{"TITLE_HOLDER_TYPE":"Private","CROWN_RESERVATION_TYPE":null}},{"type":"Feature","geometry":{"type":"Polygon","coordinates":[[[-80.8338458227391,48.156044647681895],[-80.83389282275853,48.15607624768411],[-80.83398672279843,48.15614834768991],[-80.83406712283606,48.15623844769913],[-80.83410712285392,48.15627614770267],[-80.83413412286596,48.156301547705006],[-80.8341818228869,48.15634374770879],[-80.83424142291256,48.156391647712795],[-80.83527192317617,48.15574724755939],[-80.8348091229832,48.15542334753566],[-80.8338458227391,48.156044647681895]]]},"properties":{"TITLE_HOLDER_TYPE":"Private","CROWN_RESERVATION_TYPE":null}}]}