{"type":"FeatureCollection","name":"Trapline Area","features":[{"type":"Feature","id":11009,"geometry":{"type":"Polygon","coordinates":[[[-80.81146950904176,48.104346941085026],[-80.81146490915081,48.105260141223425],[-80.81145910928727,48.10640274139658],[-80.81111240931031,48.1075425415878],[-80.81008510907981,48.10845294178136],[-80.80871780870875,48.10913444195878],[-80.80735040833757,48.109814842135954],[-80.80598300796649,48.1104963423133],[-80.80427340750934,48.111404342543565],[-80.80256120710658,48.11276904284302],[-80.80186980709829,48.11459424315661],[-80.80152030717589,48.11619174341722],[-80.80151200736675,48.117789843659345],[-80.80184430767083,48.11938964388322],[-80.80251670811552,48.12121834412326],[-80.80284950841987,48.122818144347036],[-80.80338340884684,48.12487934462969],[-80.80390680922802,48.12659084486],[-80.80443030960922,48.12830224509032],[-80.80478580997615,48.13035534538133],[-80.80514681042813,48.13309444577578],[-80.80516011065407,48.134920846051074],[-80.80517331088004,48.13674724632642],[-80.80484921104951,48.13903084668913],[-80.80384331099292,48.14131544708906],[-80.80249291076682,48.14314524743895],[-80.80114291054066,48.1449737477886],[-80.79877291003154,48.14726054826297],[-80.79741940974881,48.148632448543786],[-80.79504100909848,48.14977874884626],[-80.79300380856117,48.15092334912988],[-80.78960610762802,48.15252764955691],[-80.78859450748641,48.15412724985354],[-80.78758600740119,48.15618345021892],[-80.78691670740086,48.15801085053135],[-80.78591750748505,48.16143685110308],[-80.78559550771091,48.16417695153439],[-80.78594740802177,48.165774551756535],[-80.78664070844592,48.16737165195999],[-80.78699420878513,48.16919755221649],[-80.7876875092094,48.17079475241994],[-80.78906310985991,48.17238965258593],[-80.79249801141606,48.175809152915335],[-80.79387511209498,48.177632353115634],[-80.79473351247698,48.17843015318942],[-80.7955921128591,48.179227853263065],[-80.79867821416082,48.181505053438904],[-80.80313941608556,48.185149753746146],[-80.80622671738794,48.18742775392185],[-80.80995061900751,48.1905739541938],[-80.81245671983966,48.19057355405731],[-80.86525663734216,48.19035055114688],[-80.94372336337716,48.190315446856744],[-80.99981108197413,48.19025804377829],[-81.01966868855885,48.19025624268977],[-81.07421050663864,48.19024033969453],[-81.07425000109616,48.144951832870255],[-81.07424770092238,48.143539332657404],[-81.07440739874052,48.125284429895665],[-81.07437919650819,48.10710492715386],[-81.07437339604851,48.10335882658868],[-81.07437329604845,48.10335882658867],[-81.04562688653482,48.10340092817003],[-81.0447671862502,48.103401328217146],[-81.00371607266777,48.10351813048117],[-81.00299067242746,48.10351813052084],[-80.99980707137722,48.10355413070039],[-80.98973256803203,48.10349073124156],[-80.9895444679697,48.10349073125184],[-80.9881071674935,48.103490631330374],[-80.98711316716198,48.10347253138199],[-80.97748196397637,48.10351603191483],[-80.97534616326867,48.10351563203142],[-80.9748222630962,48.10352453206142],[-80.97284766244405,48.103542032171944],[-80.95664405707488,48.10354113305667],[-80.94344355270036,48.10354043377712],[-80.91930494470714,48.10359803510256],[-80.91060064181896,48.103573635573454],[-80.90833054106628,48.103571835696904],[-80.90832984106606,48.10357183569694],[-80.90267433919391,48.10359293600834],[-80.90228903906636,48.103594336029566],[-80.8914143354662,48.10363493662822],[-80.89091283521786,48.10295883655336],[-80.89091373519032,48.10272933651854],[-80.89070523508724,48.10245013648771],[-80.89057403502227,48.102273136468085],[-80.88887213437444,48.10158433645665],[-80.88750983386696,48.10112413646125],[-80.88580613327395,48.10089193651891],[-80.88516873306249,48.100890836553496],[-80.88444223282124,48.10088763659253],[-80.88352263253132,48.10101043666122],[-80.88273723228345,48.10111383671964],[-80.8806909316321,48.10133663686472],[-80.87950413123828,48.10133383692892],[-80.87898613106631,48.101331936956846],[-80.87712883038967,48.10083013698212],[-80.8770792303781,48.100870536990904],[-80.87686373033614,48.10111323703934],[-80.87658093027616,48.10139183709685],[-80.87635163024815,48.10178753716921],[-80.87633813024698,48.101814537174],[-80.87621643025025,48.10217423723501],[-80.87608113025668,48.10259693730631],[-80.87593263024131,48.102875737356534],[-80.87593263024134,48.10287593735663],[-80.87593243024125,48.10287613735665],[-80.87593183027165,48.10312803739474],[-80.87591783030193,48.10341593743909],[-80.87600703036613,48.1037011374773],[-80.86747512755046,48.10381013795826],[-80.86547972689193,48.103835638070706],[-80.86216832579348,48.10383213825042],[-80.86060112527365,48.10383043833546],[-80.86056682526223,48.10383043833732],[-80.86056782523097,48.10357003829788],[-80.86056782523089,48.10356923829775],[-80.8604593251773,48.10342383828167],[-80.86022862506309,48.103113038247244],[-80.85954142476022,48.102494938191164],[-80.85920942461387,48.10219553816393],[-80.85898512451206,48.10196943814192],[-80.85853042430547,48.10150943809712],[-80.85807812410624,48.10110293806025],[-80.85751172385645,48.1005920380138],[-80.85637632338732,48.09982813795999],[-80.85615182329454,48.09967673794931],[-80.85444932267414,48.09921573797223],[-80.85274582208105,48.098982938029685],[-80.85157282169172,48.098979938092995],[-80.85104152151526,48.09897783812161],[-80.84899502086365,48.099200138266504],[-80.84694752023944,48.09965173844621],[-80.8449004196153,48.10010333862588],[-80.84418391940243,48.10030743869569],[-80.8425106189051,48.10078233885853],[-80.84106011850201,48.101425139034646],[-80.84046131833547,48.10168973910726],[-80.83966721812013,48.10208593921034],[-80.83909441796477,48.102371239284665],[-80.83758831763922,48.10380603958356],[-80.81244760929746,48.10377944094603],[-80.81165120903327,48.10377924098922],[-80.81146950904176,48.104346941085026]]]},"properties":{"OGF_ID":950622372,"TRAPLINE_AREA_NUMBER":"TI056","LOCATION_ACCURACY":"Within 100 metres","LOCATION_DESCR":"Cleaver Twp., McNeil Twp.","VERIFICATION_STATUS_FLG":"Verified","VERIFICATION_STATUS_DATE":1170342846000,"BUSINESS_EFF_DATE_FLG":"Estimated","BUSINESS_EFFECTIVE_DATE":1170288000000,"SYSTEM_CALCULATED_AREA":198601928.106,"SYSTEM_CALCULATED_LENGTH":60725.873,"GEOMETRY_UPDATE_DATETIME":1369827206000,"EFFECTIVE_DATETIME":1369818654000,"OBJECTID":11009}},{"type":"Feature","id":25009,"geometry":{"type":"Polygon","coordinates":[[[-80.66494964880205,48.007676234358236],[-80.66553474902794,48.007941934367054],[-80.66637054934583,48.008281734373625],[-80.66689224955772,48.00860653439483],[-80.66737094977394,48.00908593444186],[-80.6677244499418,48.00950873448703],[-80.66822435016168,48.00996003452863],[-80.66945405068951,48.01096163461448],[-80.67124665145644,48.01240073473648],[-80.67216275187005,48.01331693482625],[-80.6737646526159,48.015106935011715],[-80.67507515323297,48.01662893517224],[-80.67589925365283,48.01785143531347],[-80.67593255367339,48.01793083532374],[-80.6761330537529,48.018039435329385],[-80.6762396538002,48.0181386353387],[-80.6764935539028,48.01829233534834],[-80.6767475540012,48.018410035352495],[-80.67761505438969,48.01925083543343],[-80.678822954934,48.02044913555025],[-80.68110435596006,48.022695035768194],[-80.683196156916,48.02488013598706],[-80.68356645707958,48.025220036018716],[-80.68519505783715,48.027031836205886],[-80.68638195838135,48.02828623633226],[-80.68756985890903,48.02940003643725],[-80.6887795594271,48.03037333651969],[-80.69040606013417,48.031769436643756],[-80.69267836113507,48.03382803683352],[-80.69405386175043,48.035153136960396],[-80.69644946284802,48.03767573721383],[-80.69878356390332,48.04001553744282],[-80.70036696463008,48.04169253761178],[-80.70374196619164,48.045370337987414],[-80.70445006652643,48.046201538075245],[-80.70561626707759,48.04756813821952],[-80.70649986747956,48.04847343830909],[-80.70656186750777,48.04853683831534],[-80.70820886824198,48.05009913846334],[-80.708418768339,48.05032683848653],[-80.70999316908538,48.052190138684],[-80.71070156941529,48.05297913876542],[-80.71174376989491,48.05409233887788],[-80.7125985702853,48.05498013896629],[-80.71327917058557,48.05559903902335],[-80.71391247087548,48.056262439089714],[-80.71466277122441,48.05709373917523],[-80.71530957151191,48.05769983923211],[-80.71622847189828,48.05837693928512],[-80.71716897227988,48.05895563932198],[-80.71808937263629,48.059379639336505],[-80.71909407301042,48.05971943933368],[-80.72074817361555,48.060187339315135],[-80.72332487453195,48.060699639253365],[-80.7250009751341,48.0610828392208],[-80.72599037548416,48.06126393919471],[-80.72682837578097,48.06142053917311],[-80.72798027619895,48.06171853915593],[-80.73094357730561,48.0627450391512],[-80.7317893776397,48.06318953917277],[-80.73224927782796,48.06348583919281],[-80.73274277803326,48.0638311392185],[-80.73343467833209,48.0644065392682],[-80.73408137862812,48.06508283933573],[-80.73420617869324,48.065279939358874],[-80.73449677886089,48.06587103943276],[-80.73470317900731,48.06651823951964],[-80.73486887911149,48.06692623957255],[-80.73509787922816,48.0672642396114],[-80.73545257938997,48.0676305396477],[-80.7355976794771,48.06795413968891],[-80.73567937955676,48.06839013975054],[-80.73565697958323,48.06867113979431],[-80.73554967960516,48.06914883987256],[-80.73529577957169,48.06957003995016],[-80.73472647945384,48.070159140070274],[-80.7344099793911,48.070509840140524],[-80.73415597936271,48.07097314022453],[-80.73404847938801,48.07147904030703],[-80.7341086794707,48.07199934038262],[-80.7343156796055,48.07254804045452],[-80.73458637974112,48.0729282404975],[-80.7348358798748,48.073350540548006],[-80.73504387998626,48.07370244059006],[-80.73531368014366,48.07426534066073],[-80.73562398035004,48.075123540773966],[-80.73574668046368,48.075728340858994],[-80.73574448051546,48.07616414092514],[-80.73570068054335,48.07651544098077],[-80.73563638055589,48.076796541026845],[-80.73549238053486,48.077018341068204],[-80.73536188050711,48.077147341094836],[-80.73533968052686,48.07737214113012],[-80.73527588052772,48.07755484116124],[-80.73506568046638,48.0776246411832],[-80.73477198037055,48.07763794120117],[-80.73424738019973,48.077664841233606],[-80.73407918015239,48.07773474125335],[-80.73376318007966,48.07800114131081],[-80.73361438007599,48.07838034137631],[-80.73369648014393,48.078717941423044],[-80.7340508803159,48.07916854147209],[-80.73480168066862,48.08002784156163],[-80.73540898095841,48.080759741639646],[-80.73603678125971,48.08153124172251],[-80.73689218165401,48.082446941814915],[-80.73796418211536,48.08332314188957],[-80.7401589830029,48.08464344197073],[-80.74441278475378,48.08745714216646],[-80.74644768562267,48.08906204229928],[-80.7476906861535,48.09004294238048],[-80.74807208633553,48.09050224242935],[-80.74848838655863,48.091206142513336],[-80.74877798675662,48.09205024262546],[-80.74898318694022,48.093006542759206],[-80.74906168710206,48.09413134292528],[-80.74909188724278,48.09521334308748],[-80.74894908725317,48.095691443167546],[-80.74884348723673,48.095845843196706],[-80.74846458713978,48.09608404325326],[-80.7480442870155,48.0962096432951],[-80.74742418682946,48.09637324335344],[-80.74912968736854,48.096150843227335],[-80.75663198980587,48.095720542755515],[-80.76447589232882,48.09506204223051],[-80.77163709465243,48.09462994177668],[-80.7774354964956,48.09396434136139],[-80.78221009802624,48.093523541035644],[-80.78800739989624,48.09308454065458],[-80.79243970134067,48.09287104038171],[-80.79789470312443,48.09265914005352],[-80.80198620445546,48.09244363979876],[-80.80369010502122,48.09244873970702],[-80.80778150635211,48.092233039452175],[-80.8105073072849,48.092470339340096],[-80.81220820793249,48.09316023935212],[-80.8142496086931,48.093850739345726],[-80.81526990908722,48.09431123936001],[-80.81594940936812,48.094770039392515],[-80.81628940950857,48.09499883940868],[-80.8183448099422,48.092949638986916],[-80.82006441012622,48.089758338410476],[-80.82109591024746,48.08793353807823],[-80.82144231022441,48.08679373788693],[-80.82247491031838,48.08474063752002],[-80.8224901099367,48.08154433703531],[-80.82181870946529,48.079487536760396],[-80.8211493089392,48.07697293641603],[-80.81911740796099,48.07445503614511],[-80.81708660695564,48.07170883583949],[-80.81030230398643,48.06575193530551],[-80.80453220157476,48.06162383499322],[-80.80215860053882,48.059561634809526],[-80.79944329941696,48.05772603467869],[-80.79604899801471,48.055431434515015],[-80.7936723970606,48.054054034435175],[-80.79096269583056,48.05130493416539],[-80.78790999454192,48.04901183398324],[-80.78621719375981,48.0471800337973],[-80.78282829227713,48.04420013352922],[-80.78113619149536,48.04236823334314],[-80.78012339096651,48.040765933155015],[-80.7791123904109,48.03893643293235],[-80.77811038966574,48.03550773246654],[-80.77744138919606,48.03344943219059],[-80.77643018864053,48.03161993196783],[-80.77474648769679,48.0284170315731],[-80.77102438599432,48.02452293118377],[-80.76797708465331,48.02177263093139],[-80.76459228314542,48.01856383062763],[-80.76256248222462,48.016501530424456],[-80.75952168077629,48.01283793003283],[-80.75817128010851,48.01100632982781],[-80.7574988797206,48.009632829655644],[-80.75682847930608,48.008032229448915],[-80.75547527869242,48.00665722931332],[-80.75480197833178,48.005513129175974],[-80.75446737811107,48.004599229055295],[-80.7537910778044,48.003911728987475],[-80.7531132775246,48.00345252895438],[-80.75243547724482,48.00299332892132],[-80.75209687710493,48.002763228904676],[-80.75176077691121,48.002077528818695],[-80.75176337685721,48.0016209287492],[-80.75210507694317,48.001393428696154],[-80.75278737714217,48.00116762862495],[-80.75449117765268,48.00071692846434],[-80.75790177861985,47.99935882807355],[-80.76063237936134,47.99799812771911],[-80.76541148061784,47.995273927046725],[-80.76950888167562,47.99277642644564],[-80.77360308278689,47.99073432591385],[-80.77701808364546,47.9884624253839],[-80.77974718438617,47.98710122502937],[-80.78247608512675,47.98574002467483],[-80.78554488597996,47.984379324302],[-80.78997558725739,47.982794923821416],[-80.79406948834081,47.98052492325483],[-80.79713898916663,47.978935622847175],[-80.79918308976212,47.978256522633274],[-80.80088709024484,47.97757682243775],[-80.80191009052933,47.977124222313556],[-80.80327399089919,47.97644272213616],[-80.80371369099211,47.9760037220456],[-80.80395749104356,47.9757601219954],[-80.80396479088132,47.97438922178664],[-80.80228248991234,47.97095942135649],[-80.80127288933079,47.96890072109829],[-80.79992478860976,47.9666130208235],[-80.79857428794274,47.96478202061829],[-80.79654918694253,47.9620354203103],[-80.79384138577083,47.95974302010829],[-80.79214638509937,47.9588244200603],[-80.79113038468043,47.95813662001072],[-80.78977398414852,47.95744691997922],[-80.78909788384226,47.956759619911296],[-80.78842168353589,47.956072419843345],[-80.78808588334239,47.95538571975704],[-80.78774828317576,47.95492851970583],[-80.7877559830141,47.95355861949708],[-80.7877619828791,47.95241601932292],[-80.7877709826905,47.95081781907935],[-80.78777738255582,47.94967631890534],[-80.7877786825289,47.949448018870534],[-80.7877795825018,47.949219718835806],[-80.78778098247494,47.94899141880102],[-80.78778238244801,47.94876311876621],[-80.78778458239401,47.94830651869662],[-80.78744748222749,47.947848118645105],[-80.78710998206095,47.94739091859384],[-80.78677378186735,47.94670421850753],[-80.78609918153425,47.945788618404755],[-80.78440758080937,47.94441341828696],[-80.78339138039036,47.943724318237074],[-80.78169757971949,47.94280561818888],[-80.77966347893573,47.941885118158794],[-80.77729217798559,47.94050731807733],[-80.7759406773735,47.93913261794123],[-80.7752663770406,47.93821691783829],[-80.77527157693302,47.937303717699024],[-80.77460107651942,47.93570311749169],[-80.77393067610588,47.93410251728429],[-80.77292057557966,47.93250011709494],[-80.77156937496781,47.93112541695872],[-80.77022747416787,47.928152416578605],[-80.7682048731697,47.925405316269604],[-80.76550177197328,47.922883916031715],[-80.76144287027303,47.91990201579682],[-80.75873786913073,47.91783701562837],[-80.75500926773108,47.916453715619],[-80.74959006563464,47.913922715526006],[-80.74856366543077,47.91506091575482],[-80.74821836542544,47.91597341591244],[-80.74651146502325,47.91733731621235],[-80.74514226476032,47.91893131652908],[-80.7430908643257,47.92097921695172],[-80.74137946400378,47.92302791735611],[-80.74034686390692,47.92507921772429],[-80.73897336372438,47.9273581181455],[-80.73794486354709,47.928724418409054],[-80.7369214632896,47.929405918568115],[-80.73521776280651,47.93008471876345],[-80.73351886224316,47.93007851885415],[-80.7314802615672,47.930071518963125],[-80.72876216066575,47.93006061910814],[-80.72536425953889,47.930048019289565],[-80.72332565886289,47.93004091939845],[-80.72162505832617,47.93026281952399],[-80.71890535745136,47.93048001970377],[-80.71652235674291,47.931156819935396],[-80.71413895603419,47.93183252016684],[-80.71141405523946,47.93273552045132],[-80.7056263535105,47.93431112100341],[-80.70120075217876,47.93543562141329],[-80.69813395129763,47.93656462175056],[-80.69302674976694,47.93791532223157],[-80.68792604812901,47.93835032257272],[-80.68486374716753,47.93879522280556],[-80.68180544615277,47.938782322968386],[-80.67942674536344,47.93877232309499],[-80.67467404370464,47.93806732324368],[-80.67195694277576,47.93782792335357],[-80.6675431412565,47.93735182351875],[-80.66584734063929,47.936888023539446],[-80.66381173990935,47.93642322357823],[-80.66109913892737,47.935725823618064],[-80.6583827379987,47.93548612372778],[-80.65633963737515,47.935934423906076],[-80.65449953686834,47.93679822413672],[-80.65240463634494,47.93823092446776],[-80.65171123616689,47.93866472457118],[-80.6512493360438,47.93891632463431],[-80.65089193595543,47.93916832469198],[-80.65068123591232,47.939392624737444],[-80.65042773587012,47.93974322480456],[-80.65015233584076,47.94026262489848],[-80.65002273586818,47.940852624995316],[-80.6499125359305,47.941681725127566],[-80.64986673598568,47.94227192521992],[-80.64973713601479,47.94287602531894],[-80.6494806360252,47.94367662545471],[-80.64926853600511,47.944097725530234],[-80.64899393596095,47.94449052560481],[-80.64850753589008,47.94524812574643],[-80.64797873581523,47.94609002590309],[-80.64753523573847,47.9466791260167],[-80.6469871356287,47.94728192613803],[-80.6465850355741,47.9479414262601],[-80.64635193554872,47.948376426338875],[-80.64624343557978,47.94893842643031],[-80.64626193562783,47.94928992648287],[-80.64613363563386,47.94969722655182],[-80.64585863559462,47.95013222663284],[-80.64560373557546,47.950679726729916],[-80.64541193557216,47.95118522681725],[-80.64530403559505,47.951676926897946],[-80.64521623563634,47.95226712699252],[-80.6452552356996,47.95268892705467],[-80.64537853577906,47.95301262709729],[-80.64544013581967,47.95318152711969],[-80.64550143586683,47.953406727150686],[-80.64552053590505,47.95367382719036],[-80.6455811359637,47.95399732723633],[-80.6457450360785,47.95450392730464],[-80.64592933621175,47.95510892738687],[-80.64602933632543,47.95578402748428],[-80.64608823641207,47.95634652756676],[-80.6460613365088,47.957232127703044],[-80.64601513656898,47.957864627801825],[-80.64596803664398,47.95862362791995],[-80.64606223685807,47.96015622814815],[-80.64602923705851,47.961927428419564],[-80.64606523717285,47.96278512854818],[-80.6461658372767,47.96337582863269],[-80.64626683737401,47.96391032870863],[-80.6463678374713,47.96444492878456],[-80.64632333750352,47.964838428846825],[-80.64615423747593,47.965076828892215],[-80.64592273742095,47.965258928932414],[-80.64541913727562,47.96544012898709],[-80.64462363701325,47.96545172903169],[-80.6438702367599,47.96542122906763],[-80.64322113654778,47.96544732910657],[-80.64232063625731,47.96551482916534],[-80.64173613607694,47.965627129213914],[-80.64161913604532,47.965687029229336],[-80.64126803594975,47.96586152927476],[-80.64118733593153,47.96593302929003],[-80.64103923591091,47.96617152933426],[-80.6409103359252,47.966649129413916],[-80.6407188359153,47.9670982294926],[-80.64059123590651,47.96737892954217],[-80.64050603590341,47.967589529578795],[-80.64050453592978,47.96781452961313],[-80.64058533600692,47.96823652967303],[-80.64072733613129,47.96888362976385],[-80.64103613632439,47.96964372986296],[-80.64119983644254,47.97017842993552],[-80.64148953659745,47.970671429994944],[-80.64182103676617,47.971164430052085],[-80.64200713686826,47.97150243009348],[-80.6421081369656,47.9720369301694],[-80.64216803703584,47.97245893023041],[-80.64227003711667,47.972852830284864],[-80.64226753715782,47.973204330338454],[-80.64230653722115,47.973626130400575],[-80.64240843730367,47.97403413045717],[-80.64255213740002,47.97444223051154],[-80.64257043745145,47.974821830568295],[-80.64254703748738,47.97518733062521],[-80.6423136374636,47.975636430706075],[-80.64212193745537,47.976099730786885],[-80.6420138374783,47.97659143086752],[-80.64203013756429,47.97726633096938],[-80.64219283770228,47.977969731067596],[-80.64268833798769,47.97898343119516],[-80.64314413822297,47.979687631277734],[-80.64387063857329,47.98060363137799],[-80.64418603873827,47.98110933143794],[-80.64460963898966,47.98203753155632],[-80.64471693906586,47.98237763160229],[-80.6451897393757,47.98365833177163],[-80.64584833979598,47.98534733199307],[-80.6461539400453,47.98658533216491],[-80.6464898402737,47.98756393229566],[-80.64675754044156,47.988225432381824],[-80.64706764061508,47.98881683245507],[-80.64740574078871,47.989331232515056],[-80.64867924143503,47.9912048327314],[-80.64953084184218,47.99224773284411],[-80.65084084244353,47.99364343298575],[-80.65140264269563,47.994193433039065],[-80.65160254279093,47.9944361330652],[-80.6517973428838,47.9946726330907],[-80.65287794339392,47.995941033225314],[-80.65362634374156,47.996772733311424],[-80.65427164402816,47.9973791333688],[-80.65504254435643,47.997985933419535],[-80.65566844460794,47.99835333344161],[-80.6564828449237,47.99873533345579],[-80.65775714540736,47.99924523346461],[-80.65878124578772,47.9995857334612],[-80.65957604607176,47.99975673344431],[-80.66026624632107,47.99992743343305],[-80.66080934652832,48.000154033438236],[-80.6611218466623,48.00040793345995],[-80.66145394682813,48.0008728335127],[-80.66155584691411,48.0013089335735],[-80.66153004699474,48.002053933688124],[-80.66150584704558,48.002545933764225],[-80.66154454711734,48.003038033836965],[-80.66170884723249,48.0035446339051],[-80.66218604747509,48.00424893398641],[-80.66282964779481,48.00513653408662],[-80.66302454789343,48.00542033411921],[-80.6637893482877,48.00659453425646],[-80.66424714849694,48.007073934304586],[-80.66494964880205,48.007676234358236]]]},"properties":{"OGF_ID":200226973,"TRAPLINE_AREA_NUMBER":"KL032","LOCATION_ACCURACY":"Within 500 metres","LOCATION_DESCR":null,"VERIFICATION_STATUS_FLG":"Verified","VERIFICATION_STATUS_DATE":872294400000,"BUSINESS_EFF_DATE_FLG":"Estimated","BUSINESS_EFFECTIVE_DATE":872294400000,"SYSTEM_CALCULATED_AREA":144503309.766,"SYSTEM_CALCULATED_LENGTH":60480.152,"GEOMETRY_UPDATE_DATETIME":1369827158000,"EFFECTIVE_DATETIME":1369818278000,"OBJECTID":25009}},{"type":"Feature","id":31665,"geometry":{"type":"Polygon","coordinates":[[[-80.81251672518168,48.23422626063386],[-80.77696571336025,48.23415826255958],[-80.77682271350082,48.23570106279984],[-80.77661181368221,48.23776316312196],[-80.77650251390732,48.23990646345079],[-80.77649091413956,48.241841863742934],[-80.77651861440312,48.243926864055474],[-80.77665521470473,48.24602676436431],[-80.77683591497755,48.24777026461703],[-80.7769072153116,48.25031316499605],[-80.7771765156167,48.252079265247325],[-80.77753401595913,48.253910865503634],[-80.7780278163491,48.25576066575524],[-80.77843591667163,48.25729086596337],[-80.77915881709397,48.2587812661484],[-80.78001241753971,48.26010766630154],[-80.7809002179974,48.26143866645355],[-80.78164641838966,48.262618666590534],[-80.78262561892737,48.26435576679864],[-80.78363641942899,48.26571056694749],[-80.78490982006304,48.26743476713755],[-80.78580972054671,48.26894446731573],[-80.78668442100074,48.27027986746898],[-80.78736862138017,48.27152276761872],[-80.78795372177093,48.27312746782824],[-80.78843022212419,48.27472086804204],[-80.78888312250933,48.276639068305904],[-80.78907812263557,48.277141068370774],[-80.81272523048946,48.27707846707213],[-80.86503394789946,48.277277664246455],[-80.94411937418016,48.27733775992832],[-80.94381176646016,48.21526505060981],[-80.94372336337716,48.190315446856744],[-80.86525663734216,48.19035055114688],[-80.81245671983966,48.19057355405731],[-80.81242302282004,48.2151258577612],[-80.81251672518168,48.23422626063386]]]},"properties":{"OGF_ID":950322132,"TRAPLINE_AREA_NUMBER":"TI025","LOCATION_ACCURACY":"Within 100 metres","LOCATION_DESCR":null,"VERIFICATION_STATUS_FLG":"Verified","VERIFICATION_STATUS_DATE":908755200000,"BUSINESS_EFF_DATE_FLG":"Estimated","BUSINESS_EFFECTIVE_DATE":908809579000,"SYSTEM_CALCULATED_AREA":105616172.199,"SYSTEM_CALCULATED_LENGTH":43360.064,"GEOMETRY_UPDATE_DATETIME":1369827337000,"EFFECTIVE_DATETIME":1369818395000,"OBJECTID":31665}},{"type":"Feature","id":32033,"geometry":{"type":"Polygon","coordinates":[[[-80.8914143354662,48.10363493662822],[-80.90228903906636,48.103594336029566],[-80.90267433919391,48.10359293600834],[-80.90832984106606,48.10357183569694],[-80.90833054106628,48.103571835696904],[-80.91060064181896,48.103573635573454],[-80.91930494470714,48.10359803510256],[-80.94344355270036,48.10354043377712],[-80.95664405707488,48.10354113305667],[-80.95773895710538,48.100810332584224],[-80.9577441568293,48.098527332238945],[-80.95740715649528,48.096699631981025],[-80.95741175624688,48.09464493167024],[-80.95707505591304,48.092817331412334],[-80.95707845571985,48.091219231170605],[-80.95640035530053,48.089618530965566],[-80.95606075513247,48.08916183091509],[-80.95538085479605,48.088247230813934],[-80.9540204542062,48.08710293071513],[-80.95299855383969,48.08687313073616],[-80.95163655330488,48.08618543070646],[-80.95061505293847,48.085955530727475],[-80.94823095206486,48.08526623075329],[-80.94652835141699,48.08457713074197],[-80.94516575093758,48.084347130781545],[-80.94448515065642,48.083889030749404],[-80.94380535034782,48.08320273068269],[-80.94346615015208,48.082516530597395],[-80.94346895001435,48.08137503042458],[-80.94415405007508,48.080006630180264],[-80.94586235041945,48.07818212981113],[-80.94791195084925,48.07613062938903],[-80.95064175156006,48.074537128999054],[-80.95405265249651,48.07294492857213],[-80.9557590529235,48.07180632830681],[-80.95746525335035,48.07066762804145],[-80.95951325383498,48.06907252768842],[-80.96121945423408,48.06770552738851],[-80.96190325432195,48.06656422717854],[-80.96224635429712,48.0654240269873],[-80.96292925444011,48.06473932684642],[-80.96327165447052,48.064055626724276],[-80.96361285452807,48.063599126636596],[-80.96429515469876,48.063143826530485],[-80.96450895473491,48.06285822647563],[-80.96361535439029,48.06245762646378],[-80.96157415357519,48.061312026401744],[-80.95987385284546,48.05993942628676],[-80.95783425192013,48.05788062608643],[-80.95681585141628,48.056508125934265],[-80.95410074999019,48.05216482542492],[-80.95274374926358,48.04987902515283],[-80.95138754850956,48.04736482484611],[-80.95003314764543,48.0439363244008],[-80.94834514633891,48.03776802355863],[-80.94801974548425,48.031602622642446],[-80.94735834429721,48.023608221467235],[-80.94601044318735,48.01812492070963],[-80.94499794240986,48.01446932021066],[-80.94296314140438,48.01172531990548],[-80.94160924059688,48.00875441952881],[-80.93889633925653,48.00509571912173],[-80.93720183839173,48.00258121883268],[-80.93584473774901,48.00098001866368],[-80.93346713676824,47.999376018549796],[-80.93108743589727,47.998686418574714],[-80.92836663494096,47.998224718652736],[-80.92598583412472,47.99799161874691],[-80.92326533316843,47.99752981882489],[-80.92054633215736,47.99661021883323],[-80.91748693103362,47.99569041886015],[-80.91374872963,47.99431331885449],[-80.91069132845179,47.99293661881187],[-80.90729212721534,47.992015118856855],[-80.90355382583915,47.990864918885485],[-80.89947542435026,47.98971421893255],[-80.89505602277598,47.988791419032644],[-80.8909768213419,47.98809711914895],[-80.8882552204401,47.98809001929572],[-80.88485441928577,47.987853819444574],[-80.88111351801876,47.98761721961187],[-80.8773742166971,47.98692281970952],[-80.87284991512348,47.98629371985968],[-80.87261021517347,47.98736752003575],[-80.87226411525138,47.98896522029707],[-80.87191661535633,47.99079132059317],[-80.87190411573755,47.993988721079155],[-80.87223661609545,47.99604492137322],[-80.87324661676045,47.99878692173444],[-80.8742611172895,48.00038842192239],[-80.87561241804028,48.00290342223062],[-80.87764471901684,48.00542032250209],[-80.88103662049926,48.00839752276949],[-80.88374892172902,48.01114442303874],[-80.88510002250759,48.01388772338142],[-80.8871313235393,48.01686102372192],[-80.88881942456773,48.02074722421941],[-80.88915232492639,48.02280342451309],[-80.89016232564732,48.026001724943065],[-80.89151282648147,48.0292026253548],[-80.89218412703518,48.031944025733864],[-80.8921778272539,48.03377042601098],[-80.89148802732902,48.036281126428996],[-80.89045582734578,48.039247026934575],[-80.88874692700027,48.04107062730387],[-80.88635682642867,48.042891327709725],[-80.88362342582616,48.04539662823798],[-80.88123352522709,48.046990028609336],[-80.87850062459708,48.049266829102905],[-80.8774703245316,48.05154762950444],[-80.8764381245209,48.05428612997542],[-80.87575082448635,48.05588243025453],[-80.87608092492742,48.05862353065175],[-80.8760730251735,48.060678230963326],[-80.8766883258377,48.06448073150565],[-80.8767385258919,48.06479063154984],[-80.87841862719579,48.070959932392455],[-80.87874912763739,48.07370103278938],[-80.87975412852411,48.078270433426304],[-80.87940522868512,48.08055303379072],[-80.8787141287604,48.083063634208244],[-80.87802752869878,48.08443273445274],[-80.8769989285513,48.08602863475019],[-80.87528842817754,48.08762263508447],[-80.87392102786222,48.088760435331075],[-80.87139012716916,48.089964335650905],[-80.87146462719987,48.09001393565437],[-80.87185362735177,48.09020333566184],[-80.87236322755682,48.090500735679136],[-80.87239002756787,48.090518835680406],[-80.87275212771193,48.0907171356907],[-80.8731813278816,48.09094253570142],[-80.87363742805898,48.09115893570934],[-80.87395922818757,48.091339235719104],[-80.87397262819313,48.09134833571974],[-80.87458972843487,48.09165483573256],[-80.8750591286189,48.09188933574245],[-80.87554202881068,48.09215073575571],[-80.8755822288262,48.092168735756275],[-80.87594442896923,48.092358135765224],[-80.87633342912113,48.09254743577266],[-80.8766686292574,48.09275473578577],[-80.87707102942485,48.09303523580627],[-80.87732552953761,48.093269435827864],[-80.87762032966594,48.093521635849946],[-80.87794202980643,48.09380093587467],[-80.87819662992251,48.09406213590034],[-80.87854523006759,48.094305335918136],[-80.87857203007977,48.09433243592079],[-80.87884013019489,48.0945486359389],[-80.87911513032277,48.0948514359697],[-80.87917503035068,48.09491783597648],[-80.87917433038322,48.09518773601736],[-80.87897223035326,48.095493436074634],[-80.87896543035266,48.095506936077015],[-80.87895883035212,48.09552043607943],[-80.87876993032765,48.09583513613732],[-80.87867523033323,48.09613983618857],[-80.87859373035313,48.09652663625152],[-80.87852593036342,48.09679643629596],[-80.87844473036922,48.09706623634119],[-80.8784173303896,48.09730913637942],[-80.87845733041489,48.09740813639224],[-80.87857723050814,48.09784913645239],[-80.8786030305702,48.09829003651766],[-80.8784542305754,48.098739736593814],[-80.87835933058763,48.099099536653355],[-80.87835903060063,48.09920753666972],[-80.87835893061366,48.09931543668603],[-80.87822363061572,48.099702136751915],[-80.87814273060745,48.09985503677944],[-80.87796773056694,48.099998836810684],[-80.87756393047992,48.10038523689115],[-80.87737523044679,48.1006279369381],[-80.87712883038967,48.10083013698212],[-80.87898613106631,48.101331936956846],[-80.87950413123828,48.10133383692892],[-80.8806909316321,48.10133663686472],[-80.88273723228345,48.10111383671964],[-80.88352263253132,48.10101043666122],[-80.88444223282124,48.10088763659253],[-80.88516873306249,48.100890836553496],[-80.88580613327395,48.10089193651891],[-80.88750983386696,48.10112413646125],[-80.88887213437444,48.10158433645665],[-80.89057403502227,48.102273136468085],[-80.89070523508724,48.10245013648771],[-80.89091373519032,48.10272933651854],[-80.89091283521786,48.10295883655336],[-80.8914143354662,48.10363493662822]]]},"properties":{"OGF_ID":200226970,"TRAPLINE_AREA_NUMBER":"KL079","LOCATION_ACCURACY":"Within 500 metres","LOCATION_DESCR":null,"VERIFICATION_STATUS_FLG":"Verified","VERIFICATION_STATUS_DATE":872294400000,"BUSINESS_EFF_DATE_FLG":"Estimated","BUSINESS_EFFECTIVE_DATE":872294400000,"SYSTEM_CALCULATED_AREA":63291712.944,"SYSTEM_CALCULATED_LENGTH":38082.668,"GEOMETRY_UPDATE_DATETIME":1369827206000,"EFFECTIVE_DATETIME":1369818654000,"OBJECTID":32033}},{"type":"Feature","id":39937,"geometry":{"type":"Polygon","coordinates":[[[-80.85157282169172,48.098979938092995],[-80.85274582208105,48.098982938029685],[-80.85444932267414,48.09921573797223],[-80.85615182329454,48.09967673794931],[-80.85637632338732,48.09982813795999],[-80.85751172385645,48.1005920380138],[-80.85807812410624,48.10110293806025],[-80.85853042430547,48.10150943809712],[-80.85898512451206,48.10196943814192],[-80.85920942461387,48.10219553816393],[-80.85954142476022,48.102494938191164],[-80.86022862506309,48.103113038247244],[-80.8604593251773,48.10342383828167],[-80.86056782523089,48.10356923829775],[-80.86056782523097,48.10357003829788],[-80.86056682526223,48.10383043833732],[-80.86060112527365,48.10383043833546],[-80.86216832579348,48.10383213825042],[-80.86547972689193,48.103835638070706],[-80.86747512755046,48.10381013795826],[-80.87600703036613,48.1037011374773],[-80.87591783030193,48.10341593743909],[-80.87593183027165,48.10312803739474],[-80.87593243024125,48.10287613735665],[-80.87593263024134,48.10287593735663],[-80.87593263024131,48.102875737356534],[-80.87608113025668,48.10259693730631],[-80.87621643025025,48.10217423723501],[-80.87633813024698,48.101814537174],[-80.87635163024815,48.10178753716921],[-80.87658093027616,48.10139183709685],[-80.87686373033614,48.10111323703934],[-80.8770792303781,48.100870536990904],[-80.87712883038967,48.10083013698212],[-80.87737523044679,48.1006279369381],[-80.87756393047992,48.10038523689115],[-80.87796773056694,48.099998836810684],[-80.87814273060745,48.09985503677944],[-80.87822363061572,48.099702136751915],[-80.87835893061366,48.09931543668603],[-80.87835903060063,48.09920753666972],[-80.87835933058763,48.099099536653355],[-80.8784542305754,48.098739736593814],[-80.8786030305702,48.09829003651766],[-80.87857723050814,48.09784913645239],[-80.87845733041489,48.09740813639224],[-80.8784173303896,48.09730913637942],[-80.87844473036922,48.09706623634119],[-80.87852593036342,48.09679643629596],[-80.87859373035313,48.09652663625152],[-80.87867523033323,48.09613983618857],[-80.87876993032765,48.09583513613732],[-80.87895883035212,48.09552043607943],[-80.87896543035266,48.095506936077015],[-80.87897223035326,48.095493436074634],[-80.87917433038322,48.09518773601736],[-80.87917503035068,48.09491783597648],[-80.87911513032277,48.0948514359697],[-80.87884013019489,48.0945486359389],[-80.87857203007977,48.09433243592079],[-80.87854523006759,48.094305335918136],[-80.87819662992251,48.09406213590034],[-80.87794202980643,48.09380093587467],[-80.87762032966594,48.093521635849946],[-80.87732552953761,48.093269435827864],[-80.87707102942485,48.09303523580627],[-80.8766686292574,48.09275473578577],[-80.87633342912113,48.09254743577266],[-80.87594442896923,48.092358135765224],[-80.8755822288262,48.092168735756275],[-80.87554202881068,48.09215073575571],[-80.8750591286189,48.09188933574245],[-80.87458972843487,48.09165483573256],[-80.87397262819313,48.09134833571974],[-80.87395922818757,48.091339235719104],[-80.87363742805898,48.09115893570934],[-80.8731813278816,48.09094253570142],[-80.87275212771193,48.0907171356907],[-80.87239002756787,48.090518835680406],[-80.87236322755682,48.090500735679136],[-80.87185362735177,48.09020333566184],[-80.87146462719987,48.09001393565437],[-80.87139012716916,48.089964335650905],[-80.87392102786222,48.088760435331075],[-80.87528842817754,48.08762263508447],[-80.8769989285513,48.08602863475019],[-80.87802752869878,48.08443273445274],[-80.8787141287604,48.083063634208244],[-80.87940522868512,48.08055303379072],[-80.87975412852411,48.078270433426304],[-80.87874912763739,48.07370103278938],[-80.87841862719579,48.070959932392455],[-80.8767385258919,48.06479063154984],[-80.8766883258377,48.06448073150565],[-80.8760730251735,48.060678230963326],[-80.87608092492742,48.05862353065175],[-80.87575082448635,48.05588243025453],[-80.8764381245209,48.05428612997542],[-80.8774703245316,48.05154762950444],[-80.87850062459708,48.049266829102905],[-80.88123352522709,48.046990028609336],[-80.88362342582616,48.04539662823798],[-80.88635682642867,48.042891327709725],[-80.88874692700027,48.04107062730387],[-80.89045582734578,48.039247026934575],[-80.89148802732902,48.036281126428996],[-80.8921778272539,48.03377042601098],[-80.89218412703518,48.031944025733864],[-80.89151282648147,48.0292026253548],[-80.89016232564732,48.026001724943065],[-80.88915232492639,48.02280342451309],[-80.88881942456773,48.02074722421941],[-80.8871313235393,48.01686102372192],[-80.88510002250759,48.01388772338142],[-80.88374892172902,48.01114442303874],[-80.88103662049926,48.00839752276949],[-80.87764471901684,48.00542032250209],[-80.87561241804028,48.00290342223062],[-80.8742611172895,48.00038842192239],[-80.87324661676045,47.99878692173444],[-80.87223661609545,47.99604492137322],[-80.87190411573755,47.993988721079155],[-80.87191661535633,47.99079132059317],[-80.87226411525138,47.98896522029707],[-80.87261021517347,47.98736752003575],[-80.87284991512348,47.98629371985968],[-80.87284981512342,47.98629371985968],[-80.86717221323379,47.986211920155505],[-80.86105121115031,47.98574022041616],[-80.85288880841757,47.985490520821116],[-80.84778870667223,47.985020521026435],[-80.84439000546317,47.98432542110526],[-80.84031360397464,47.9831727211513],[-80.8335192015027,47.98132762123944],[-80.82876319978882,47.98017242132183],[-80.82264769759678,47.97878432144235],[-80.8182296960498,47.97808682157579],[-80.8182295960498,47.97808682157581],[-80.80905299287015,47.976917021895254],[-80.80371369099211,47.9760037220456],[-80.80327399089919,47.97644272213616],[-80.80191009052933,47.977124222313556],[-80.80088709024484,47.97757682243775],[-80.79918308976212,47.978256522633274],[-80.79713898916663,47.978935622847175],[-80.79406948834081,47.98052492325483],[-80.78997558725739,47.982794923821416],[-80.78554488597996,47.984379324302],[-80.78247608512675,47.98574002467483],[-80.77974718438617,47.98710122502937],[-80.77701808364546,47.9884624253839],[-80.77360308278689,47.99073432591385],[-80.76950888167562,47.99277642644564],[-80.76541148061784,47.995273927046725],[-80.76063237936134,47.99799812771911],[-80.75790177861985,47.99935882807355],[-80.75449117765268,48.00071692846434],[-80.75278737714217,48.00116762862495],[-80.75210507694317,48.001393428696154],[-80.75176337685721,48.0016209287492],[-80.75176077691121,48.002077528818695],[-80.75209687710493,48.002763228904676],[-80.75243547724482,48.00299332892132],[-80.7531132775246,48.00345252895438],[-80.7537910778044,48.003911728987475],[-80.75446737811107,48.004599229055295],[-80.75480197833178,48.005513129175974],[-80.75547527869242,48.00665722931332],[-80.75682847930608,48.008032229448915],[-80.7574988797206,48.009632829655644],[-80.75817128010851,48.01100632982781],[-80.75952168077629,48.01283793003283],[-80.76256248222462,48.016501530424456],[-80.76459228314542,48.01856383062763],[-80.76797708465331,48.02177263093139],[-80.77102438599432,48.02452293118377],[-80.77474648769679,48.0284170315731],[-80.77643018864053,48.03161993196783],[-80.77744138919606,48.03344943219059],[-80.77811038966574,48.03550773246654],[-80.7791123904109,48.03893643293235],[-80.78012339096651,48.040765933155015],[-80.78113619149536,48.04236823334314],[-80.78282829227713,48.04420013352922],[-80.78621719375981,48.0471800337973],[-80.78790999454192,48.04901183398324],[-80.79096269583056,48.05130493416539],[-80.7936723970606,48.054054034435175],[-80.79604899801471,48.055431434515015],[-80.79944329941696,48.05772603467869],[-80.80215860053882,48.059561634809526],[-80.80453220157476,48.06162383499322],[-80.81030230398643,48.06575193530551],[-80.81708660695564,48.07170883583949],[-80.81911740796099,48.07445503614511],[-80.8211493089392,48.07697293641603],[-80.82181870946529,48.079487536760396],[-80.8224901099367,48.08154433703531],[-80.82247491031838,48.08474063752002],[-80.82144231022441,48.08679373788693],[-80.82109591024746,48.08793353807823],[-80.82006441012622,48.089758338410476],[-80.8183448099422,48.092949638986916],[-80.81628940950857,48.09499883940868],[-80.81560410936393,48.09568153954924],[-80.81525960933256,48.0963659396715],[-80.81491680927405,48.09682193975916],[-80.81388820907071,48.097960639987306],[-80.81319870903526,48.09955654026628],[-80.81251000897254,48.1009252405108],[-80.81181540904599,48.10343434092815],[-80.81165120903327,48.10377924098922],[-80.81244760929746,48.10377944094603],[-80.83758831763922,48.10380603958356],[-80.83909441796477,48.102371239284665],[-80.83966721812013,48.10208593921034],[-80.84046131833547,48.10168973910726],[-80.84106011850201,48.101425139034646],[-80.8425106189051,48.10078233885853],[-80.84418391940243,48.10030743869569],[-80.8449004196153,48.10010333862588],[-80.84694752023944,48.09965173844621],[-80.84899502086365,48.099200138266504],[-80.85104152151526,48.09897783812161],[-80.85157282169172,48.098979938092995]]]},"properties":{"OGF_ID":200226967,"TRAPLINE_AREA_NUMBER":"KL033","LOCATION_ACCURACY":"Within 500 metres","LOCATION_DESCR":null,"VERIFICATION_STATUS_FLG":"Verified","VERIFICATION_STATUS_DATE":872294400000,"BUSINESS_EFF_DATE_FLG":"Estimated","BUSINESS_EFFECTIVE_DATE":872294400000,"SYSTEM_CALCULATED_AREA":91382315.524,"SYSTEM_CALCULATED_LENGTH":42808.543,"GEOMETRY_UPDATE_DATETIME":1369827158000,"EFFECTIVE_DATETIME":1369818277000,"OBJECTID":39937}},{"type":"Feature","id":47265,"geometry":{"type":"Polygon","coordinates":[[[-80.76411130378442,48.19058355668837],[-80.77229220650165,48.190582056243485],[-80.80995061900751,48.1905739541938],[-80.80622671738794,48.18742775392185],[-80.80313941608556,48.185149753746146],[-80.79867821416082,48.181505053438904],[-80.7955921128591,48.179227853263065],[-80.79473351247698,48.17843015318942],[-80.79387511209498,48.177632353115634],[-80.79249801141606,48.175809152915335],[-80.78906310985991,48.17238965258593],[-80.7876875092094,48.17079475241994],[-80.78699420878513,48.16919755221649],[-80.78664070844592,48.16737165195999],[-80.78594740802177,48.165774551756535],[-80.78559550771091,48.16417695153439],[-80.78591750748505,48.16143685110308],[-80.78691670740086,48.15801085053135],[-80.78758600740119,48.15618345021892],[-80.78859450748641,48.15412724985354],[-80.78960610762802,48.15252764955691],[-80.79300380856117,48.15092334912988],[-80.79504100909848,48.14977874884626],[-80.79741940974881,48.148632448543786],[-80.79877291003154,48.14726054826297],[-80.80114291054066,48.1449737477886],[-80.80249291076682,48.14314524743895],[-80.80384331099292,48.14131544708906],[-80.80484921104951,48.13903084668913],[-80.80517331088004,48.13674724632642],[-80.80516011065407,48.134920846051074],[-80.80514681042813,48.13309444577578],[-80.80478580997615,48.13035534538133],[-80.80443030960922,48.12830224509032],[-80.80390680922802,48.12659084486],[-80.80338340884684,48.12487934462969],[-80.80284950841987,48.122818144347036],[-80.80251670811552,48.12121834412326],[-80.80184430767083,48.11938964388322],[-80.80151200736675,48.117789843659345],[-80.80152030717589,48.11619174341722],[-80.80186980709829,48.11459424315661],[-80.80256120710658,48.11276904284302],[-80.80427340750934,48.111404342543565],[-80.80598300796649,48.1104963423133],[-80.80735040833757,48.109814842135954],[-80.80871780870875,48.10913444195878],[-80.81008510907981,48.10845294178136],[-80.81111240931031,48.1075425415878],[-80.81145910928727,48.10640274139658],[-80.81146490915081,48.105260141223425],[-80.81146950904176,48.104346941085026],[-80.81165120903327,48.10377924098922],[-80.81181540904599,48.10343434092815],[-80.81251000897254,48.1009252405108],[-80.81319870903526,48.09955654026628],[-80.81388820907071,48.097960639987306],[-80.81491680927405,48.09682193975916],[-80.81525960933256,48.0963659396715],[-80.81560410936393,48.09568153954924],[-80.81628940950857,48.09499883940868],[-80.81594940936812,48.094770039392515],[-80.81526990908722,48.09431123936001],[-80.8142496086931,48.093850739345726],[-80.81220820793249,48.09316023935212],[-80.8105073072849,48.092470339340096],[-80.80778150635211,48.092233039452175],[-80.80369010502122,48.09244873970702],[-80.80198620445546,48.09244363979876],[-80.79789470312443,48.09265914005352],[-80.79243970134067,48.09287104038171],[-80.78800739989624,48.09308454065458],[-80.78221009802624,48.093523541035644],[-80.7774354964956,48.09396434136139],[-80.77163709465243,48.09462994177668],[-80.76447589232882,48.09506204223051],[-80.75663198980587,48.095720542755515],[-80.74912968736854,48.096150843227335],[-80.74742418682946,48.09637324335344],[-80.74503658606376,48.09659284351612],[-80.7429897854113,48.09681434366058],[-80.73957778433277,48.09725874391274],[-80.73719018356695,48.097478244075376],[-80.73173168183568,48.098142644471636],[-80.72797908064385,48.09858594474206],[-80.7242230795059,48.09948574508176],[-80.72046827834065,48.10015594538659],[-80.71841837774201,48.10083354560016],[-80.71329367623157,48.102412246116735],[-80.71055807546009,48.103543546436136],[-80.70782277468865,48.104674746755464],[-80.70576907414379,48.105808747038395],[-80.70439737382551,48.10694454728459],[-80.70268437339372,48.108079347549136],[-80.70029087270835,48.108984047815646],[-80.69892377230892,48.109434847957885],[-80.6978941720768,48.110344248151314],[-80.69652397173154,48.11125274836301],[-80.69480567138064,48.11307234873149],[-80.69307357124576,48.11671934937731],[-80.69238007120802,48.11831454965631],[-80.69236977136995,48.11968424986419],[-80.69269557172643,48.121740950157815],[-80.69302987194797,48.12265625027827],[-80.69337527220301,48.12381885043552],[-80.69366637241781,48.124796950567756],[-80.69469897300878,48.126851050822715],[-80.69539227351459,48.129132451130396],[-80.69677087433088,48.13209955150464],[-80.69780977506204,48.135295051931784],[-80.6991940760183,48.139402452478116],[-80.69990687697273,48.14533785333714],[-80.70061257775941,48.14990345398921],[-80.70235087911007,48.15629355486108],[-80.70374378023595,48.16177185561358],[-80.70445868121993,48.16793555650624],[-80.7044930820057,48.17432675746993],[-80.704513882483,48.17820785805504],[-80.70454868326951,48.18460025901853],[-80.70421958343705,48.186883559381144],[-80.70288228343472,48.190528360004016],[-80.71178338639467,48.19054535952382],[-80.71393628710963,48.19054175940644],[-80.73070149268398,48.1905731585014],[-80.75508270078518,48.19058265717878],[-80.76039760254987,48.19057585688897],[-80.76411130378442,48.19058355668837]]]},"properties":{"OGF_ID":200226958,"TRAPLINE_AREA_NUMBER":"KL027","LOCATION_ACCURACY":"Within 500 metres","LOCATION_DESCR":null,"VERIFICATION_STATUS_FLG":"Verified","VERIFICATION_STATUS_DATE":872294400000,"BUSINESS_EFF_DATE_FLG":"Estimated","BUSINESS_EFFECTIVE_DATE":872294400000,"SYSTEM_CALCULATED_AREA":77376509.27,"SYSTEM_CALCULATED_LENGTH":38505.646,"GEOMETRY_UPDATE_DATETIME":1369827158000,"EFFECTIVE_DATETIME":1369818276000,"OBJECTID":47265}},{"type":"Feature","id":69473,"geometry":{"type":"Polygon","coordinates":[[[-80.65257704325185,47.995587833187834],[-80.6520066429826,47.99491833311676],[-80.6507933426369,47.995391733254124],[-80.65083204265758,47.995457233261995],[-80.65083204266126,47.995488033266675],[-80.65080884266101,47.995550533277424],[-80.65080934267512,47.99566723329518],[-80.65083614269646,47.99577123330952],[-80.65086524271217,47.99582193331569],[-80.65089494273506,47.995930733330596],[-80.65113834285107,47.99622573336232],[-80.65121264289445,47.99638243338219],[-80.65123054290206,47.996396433383296],[-80.65126504291679,47.996423733385605],[-80.65129254293274,47.996480833392795],[-80.65139174297758,47.99658063340267],[-80.65136614298171,47.99668613342004],[-80.65136184298237,47.996703733423],[-80.6513719429906,47.996744433428645],[-80.6514892430481,47.99690003344593],[-80.6515467430741,47.99695783345162],[-80.65157714308691,47.99698083345348],[-80.65162044310522,47.997013633456156],[-80.65168964313938,47.997107633466726],[-80.65175604316964,47.99717613347355],[-80.65182944320037,47.997229833477775],[-80.65188494322014,47.99724093347647],[-80.6519079432283,47.99724553347589],[-80.65192724323512,47.99724933347542],[-80.65199654326547,47.99731073348107],[-80.65202644328015,47.9973504334855],[-80.6520471432892,47.997368733487136],[-80.65214924333077,47.99743323349144],[-80.65223094336618,47.99750263349758],[-80.65236214341701,47.99756393349985],[-80.65246624346206,47.99765203350761],[-80.65267884356008,47.99788203353115],[-80.65276914360048,47.997969333539515],[-80.65277874360613,47.997990033542195],[-80.65280154361966,47.998039633548466],[-80.65279304363024,47.99815143356593],[-80.65280504363659,47.99817153356837],[-80.65283274365143,47.99821853357403],[-80.65288704367202,47.998240233574364],[-80.65289764367604,47.99824443357443],[-80.65293854369156,47.99826083357469],[-80.653009343721,47.99831063357846],[-80.65308464374868,47.99833343357788],[-80.65313464376821,47.99835813357894],[-80.65319814379818,47.998432433586856],[-80.65321774380745,47.998455433589285],[-80.6532403438164,47.99846793358995],[-80.65334694385886,47.99852703359316],[-80.6534204438915,47.998596133599726],[-80.65346274390701,47.998608433599294],[-80.65356754394188,47.99860953359384],[-80.65362424396332,47.998631433594085],[-80.6538069440453,47.99881033361148],[-80.65389224408389,47.998896233619924],[-80.6539677441166,47.998960533625656],[-80.65405494415259,47.99901963362992],[-80.65412984418168,47.99905513363124],[-80.65414064418586,47.999060233631454],[-80.65425944422815,47.999084333628716],[-80.65429964424575,47.99912003363199],[-80.65436604427191,47.999154433633656],[-80.65441994429814,47.99922453364137],[-80.65450574433093,47.999260633642265],[-80.65452464434325,47.99931123364888],[-80.65454834435363,47.99933243365089],[-80.65461754438154,47.99937353365338],[-80.6547414444289,47.9994259336547],[-80.654912444498,47.99952963366118],[-80.65495114451522,47.99956643366473],[-80.65501464454647,47.99965143367424],[-80.65504954456365,47.99969823367948],[-80.65508164457944,47.999741233684226],[-80.65517734461899,47.99980683368908],[-80.6552393446473,47.99987133369554],[-80.65539084470622,47.999943833698396],[-80.6554619447339,47.999977833699745],[-80.65551994475359,47.99998203369722],[-80.65557784477329,47.99998613369476],[-80.65561654479059,48.00002343369832],[-80.6556228447934,48.00002953369891],[-80.65567504481305,48.00004883369904],[-80.65573314483682,48.00008643370162],[-80.6557802448548,48.00010603370204],[-80.65583364487384,48.00011763370096],[-80.65610824497206,48.00017723369522],[-80.6562150450112,48.00020813369416],[-80.65630524504284,48.0002227336915],[-80.6564836451141,48.000323733697215],[-80.65684804524645,48.0004197336922],[-80.65695124527967,48.00041123368531],[-80.65701034529808,48.00040153368068],[-80.657082045319,48.00037783367318],[-80.65709914532403,48.000372133671405],[-80.65717304534185,48.000316633658976],[-80.65726964536788,48.00026633364611],[-80.65734354538611,48.000213733634126],[-80.65738104539307,48.000168133625195],[-80.65751054541713,48.00001043359427],[-80.65758794543791,47.99996953358383],[-80.65765334545789,47.99995533357818],[-80.6577912455049,47.99996573357229],[-80.65793714555687,47.99999573356901],[-80.65795864556534,48.00000683356954],[-80.6579830455749,48.00001933357011],[-80.6581451456435,48.00014333358023],[-80.65823744567905,48.0001845335815],[-80.658320945709,48.00020323357985],[-80.65842234574286,48.000205133574646],[-80.6586398458117,48.000178133558826],[-80.65878974586218,48.000184433551716],[-80.65898264592865,48.00020533354451],[-80.65902544594341,48.000209933542905],[-80.65926974602291,48.0001972335278],[-80.65941834607219,48.00019713351975],[-80.65952544610882,48.00020663351546],[-80.65969474616897,48.000240233511434],[-80.65971484617566,48.00024033351032],[-80.65979164620249,48.00025173350792],[-80.66000274627324,48.00025793349753],[-80.66012094631584,48.00028603349537],[-80.66021714635308,48.000330833497],[-80.66024754636642,48.00035803349953],[-80.66025034636748,48.00035893349949],[-80.66027634637884,48.00038203350163],[-80.66045964645919,48.00054543351654],[-80.66062384652847,48.000669633526584],[-80.66065424654288,48.00070543353041],[-80.66070294657024,48.00079943354206],[-80.66073314659342,48.00090903355707],[-80.66074184659871,48.00092903355966],[-80.66079934663368,48.001062233576796],[-80.66079744665052,48.00120783359903],[-80.66081164666589,48.00129733361188],[-80.66079444668071,48.00146883363889],[-80.66072594667585,48.00161793366523],[-80.66071354667496,48.001644733669984],[-80.66068934667614,48.00172163368299],[-80.66062504666581,48.00181323370039],[-80.6605697466544,48.00187133371221],[-80.66056834665412,48.00187273371245],[-80.66051444664075,48.00191043372111],[-80.66051234664016,48.00191143372136],[-80.6604565466246,48.00193603372813],[-80.66039854660696,48.001949433733294],[-80.66033804658746,48.0019537337372],[-80.66022594654861,48.00193993374113],[-80.6597863463915,48.00184543375048],[-80.65958114632392,48.00184913376214],[-80.65948424628925,48.001828133764164],[-80.6593240462364,48.001830233773084],[-80.65920354619278,48.00180013377499],[-80.65904034613668,48.001783233781254],[-80.65890424609249,48.001791433789855],[-80.65880514605914,48.001787233794516],[-80.65868154602222,48.001821233806375],[-80.65855694598838,48.00188363382259],[-80.65851114597709,48.00191633383004],[-80.6584616459665,48.00196483384006],[-80.65841624595568,48.00200003384787],[-80.65840714595484,48.002018233851125],[-80.65839714595265,48.00202793385312],[-80.65835104594774,48.00211443386876],[-80.65837204596242,48.00217923387748],[-80.65837234596266,48.00218033387762],[-80.65840584598624,48.00228413389162],[-80.6584336460027,48.00234483389934],[-80.6584400460059,48.002354033900374],[-80.65851354604827,48.00250403391922],[-80.65854014606639,48.00258153392953],[-80.65856464607774,48.00260843393233],[-80.65869534613824,48.00275203394712],[-80.65870134614103,48.002758733947836],[-80.65875344616295,48.00279733395087],[-80.65876414616967,48.00282423395435],[-80.65879924619199,48.00291313396601],[-80.65885024621085,48.00292943396571],[-80.65887224621845,48.00293203396493],[-80.65891094623183,48.00293653396351],[-80.65895254624826,48.002958733964654],[-80.65895804625067,48.00296383396512],[-80.65898154626116,48.00298573396722],[-80.65900794627281,48.003010333969506],[-80.6590120462748,48.00301543397008],[-80.65904524629077,48.00305673397457],[-80.6590743463047,48.003092933978515],[-80.65909704631397,48.00310703397943],[-80.65912274632441,48.00312323398051],[-80.65914214633308,48.003142033982286],[-80.65915074633803,48.003159433984514],[-80.6591597463432,48.003177533986765],[-80.65921054636698,48.0032355339928],[-80.6592284463741,48.00324543399335],[-80.65928044639479,48.00327433399495],[-80.65929794640176,48.003284033995506],[-80.65930804640577,48.00328963399576],[-80.65931114640746,48.00329493399645],[-80.65932204641337,48.00331393399872],[-80.6593226464202,48.003369634007164],[-80.65934134642941,48.00339483400996],[-80.65944834647053,48.00344183401133],[-80.65950424649202,48.0034663340121],[-80.65953594650956,48.00352493401928],[-80.65953974651164,48.003531834020094],[-80.65954474651441,48.00354113402128],[-80.65962274654852,48.00361023402752],[-80.65967854657548,48.0036809340353],[-80.65972144659185,48.00369843403562],[-80.65979624662029,48.00372883403622],[-80.65980894662513,48.003734034036356],[-80.65992524667136,48.00379813403981],[-80.65995514669449,48.00390873405503],[-80.65998134670936,48.003960134061394],[-80.66000074671871,48.00398453406408],[-80.66004564673881,48.004028134068236],[-80.66011574677023,48.004096334074866],[-80.66015114678606,48.004130634078166],[-80.66019564680603,48.004173934082374],[-80.66020754681097,48.004182334082955],[-80.66036234687536,48.004291234091205],[-80.66048724692165,48.004331834090614],[-80.66058464696006,48.00438313409315],[-80.66071764700884,48.004422034091895],[-80.66082484705318,48.004495534097266],[-80.66084744706176,48.00450433409742],[-80.66089364707922,48.004522334097615],[-80.66092734709312,48.00454503409929],[-80.66093084709487,48.00455003409986],[-80.66094474710191,48.00457023410219],[-80.66098274712112,48.004625334108496],[-80.66106224715753,48.00470943411698],[-80.6610644471589,48.00471493411772],[-80.66107694716742,48.00475113412252],[-80.66107224717331,48.00481323413226],[-80.66112444719646,48.00486233413691],[-80.6611659472149,48.00490133414056],[-80.66118004722395,48.0049379341454],[-80.66117844723028,48.00499493415411],[-80.66126384726674,48.00506293415987],[-80.66130754729141,48.0051480341704],[-80.66135054731136,48.00519543417532],[-80.66137144732105,48.005218534177715],[-80.66139804733551,48.00526563418342],[-80.66140004733649,48.00526823418372],[-80.66145624736389,48.005341334191804],[-80.6614569473675,48.00536963419607],[-80.66143894736457,48.00539523420094],[-80.66141854736131,48.00542413420639],[-80.66141284736032,48.00543213420794],[-80.66142434736861,48.00546923421296],[-80.66145854738471,48.005508934217154],[-80.66148074739516,48.00553473421987],[-80.66147724739568,48.005548534222136],[-80.66146434739748,48.00559933423055],[-80.66147274740351,48.00562683423433],[-80.66156264743898,48.00567383423662],[-80.66160164746053,48.005745634245415],[-80.66161754746709,48.00575633424615],[-80.66162934747193,48.00576433424678],[-80.66164434747716,48.00576643424624],[-80.66184814754814,48.00579513423964],[-80.66189824756425,48.00579073423625],[-80.66193514757609,48.00578743423377],[-80.66192794757342,48.00578473423376],[-80.66196574758534,48.00577983423094],[-80.66200254759777,48.00578153422927],[-80.66219204766921,48.00585343422994],[-80.66224234768957,48.005884134231906],[-80.66227514770571,48.00592833423685],[-80.66233724774325,48.00606943425497],[-80.66233744774394,48.00607473425574],[-80.66233754774458,48.00607963425646],[-80.66233934775255,48.00614173426582],[-80.66233954775376,48.00615083426722],[-80.66236524777132,48.0062265342773],[-80.66250574783159,48.006340734287114],[-80.66251504783557,48.00634833428777],[-80.662515847836,48.00634973428791],[-80.6625741478689,48.006462534301924],[-80.66268004791323,48.00653953430788],[-80.66273514793826,48.00659613431351],[-80.66278574796408,48.00667143432227],[-80.6627897479665,48.006680534323436],[-80.66281454798148,48.00673703433066],[-80.66284644799568,48.00676713433351],[-80.66287634800895,48.00679543433619],[-80.66289864801888,48.006816634338215],[-80.66293094803667,48.00687583434548],[-80.66296754805391,48.006918034349916],[-80.66299044807002,48.00698923435948],[-80.66299274807166,48.006996634360505],[-80.6630243480887,48.00705133436712],[-80.66304094809762,48.007080034370574],[-80.66304284809996,48.00709393437256],[-80.66304894810744,48.007139534379206],[-80.6631165481385,48.007211934386575],[-80.66314464814924,48.00722383438682],[-80.66319904817004,48.007246734387394],[-80.66322084817804,48.007253034387155],[-80.66327444819768,48.00726863438662],[-80.66332834821739,48.00728433438612],[-80.66342104825385,48.00733173438835],[-80.66349824828238,48.00735643438792],[-80.66357334831201,48.007395834389854],[-80.66372554836933,48.0074529343903],[-80.66377194838898,48.00748843439323],[-80.66380534840965,48.007568334403565],[-80.66391604845917,48.00767533441382],[-80.66395344847398,48.00769533441484],[-80.664000248491,48.0077079344143],[-80.66407124851685,48.00772713441338],[-80.6641402485439,48.00776203441496],[-80.66417024856321,48.007840334425225],[-80.66418994857587,48.00789143443193],[-80.66420614858633,48.0079338344375],[-80.66420694858762,48.00794233443872],[-80.6642138485988,48.00801653444964],[-80.66419374859959,48.00807893446022],[-80.66419034859975,48.00808943446196],[-80.66417404860701,48.00819533447897],[-80.66419264861878,48.00824193448502],[-80.66422004863608,48.00831083449406],[-80.6642279486411,48.00833063449659],[-80.66423804865146,48.008389234504996],[-80.66423364865753,48.0084523345148],[-80.66423574865908,48.00845933451575],[-80.66427384868042,48.008532234524786],[-80.66431234870677,48.00864543453987],[-80.66431624871754,48.00872433455167],[-80.66435714873643,48.00876883455623],[-80.66440864875725,48.00880013455819],[-80.66440974875773,48.00880103455831],[-80.66442274876536,48.008829034561856],[-80.66443234877103,48.008849734564464],[-80.66458854883348,48.008938334569535],[-80.66465664885737,48.008949434567555],[-80.6646888488687,48.00895473456661],[-80.66479794891016,48.00899893456744],[-80.66493494895829,48.00902143456347],[-80.66505434900428,48.00907473456511],[-80.66516764904398,48.009092434561694],[-80.66523214906778,48.009112334561216],[-80.66532354910365,48.0091589345634],[-80.66548824917423,48.00929203457476],[-80.66550044917942,48.00930193457557],[-80.66551554918526,48.00930853457576],[-80.665535849193,48.00931733457598],[-80.6655654492044,48.00933033457638],[-80.66562034922335,48.00933643457437],[-80.66568734924448,48.00932743456934],[-80.66570934925143,48.00932453456774],[-80.66578864927644,48.00931393456186],[-80.66585264929574,48.009297834555994],[-80.66600354933912,48.00924213453936],[-80.66600744934011,48.009239434538756],[-80.66601114934116,48.00923813453836],[-80.6660085493404,48.00923863453857],[-80.66601204934126,48.009236134538014],[-80.66601384934171,48.009234934537695],[-80.6660772493574,48.009190434527504],[-80.66609584936013,48.00916193452218],[-80.66609874935774,48.00913383451775],[-80.66610194935487,48.00910113451264],[-80.66616744937069,48.00905183450162],[-80.66619634937616,48.009017334494786],[-80.66618614936331,48.00893843448334],[-80.66622324936951,48.00888763447363],[-80.66622984936687,48.00884723446715],[-80.66621624935236,48.0087636344552],[-80.66621904935243,48.00875643445391],[-80.66623864935283,48.008705834445166],[-80.66625594935648,48.00868813444153],[-80.66629584936916,48.008683534438674],[-80.66634384938749,48.00870373443921],[-80.66644134943068,48.00879413444766],[-80.66647314944964,48.00886433445659],[-80.66657454950342,48.009032634476746],[-80.6666232495331,48.00914573449126],[-80.66662194953783,48.00918883449792],[-80.66661944954701,48.00927243451074],[-80.66661654955779,48.00937003452572],[-80.66663414957341,48.009451934537225],[-80.66672334961876,48.00958363455243],[-80.6667562496322,48.00960463455383],[-80.66682844966162,48.00965063455693],[-80.66682094966416,48.009692334563674],[-80.66681084966747,48.00974803457269],[-80.6668114496678,48.00974893457277],[-80.66683564968065,48.00978943457764],[-80.66685144968905,48.00981583458081],[-80.66686024969931,48.00987683458958],[-80.66689714972419,48.00998243460366],[-80.66692314974178,48.01005713461358],[-80.66693774975161,48.010099034619145],[-80.66696124976747,48.010166334628124],[-80.6670285497975,48.01023053463425],[-80.66703844980303,48.010249334636605],[-80.66706834981977,48.01030613464359],[-80.66713664985286,48.010393834653236],[-80.66718624987986,48.010481634663904],[-80.66720954989425,48.01053723467109],[-80.66722464990671,48.01059953467977],[-80.66722924991376,48.01064553468651],[-80.6672601499361,48.010746434700124],[-80.66729104995848,48.010847534713875],[-80.6672910499585,48.01084763471386],[-80.66724704995747,48.01096083473342],[-80.6672463499574,48.010962534733764],[-80.66719694994633,48.01100673474312],[-80.66718284994501,48.01103453474812],[-80.66718294995187,48.011091734756825],[-80.66721604997052,48.01115593476479],[-80.66730145000503,48.011207634768],[-80.667303750006,48.01120933476812],[-80.66732695001484,48.01121853476828],[-80.66739765004162,48.01124643476873],[-80.66744615006536,48.011310534775845],[-80.6674492500669,48.01131453477626],[-80.66751115009247,48.01135673477934],[-80.66766475015211,48.0114295347821],[-80.66772115017672,48.01147873478657],[-80.66774355018819,48.01151223479043],[-80.66773965018668,48.01151043479035],[-80.66776515019917,48.01154443479418],[-80.66776525019927,48.01154463479417],[-80.66780675021795,48.01158563479819],[-80.6678128502207,48.01159163479874],[-80.6678402502361,48.011644734805365],[-80.66787445025062,48.011671134807536],[-80.66794625027757,48.011697234807635],[-80.66813395034447,48.0117362348034],[-80.6681431503476,48.011736734802966],[-80.66826585038913,48.01174353479739],[-80.66831015040405,48.01174593479539],[-80.66836165042326,48.011763334795255],[-80.66845035045841,48.011811234797776],[-80.66847625046981,48.01183483479993],[-80.66849965048256,48.011876234804916],[-80.66850435048508,48.01188453480599],[-80.66853755049806,48.01190083480663],[-80.66857635051326,48.0119199348075],[-80.66862225053373,48.01196403481168],[-80.66864815054863,48.012016934818334],[-80.66864855054892,48.01201793481847],[-80.66865595055421,48.01204153482166],[-80.66867455056746,48.01210083482965],[-80.66872725058863,48.0121315348315],[-80.66889195065113,48.01219733483256],[-80.66896465068342,48.012265334838965],[-80.66900915070164,48.01229423484098],[-80.66901215070286,48.01229613484114],[-80.66906795072569,48.01233243484362],[-80.66908855073474,48.01235103484531],[-80.66910945074463,48.012375534847884],[-80.66911995074958,48.01238793484922],[-80.66921495079444,48.01249953486107],[-80.66939495087072,48.012638034872396],[-80.6694315508863,48.01266623487472],[-80.66970945103223,48.01311523492797],[-80.66971145103341,48.01311923492847],[-80.66976075106221,48.01322303494154],[-80.66978685108718,48.01335953496087],[-80.66991555115621,48.013579334987355],[-80.66991905116924,48.01367853500221],[-80.66989565117262,48.013771235017565],[-80.66988505117409,48.01381283502444],[-80.66988515118678,48.013918535040524],[-80.66992235120728,48.01398663504888],[-80.6698798512027,48.014066035063244],[-80.66988895122377,48.01421673508559],[-80.66994675127093,48.01444993511793],[-80.66995105127934,48.01450823512651],[-80.66993085127373,48.01451733512901],[-80.66976295121758,48.014513535137475],[-80.6696908511959,48.01453233514425],[-80.66964875118329,48.01454333514822],[-80.66963655118049,48.01455373515041],[-80.66959725117142,48.01458713515762],[-80.66958775116925,48.014595135159375],[-80.66955845116819,48.01466723517186],[-80.6695094511576,48.01471443518173],[-80.66950415115834,48.01473523518512],[-80.66951685116847,48.014785035192006],[-80.66944255116283,48.014943535220134],[-80.66943655117183,48.015035135234335],[-80.66940955117212,48.01511223524752],[-80.66941685117872,48.01514713525242],[-80.66942385118512,48.01518113525724],[-80.66942015118835,48.015218235263056],[-80.66938605118571,48.01529053527588],[-80.66923905117423,48.0156017353311],[-80.669243651186,48.015687135343796],[-80.66928455120554,48.01573713534919],[-80.6693068512212,48.01580593535845],[-80.66944625128298,48.01593553537065],[-80.66954235131773,48.01595993536914],[-80.6696235513491,48.01599683537036],[-80.66964355135586,48.01599783536943],[-80.66973365138632,48.01600243536529],[-80.66973445138659,48.01600243536523],[-80.66974125138888,48.01600283536492],[-80.66980475141028,48.01600603536202],[-80.66994515145691,48.016006435354484],[-80.67013465151682,48.015981535340494],[-80.67029475157318,48.01600923533603],[-80.67043275161767,48.01599833532691],[-80.6704824516337,48.0159944353237],[-80.67058045166814,48.01601073532086],[-80.6706072516773,48.01601293531972],[-80.6708248517488,48.01600763530719],[-80.67092505177934,48.015984935298334],[-80.67104435181754,48.01597353529016],[-80.6712092518683,48.01594063527625],[-80.67130635189712,48.01591243526675],[-80.67139175192247,48.015887635258366],[-80.67149615195031,48.01583093524412],[-80.67160085198053,48.01579343523281],[-80.67171995201264,48.01573163521696],[-80.67176235202464,48.015714735212114],[-80.67177455202595,48.01569163520792],[-80.67187745204481,48.01556433518306],[-80.67192035205646,48.01554293517751],[-80.6719481520654,48.01554053517562],[-80.6719700520724,48.015538535174144],[-80.6719721520731,48.015538435174],[-80.67224595217375,48.015620535171735],[-80.6724024522345,48.015694235174465],[-80.67253085228964,48.015799035183484],[-80.67268615235334,48.01590053519049],[-80.67296325245911,48.01601643519318],[-80.67307315250602,48.01610373520046],[-80.67320505255611,48.01615683520142],[-80.67325195257543,48.016187835203645],[-80.67329485260079,48.01628093521543],[-80.67327495261561,48.016459535243634],[-80.67327475261577,48.0164612352439],[-80.67327255261733,48.01648073524699],[-80.67328215262626,48.01652863525377],[-80.6733349526546,48.01661893526459],[-80.67341015268562,48.01666953526824],[-80.67344225270547,48.01674633527816],[-80.67345485271329,48.01677673528209],[-80.67348395272758,48.01681553528646],[-80.67357205276598,48.016891835293286],[-80.67358235277047,48.01690083529408],[-80.67362315278578,48.01691593529422],[-80.67365435279753,48.01692743529424],[-80.67366585280368,48.01694673529657],[-80.67366695280424,48.01694863529678],[-80.67366585280828,48.01698523530237],[-80.67370895282998,48.01704723530949],[-80.67372515284363,48.01711613531913],[-80.67380785288272,48.01721333532937],[-80.67385435291287,48.01733623534555],[-80.67389605293316,48.0173901353515],[-80.67397935297367,48.01749793536335],[-80.67407995301805,48.01758933537183],[-80.67411595303622,48.01764143537782],[-80.67412875304271,48.01765993537996],[-80.67427955310755,48.017783735390594],[-80.67467455327228,48.01806493541202],[-80.674784653317,48.01813353541643],[-80.67485285334836,48.018206435423856],[-80.6749635533924,48.018267835427224],[-80.67500875341734,48.0183504354373],[-80.67516455348458,48.018480435448645],[-80.67522115351214,48.01855393545675],[-80.67531115355014,48.01862193546223],[-80.67536125357603,48.01869903547123],[-80.67539875359228,48.01873063547401],[-80.67543685360877,48.01876293547689],[-80.67552885364599,48.01881883548037],[-80.67555175366317,48.018898535491246],[-80.67555445366517,48.01890803549258],[-80.67565635371459,48.01903833550683],[-80.67568415372614,48.01905773550829],[-80.67579285377134,48.019133935514006],[-80.67580185378287,48.0192055355244],[-80.67588065381604,48.019263835529],[-80.67588595381827,48.019267835529305],[-80.67587305382294,48.01934253554137],[-80.67589315383391,48.01937853554579],[-80.6759253538515,48.019436035552744],[-80.6760644539152,48.01958243556748],[-80.67609175393316,48.01965673557731],[-80.67612945395202,48.019709635583304],[-80.67621105398659,48.01977233558842],[-80.67626485401152,48.01983143559447],[-80.676245554017,48.01993073561059],[-80.67626035402752,48.019977135616884],[-80.67629065404323,48.02002453562242],[-80.67631695405692,48.020065835627285],[-80.67631185405936,48.02010053563286],[-80.67630595406207,48.02013953563905],[-80.67630525406238,48.02014403563982],[-80.67630705406418,48.020154035641205],[-80.676310754068,48.020175735644294],[-80.67636195409264,48.02023943565121],[-80.67639755410978,48.02028393565604],[-80.67643055412569,48.02032503566055],[-80.67646135414049,48.02036333566467],[-80.67648335415569,48.020429335673505],[-80.67654375418608,48.02051573568334],[-80.67654645418743,48.02051963568382],[-80.67657275420066,48.0205572356881],[-80.67657485420735,48.02060693569552],[-80.67654565420395,48.02065973570516],[-80.67654435420377,48.02066193570555],[-80.67652815420892,48.02074963571974],[-80.6765391542202,48.020812935728785],[-80.67659165424541,48.020878235735815],[-80.67665045427373,48.02095143574379],[-80.67675175431721,48.02103403575087],[-80.67681345434798,48.02111983576058],[-80.67686615436985,48.02115623576326],[-80.67694515439983,48.021188135763815],[-80.67706135445644,48.02133893578047],[-80.67707265446292,48.02136133578322],[-80.67712545449297,48.021465935796314],[-80.67724605455342,48.021636435815665],[-80.67736715460664,48.02174533582566],[-80.67742755463202,48.021789935829204],[-80.6776050547066,48.02192093583952],[-80.67765865473486,48.02200823584991],[-80.67768415474704,48.02203943585324],[-80.67773845477302,48.022105835860366],[-80.67787605482837,48.02218673586523],[-80.67795375485612,48.022203535863625],[-80.67801055488107,48.02225413586824],[-80.6781337549273,48.022299335868446],[-80.67818965494735,48.022311735867305],[-80.67820305495214,48.02231463586704],[-80.67826215497335,48.02232773586586],[-80.67827765497866,48.02232943586526],[-80.67842575502968,48.02234523585963],[-80.67856375507614,48.022350735853045],[-80.67864465510605,48.02237693585265],[-80.67866515511366,48.022383535852555],[-80.67867505511862,48.02239743585412],[-80.67870985513609,48.022446635859694],[-80.67882155518697,48.022562035871225],[-80.67883885519484,48.02257993587298],[-80.67891295522857,48.022656335880605],[-80.67892865523574,48.02267263588221],[-80.67898565526325,48.022744035890014],[-80.67901155527571,48.0227765358935],[-80.67906775529806,48.022807535895225],[-80.67909345530734,48.02281383589479],[-80.67917905533828,48.02283473589332],[-80.67924315536439,48.02287543589605],[-80.67931755539786,48.022948635903184],[-80.67944905544974,48.02301743590653],[-80.67950315547108,48.02304583590788],[-80.67969015555255,48.02320793592242],[-80.67975465558224,48.023277135929426],[-80.67984605561796,48.02332243593139],[-80.67986145562706,48.02335573593561],[-80.67987295564102,48.0234400359478],[-80.67993705566873,48.02349413595257],[-80.67996645568802,48.023573435963],[-80.6800111557085,48.02362063596779],[-80.68005595572903,48.02366793597252],[-80.68005805573635,48.02372293598078],[-80.68005935574116,48.02375933598624],[-80.6800636557431,48.02376373598664],[-80.68014915578209,48.023852735995554],[-80.68026415582572,48.023898435996315],[-80.68056745593472,48.02396813599049],[-80.68063675596098,48.023995435990926],[-80.68067525597552,48.024010535991124],[-80.6807698560114,48.024047835991695],[-80.68078355601716,48.0240579359925],[-80.6808293560364,48.02409153599511],[-80.68086435605629,48.024161036003775],[-80.68093965608558,48.02419703600521],[-80.68094775608874,48.02420093600534],[-80.68101805612156,48.02428013601358],[-80.6810709561494,48.02436583602373],[-80.68106845615064,48.02438293602644],[-80.68105275615825,48.02448993604356],[-80.68107685617487,48.02456163605313],[-80.68107715617509,48.02456263605326],[-80.68109635618832,48.024619836060914],[-80.68107405618925,48.02468923607269],[-80.68107375619057,48.02470133607452],[-80.6811027562142,48.024818136090715],[-80.68109155621951,48.0248931361027],[-80.68110225623062,48.024956336111714],[-80.68108395623172,48.025015836121746],[-80.68108805625253,48.02517833614619],[-80.68107845625967,48.02526433615978],[-80.6810685562672,48.02535403617392],[-80.68098085625029,48.025456136194165],[-80.68098045625025,48.02545663619426],[-80.68098055625033,48.02545683619425],[-80.68099355626072,48.02550773620131],[-80.68099505626192,48.02551363620214],[-80.68099495626403,48.02553123620481],[-80.68097735626148,48.02555893620994],[-80.68097175626066,48.02556773621162],[-80.68093675625572,48.02562303622189],[-80.680925856264,48.02572223623753],[-80.68095305628076,48.025786836245885],[-80.68095685629113,48.02586273625722],[-80.68097135630012,48.02589743626167],[-80.68098725630739,48.02591413626334],[-80.68101775632138,48.0259461362666],[-80.68114465637946,48.02607943627999],[-80.68126925643944,48.02623493629683],[-80.68131435646293,48.026306336305254],[-80.68143735651597,48.02640803631408],[-80.68149055654008,48.026462236319404],[-80.6814940565416,48.02646533631972],[-80.68155235656717,48.026516936324384],[-80.68180685667654,48.026725236342294],[-80.68184745669637,48.02677803634811],[-80.68187275671308,48.02684763635733],[-80.68190975673015,48.02688743636134],[-80.68196585675301,48.026923036363755],[-80.68212355681393,48.026994836366136],[-80.68222655685433,48.02704663636844],[-80.68229645688355,48.027097136372326],[-80.68233205689711,48.02711143637255],[-80.68235035690284,48.027108836371205],[-80.68235095690304,48.02710873637116],[-80.68236815690845,48.02710633636987],[-80.68237805691105,48.02710033636838],[-80.68239515691543,48.027089836365896],[-80.68242005692005,48.02705933635988],[-80.68242105691778,48.027037536356566],[-80.68242135691699,48.027030536355454],[-80.68234855688026,48.02692563634345],[-80.68226845683985,48.02681033633027],[-80.68220325680188,48.02667393631308],[-80.68218335677557,48.02650963628923],[-80.68219065677009,48.02644383627884],[-80.68225465678185,48.02636473626337],[-80.68225555678198,48.02636363626313],[-80.68230355679474,48.026337336256546],[-80.68235995681151,48.026321136251035],[-80.6824171568301,48.0263178362475],[-80.68254125687284,48.02633103624275],[-80.6826623569178,48.02637093624226],[-80.68269155693072,48.02639763624477],[-80.68272025694337,48.0264240362472],[-80.68275865696266,48.026478636253415],[-80.68278675697681,48.026518836258006],[-80.68287485701204,48.026568736260856],[-80.68295905704665,48.02662433626475],[-80.68380485743107,48.02749033635062],[-80.68386175745604,48.02754103635521],[-80.6839909575098,48.02763203636204],[-80.68404405754471,48.02777603638103],[-80.6841557575982,48.027913136395824],[-80.68415315760643,48.02798913640754],[-80.68417165761866,48.02803973641418],[-80.68420405763668,48.028100236421636],[-80.68431825769312,48.02825503643898],[-80.6843455577066,48.0282920364431],[-80.68440675774316,48.02842743646038],[-80.68445445776412,48.028470236464315],[-80.68451845779224,48.02852773646956],[-80.6846037578271,48.02858233647326],[-80.68463765784097,48.0286040364747],[-80.68470795787282,48.02867513648173],[-80.68479885791398,48.028767036490784],[-80.68490135795848,48.02885443649852],[-80.68499975801122,48.029022236518664],[-80.68503905803583,48.02911853653115],[-80.68504845804105,48.0291358365333],[-80.6851027580711,48.0292363365456],[-80.6851678581,48.02929753655139],[-80.68522305812999,48.02939463656315],[-80.68522755813241,48.02940243656407],[-80.68527655815532,48.02945803656987],[-80.68533465818,48.029502536573496],[-80.68533485818398,48.029535336578455],[-80.68529465817988,48.02961233659234],[-80.68523445816989,48.029695436608186],[-80.68520765816544,48.02973253661525],[-80.68516025815754,48.02979783662776],[-80.68515615816368,48.02986003663742],[-80.6851725581721,48.02988493664034],[-80.68524335820125,48.029932036643636],[-80.68528385822141,48.029988136649955],[-80.6853021582291,48.030001936651104],[-80.68537015825783,48.03005333665519],[-80.68542445828076,48.030094436658544],[-80.6854387582937,48.03016243666808],[-80.68552295833665,48.03028753668253],[-80.68553075834147,48.03030633668499],[-80.68554105834792,48.030331536688216],[-80.68560785838957,48.03049383670927],[-80.68562005841183,48.03064553673164],[-80.68563085843155,48.03078013675151],[-80.68563185843345,48.03079323675345],[-80.68565865845214,48.03087483676435],[-80.68568505846824,48.03093583677222],[-80.68577795851918,48.03110373679264],[-80.68584315854856,48.031168436799],[-80.68589755858126,48.03129033681453],[-80.68596075860675,48.03132813681685],[-80.68600085862292,48.031352136818356],[-80.68607345865222,48.031395536820995],[-80.68608545865753,48.03140643682201],[-80.68611965867262,48.031437536824896],[-80.6861661586931,48.031479636828806],[-80.68626345873051,48.03152253683003],[-80.68645805880152,48.03157643682773],[-80.68662535885883,48.03159183682101],[-80.6868040589167,48.03158013680958],[-80.68685425893173,48.031566236804764],[-80.6870191589769,48.03148723678388],[-80.68705235898517,48.0314642367786],[-80.68709025899183,48.03141503676906],[-80.6871152589943,48.031366636760396],[-80.68714135899685,48.031315736751246],[-80.68714295899706,48.0313127367507],[-80.68714375899712,48.031311136750396],[-80.6871600589987,48.03127943674468],[-80.68716925899706,48.03124013673824],[-80.68716785898336,48.03113013672161],[-80.68715405897235,48.03107643671419],[-80.68714365896734,48.031063436712806],[-80.68710335894787,48.031012736707254],[-80.68707705893519,48.030979736703706],[-80.68706055892122,48.03090863669377],[-80.68705095891302,48.030866836687984],[-80.68700875888584,48.03075693667355],[-80.68700735887936,48.030707136666045],[-80.68702465888008,48.03066513665874],[-80.68707735889194,48.03061863664883],[-80.68713085890698,48.03059573664247],[-80.6871868589255,48.030595636639426],[-80.68726085895393,48.030628036640366],[-80.68739415900515,48.03068633664204],[-80.68743765902695,48.03074773664901],[-80.68748855904825,48.03078423665176],[-80.68762565910002,48.030837136652394],[-80.68767585911904,48.03085653665263],[-80.68791275921384,48.03099163666038],[-80.68806865927372,48.031059836662266],[-80.6883194593646,48.03112403665849],[-80.6884233594044,48.03116843665964],[-80.68863195949045,48.03130883666965],[-80.68878665955684,48.031434436680364],[-80.68901065964741,48.03156983668885],[-80.68914925970628,48.031677336697705],[-80.68929335976486,48.03176713670352],[-80.68939905980993,48.03185043671048],[-80.68947985984434,48.03191403671574],[-80.68955185987738,48.03199043672347],[-80.6896647599324,48.03213643673956],[-80.6896805599415,48.03216883674357],[-80.68969605997471,48.03240243677821],[-80.68970355999085,48.03251633679513],[-80.68971115999533,48.03253263679715],[-80.68972216000188,48.032556436800185],[-80.6897713600228,48.0325951368034],[-80.68975596002367,48.032644936811806],[-80.68976176003493,48.03272253682325],[-80.6897486600388,48.032790936834395],[-80.68976406004903,48.03283363684001],[-80.68977256005468,48.03285743684319],[-80.68981426007247,48.032890336845895],[-80.68989526010704,48.03295423685126],[-80.68993306012311,48.032984036853726],[-80.68999236014841,48.0330307368576],[-80.69000286015262,48.03303683685797],[-80.69006206017634,48.033070936859936],[-80.69018696022192,48.033105436858456],[-80.6902095602302,48.033111636858145],[-80.6903733602943,48.03319323686168],[-80.69040016030613,48.033217636863974],[-80.69054166036956,48.03335523687718],[-80.69062396040646,48.03343523688489],[-80.69067496043056,48.03349483689118],[-80.69071696045044,48.0335447368965],[-80.69089296053399,48.03375423691878],[-80.69099846057847,48.033833236925105],[-80.69104386060062,48.03389233693159],[-80.69106226061137,48.03393073693643],[-80.691097360632,48.034005636945935],[-80.69111716064302,48.034043036950536],[-80.69114946066111,48.034104136958035],[-80.69115476066959,48.034160136966285],[-80.69115966067754,48.034213036974016],[-80.69119586069735,48.03427803698193],[-80.69120306070133,48.03429103698353],[-80.69121986071372,48.03434793699126],[-80.69120156070765,48.03434783699221],[-80.69096596062944,48.0343472370049],[-80.69070246054194,48.034346537018976],[-80.68814565969285,48.03433843715583],[-80.68813565968955,48.034338437156386],[-80.68268475787984,48.034324637448705],[-80.6827081579567,48.034900437534816],[-80.68269915844962,48.039030638162274],[-80.6826910588952,48.042763238729215],[-80.68258276483466,48.09243694626751],[-80.66093435764263,48.09239324743104],[-80.61269504163101,48.09244775004359],[-80.61363034201797,48.09308295008946],[-80.61430424235193,48.09399955019203],[-80.61498064265935,48.09468775025988],[-80.61530954293353,48.09605985045008],[-80.61529344314772,48.09788615072776],[-80.61561644350239,48.09994315102207],[-80.61559604377031,48.10222715136934],[-80.6152348439249,48.10451015173475],[-80.6155451444402,48.10793675223724],[-80.61615054568617,48.1166187535198],[-80.61645924622877,48.12027375405669],[-80.6163713464266,48.12215895434694],[-80.61631534655264,48.123360354531926],[-80.6163203467322,48.12483705475528],[-80.61632854700989,48.1271200551005],[-80.61633834734305,48.1298585555146],[-80.61634654762086,48.132141555859775],[-80.61737634821064,48.134196356115226],[-80.61738294843295,48.13602275639135],[-80.61807334893757,48.138305856699624],[-80.61842274932891,48.14058885702625],[-80.61843594977378,48.14424165757831],[-80.61912655030602,48.146751857920854],[-80.61947775075325,48.149491558316406],[-80.62220535168726,48.14971985820358],[-80.62698345344027,48.151088358152386],[-80.63107765491092,48.152000158069086],[-80.63483255629635,48.153140158038525],[-80.63722385725636,48.15450965811638],[-80.63995635830204,48.155649558141036],[-80.64337145960235,48.15701875816343],[-80.64610436067574,48.15838685822251],[-80.64849596160822,48.15952665826553],[-80.65054746245544,48.1608959583616],[-80.65328356358519,48.16272055848942],[-80.65499506434708,48.164318158638366],[-80.6580739656461,48.1665990588165],[-80.65978666640845,48.1681966589653],[-80.66183996728402,48.16979405909558],[-80.66494186856724,48.171880259242975],[-80.66485447073131,48.18999536198441],[-80.66483817078034,48.190445162053265],[-80.70288228343472,48.190528360004016],[-80.70421958343705,48.186883559381144],[-80.70454868326951,48.18460025901853],[-80.704513882483,48.17820785805504],[-80.7044930820057,48.17432675746993],[-80.70445868121993,48.16793555650624],[-80.70374378023595,48.16177185561358],[-80.70235087911007,48.15629355486108],[-80.70061257775941,48.14990345398921],[-80.69990687697273,48.14533785333714],[-80.6991940760183,48.139402452478116],[-80.69780977506204,48.135295051931784],[-80.69677087433088,48.13209955150464],[-80.69539227351459,48.129132451130396],[-80.69469897300878,48.126851050822715],[-80.69366637241781,48.124796950567756],[-80.69337527220301,48.12381885043552],[-80.69302987194797,48.12265625027827],[-80.69269557172643,48.121740950157815],[-80.69236977136995,48.11968424986419],[-80.69238007120802,48.11831454965631],[-80.69307357124576,48.11671934937731],[-80.69480567138064,48.11307234873149],[-80.69652397173154,48.11125274836301],[-80.6978941720768,48.110344248151314],[-80.69892377230892,48.109434847957885],[-80.70029087270835,48.108984047815646],[-80.70268437339372,48.108079347549136],[-80.70439737382551,48.10694454728459],[-80.70576907414379,48.105808747038395],[-80.70782277468865,48.104674746755464],[-80.71055807546009,48.103543546436136],[-80.71329367623157,48.102412246116735],[-80.71841837774201,48.10083354560016],[-80.72046827834065,48.10015594538659],[-80.7242230795059,48.09948574508176],[-80.72797908064385,48.09858594474206],[-80.73173168183568,48.098142644471636],[-80.73719018356695,48.097478244075376],[-80.73957778433277,48.09725874391274],[-80.7429897854113,48.09681434366058],[-80.74503658606376,48.09659284351612],[-80.74742418682946,48.09637324335344],[-80.7480442870155,48.0962096432951],[-80.74846458713978,48.09608404325326],[-80.74884348723673,48.095845843196706],[-80.74894908725317,48.095691443167546],[-80.74909188724278,48.09521334308748],[-80.74906168710206,48.09413134292528],[-80.74898318694022,48.093006542759206],[-80.74877798675662,48.09205024262546],[-80.74848838655863,48.091206142513336],[-80.74807208633553,48.09050224242935],[-80.7476906861535,48.09004294238048],[-80.74644768562267,48.08906204229928],[-80.74441278475378,48.08745714216646],[-80.7401589830029,48.08464344197073],[-80.73796418211536,48.08332314188957],[-80.73689218165401,48.082446941814915],[-80.73603678125971,48.08153124172251],[-80.73540898095841,48.080759741639646],[-80.73480168066862,48.08002784156163],[-80.7340508803159,48.07916854147209],[-80.73369648014393,48.078717941423044],[-80.73361438007599,48.07838034137631],[-80.73376318007966,48.07800114131081],[-80.73407918015239,48.07773474125335],[-80.73424738019973,48.077664841233606],[-80.73477198037055,48.07763794120117],[-80.73506568046638,48.0776246411832],[-80.73527588052772,48.07755484116124],[-80.73533968052686,48.07737214113012],[-80.73536188050711,48.077147341094836],[-80.73549238053486,48.077018341068204],[-80.73563638055589,48.076796541026845],[-80.73570068054335,48.07651544098077],[-80.73574448051546,48.07616414092514],[-80.73574668046368,48.075728340858994],[-80.73562398035004,48.075123540773966],[-80.73531368014366,48.07426534066073],[-80.73504387998626,48.07370244059006],[-80.7348358798748,48.073350540548006],[-80.73458637974112,48.0729282404975],[-80.7343156796055,48.07254804045452],[-80.7341086794707,48.07199934038262],[-80.73404847938801,48.07147904030703],[-80.73415597936271,48.07097314022453],[-80.7344099793911,48.070509840140524],[-80.73472647945384,48.070159140070274],[-80.73529577957169,48.06957003995016],[-80.73554967960516,48.06914883987256],[-80.73565697958323,48.06867113979431],[-80.73567937955676,48.06839013975054],[-80.7355976794771,48.06795413968891],[-80.73545257938997,48.0676305396477],[-80.73509787922816,48.0672642396114],[-80.73486887911149,48.06692623957255],[-80.73470317900731,48.06651823951964],[-80.73449677886089,48.06587103943276],[-80.73420617869324,48.065279939358874],[-80.73408137862812,48.06508283933573],[-80.73343467833209,48.0644065392682],[-80.73274277803326,48.0638311392185],[-80.73224927782796,48.06348583919281],[-80.7317893776397,48.06318953917277],[-80.73094357730561,48.0627450391512],[-80.72798027619895,48.06171853915593],[-80.72682837578097,48.06142053917311],[-80.72599037548416,48.06126393919471],[-80.7250009751341,48.0610828392208],[-80.72332487453195,48.060699639253365],[-80.72074817361555,48.060187339315135],[-80.71909407301042,48.05971943933368],[-80.71808937263629,48.059379639336505],[-80.71716897227988,48.05895563932198],[-80.71622847189828,48.05837693928512],[-80.71530957151191,48.05769983923211],[-80.71466277122441,48.05709373917523],[-80.71391247087548,48.056262439089714],[-80.71327917058557,48.05559903902335],[-80.7125985702853,48.05498013896629],[-80.71174376989491,48.05409233887788],[-80.71070156941529,48.05297913876542],[-80.70999316908538,48.052190138684],[-80.708418768339,48.05032683848653],[-80.70820886824198,48.05009913846334],[-80.70656186750777,48.04853683831534],[-80.70649986747956,48.04847343830909],[-80.70561626707759,48.04756813821952],[-80.70445006652643,48.046201538075245],[-80.70374196619164,48.045370337987414],[-80.70036696463008,48.04169253761178],[-80.69878356390332,48.04001553744282],[-80.69644946284802,48.03767573721383],[-80.69405386175043,48.035153136960396],[-80.69267836113507,48.03382803683352],[-80.69040606013417,48.031769436643756],[-80.6887795594271,48.03037333651969],[-80.68756985890903,48.02940003643725],[-80.68638195838135,48.02828623633226],[-80.68519505783715,48.027031836205886],[-80.68356645707958,48.025220036018716],[-80.683196156916,48.02488013598706],[-80.68110435596006,48.022695035768194],[-80.678822954934,48.02044913555025],[-80.67761505438969,48.01925083543343],[-80.6767475540012,48.018410035352495],[-80.6764935539028,48.01829233534834],[-80.6762396538002,48.0181386353387],[-80.6761330537529,48.018039435329385],[-80.67593255367339,48.01793083532374],[-80.67589925365283,48.01785143531347],[-80.67507515323297,48.01662893517224],[-80.6737646526159,48.015106935011715],[-80.67216275187005,48.01331693482625],[-80.67124665145644,48.01240073473648],[-80.66945405068951,48.01096163461448],[-80.66822435016168,48.00996003452863],[-80.6677244499418,48.00950873448703],[-80.66737094977394,48.00908593444186],[-80.66689224955772,48.00860653439483],[-80.66637054934583,48.008281734373625],[-80.66553474902794,48.007941934367054],[-80.66494964880205,48.007676234358236],[-80.66424714849694,48.007073934304586],[-80.6637893482877,48.00659453425646],[-80.66302454789343,48.00542033411921],[-80.66282964779481,48.00513653408662],[-80.66218604747509,48.00424893398641],[-80.66170884723249,48.0035446339051],[-80.66154454711734,48.003038033836965],[-80.66150584704558,48.002545933764225],[-80.66153004699474,48.002053933688124],[-80.66155584691411,48.0013089335735],[-80.66145394682813,48.0008728335127],[-80.6611218466623,48.00040793345995],[-80.66080934652832,48.000154033438236],[-80.66026624632107,47.99992743343305],[-80.65957604607176,47.99975673344431],[-80.65878124578772,47.9995857334612],[-80.65775714540736,47.99924523346461],[-80.6564828449237,47.99873533345579],[-80.65566844460794,47.99835333344161],[-80.65504254435643,47.997985933419535],[-80.65427164402816,47.9973791333688],[-80.65362634374156,47.996772733311424],[-80.65287794339392,47.995941033225314],[-80.65257704325185,47.995587833187834]]]},"properties":{"OGF_ID":319690969,"TRAPLINE_AREA_NUMBER":"KL028","LOCATION_ACCURACY":"Within 500 metres","LOCATION_DESCR":null,"VERIFICATION_STATUS_FLG":"Verified","VERIFICATION_STATUS_DATE":872294400000,"BUSINESS_EFF_DATE_FLG":"Estimated","BUSINESS_EFFECTIVE_DATE":872294400000,"SYSTEM_CALCULATED_AREA":77877029.88,"SYSTEM_CALCULATED_LENGTH":62435.817,"GEOMETRY_UPDATE_DATETIME":1713798291000,"EFFECTIVE_DATETIME":1713797892000,"OBJECTID":69473}}]}