{"type":"FeatureCollection","name":"CanVec 1:50 000 waterbodies (GeoYukon)","features":[{"type":"Feature","geometry":{"type":"Polygon","coordinates":[[[-134.868296,63.293158],[-134.868046,63.29316],[-134.867826,63.293197],[-134.867625,63.293183],[-134.867512,63.293128],[-134.86751,63.292969],[-134.867604,63.29287],[-134.867928,63.292787],[-134.868043,63.292796],[-134.868727,63.292984],[-134.868876,63.293061],[-134.868915,63.293117],[-134.868825,63.293203],[-134.86862,63.293202],[-134.868296,63.293158]]]},"properties":{"WATERBODY_TYPE":"Lake","OFFICIAL_NAME_LABEL":null,"PERMANENCY":"Permanent"}},{"type":"Feature","geometry":{"type":"Polygon","coordinates":[[[-134.872828,63.293955],[-134.873625,63.294198],[-134.873712,63.294284],[-134.873775,63.294354],[-134.873688,63.294394],[-134.873082,63.294318],[-134.872676,63.294176],[-134.872561,63.294042],[-134.872625,63.293987],[-134.872828,63.293955]]]},"properties":{"WATERBODY_TYPE":"Lake","OFFICIAL_NAME_LABEL":null,"PERMANENCY":"Permanent"}},{"type":"Feature","geometry":{"type":"Polygon","coordinates":[[[-134.874921,63.294529],[-134.875522,63.294619],[-134.875864,63.294816],[-134.875889,63.294911],[-134.875637,63.294959],[-134.875407,63.294942],[-134.875191,63.294887],[-134.875054,63.294817],[-134.874799,63.29458],[-134.87483,63.294536],[-134.874921,63.294529]]]},"properties":{"WATERBODY_TYPE":"Lake","OFFICIAL_NAME_LABEL":null,"PERMANENCY":"Permanent"}},{"type":"Feature","geometry":{"type":"Polygon","coordinates":[[[-134.698512,63.298277],[-134.698832,63.298287],[-134.699531,63.298596],[-134.699747,63.298732],[-134.699898,63.299048],[-134.69971,63.29912],[-134.699463,63.299109],[-134.699104,63.299043],[-134.698389,63.298738],[-134.6983,63.298334],[-134.698512,63.298277]]]},"properties":{"WATERBODY_TYPE":"Lake","OFFICIAL_NAME_LABEL":null,"PERMANENCY":"Permanent"}},{"type":"Feature","geometry":{"type":"Polygon","coordinates":[[[-134.579851,63.304742],[-134.580045,63.304817],[-134.580115,63.304908],[-134.580154,63.304964],[-134.579997,63.305151],[-134.579799,63.305249],[-134.579679,63.305254],[-134.579607,63.305208],[-134.57958,63.30508],[-134.579851,63.304742]]]},"properties":{"WATERBODY_TYPE":"Lake","OFFICIAL_NAME_LABEL":null,"PERMANENCY":"Permanent"}},{"type":"Feature","geometry":{"type":"Polygon","coordinates":[[[-134.579462,63.305847],[-134.579584,63.305876],[-134.579937,63.306161],[-134.579966,63.306402],[-134.579938,63.306479],[-134.579745,63.306565],[-134.57946,63.306577],[-134.579343,63.306535],[-134.579276,63.306477],[-134.579237,63.305897],[-134.579462,63.305847]]]},"properties":{"WATERBODY_TYPE":"Lake","OFFICIAL_NAME_LABEL":null,"PERMANENCY":"Permanent"}},{"type":"Feature","geometry":{"type":"Polygon","coordinates":[[[-134.572261,63.306793],[-134.572498,63.30683],[-134.572642,63.30692],[-134.572861,63.307248],[-134.572497,63.307639],[-134.572442,63.307668],[-134.572377,63.307644],[-134.57211,63.307286],[-134.572063,63.306891],[-134.572178,63.30682],[-134.572261,63.306793]]]},"properties":{"WATERBODY_TYPE":"Lake","OFFICIAL_NAME_LABEL":null,"PERMANENCY":"Permanent"}},{"type":"Feature","geometry":{"type":"Polygon","coordinates":[[[-134.579754,63.308031],[-134.579976,63.308107],[-134.579939,63.30821],[-134.579748,63.308408],[-134.57945,63.308618],[-134.57929,63.308613],[-134.579057,63.308403],[-134.579159,63.308166],[-134.579319,63.308091],[-134.579754,63.308031]]]},"properties":{"WATERBODY_TYPE":"Lake","OFFICIAL_NAME_LABEL":null,"PERMANENCY":"Permanent"}},{"type":"Feature","geometry":{"type":"Polygon","coordinates":[[[-134.829982,63.310215],[-134.830109,63.310231],[-134.830365,63.310216],[-134.830526,63.310095],[-134.830565,63.310025],[-134.830694,63.309994],[-134.830919,63.310024],[-134.831254,63.310406],[-134.831231,63.310471],[-134.830866,63.31067],[-134.830688,63.310796],[-134.830564,63.310813],[-134.830437,63.310798],[-134.829853,63.310451],[-134.829804,63.310341],[-134.829853,63.310245],[-134.829982,63.310215]]]},"properties":{"WATERBODY_TYPE":"Lake","OFFICIAL_NAME_LABEL":null,"PERMANENCY":"Permanent"}},{"type":"Feature","geometry":{"type":"Polygon","coordinates":[[[-134.824192,63.31203],[-134.824865,63.311754],[-134.824989,63.311736],[-134.825116,63.311752],[-134.825277,63.311836],[-134.825293,63.311957],[-134.82518,63.312028],[-134.825001,63.312075],[-134.82489,63.312054],[-134.82469,63.312119],[-134.824347,63.312173],[-134.824122,63.312144],[-134.824192,63.31203]]]},"properties":{"WATERBODY_TYPE":"Lake","OFFICIAL_NAME_LABEL":null,"PERMANENCY":"Permanent"}},{"type":"Feature","geometry":{"type":"Polygon","coordinates":[[[-134.836455,63.320648],[-134.836998,63.320654],[-134.837238,63.320724],[-134.837395,63.320822],[-134.837399,63.32114],[-134.837151,63.321381],[-134.836885,63.321468],[-134.836612,63.321488],[-134.836325,63.321467],[-134.835929,63.321379],[-134.835842,63.321293],[-134.836086,63.320814],[-134.836255,63.320713],[-134.836455,63.320648]]]},"properties":{"WATERBODY_TYPE":"Lake","OFFICIAL_NAME_LABEL":null,"PERMANENCY":"Permanent"}},{"type":"Feature","geometry":{"type":"Polygon","coordinates":[[[-134.898504,63.32038],[-134.898875,63.320499],[-134.899365,63.320819],[-134.900006,63.321216],[-134.900153,63.321465],[-134.900043,63.321649],[-134.899821,63.321653],[-134.899552,63.321581],[-134.898966,63.321281],[-134.89858,63.320915],[-134.898302,63.320617],[-134.898211,63.320418],[-134.898504,63.32038]]]},"properties":{"WATERBODY_TYPE":"Lake","OFFICIAL_NAME_LABEL":null,"PERMANENCY":"Permanent"}},{"type":"Feature","geometry":{"type":"Polygon","coordinates":[[[-134.860109,63.321849],[-134.860315,63.32185],[-134.860861,63.322095],[-134.860898,63.322197],[-134.860839,63.322239],[-134.86072,63.322244],[-134.859668,63.322175],[-134.859551,63.322133],[-134.859516,63.322065],[-134.859556,63.321995],[-134.859727,63.321927],[-134.860109,63.321849]]]},"properties":{"WATERBODY_TYPE":"Lake","OFFICIAL_NAME_LABEL":null,"PERMANENCY":"Permanent"}},{"type":"Feature","geometry":{"type":"Polygon","coordinates":[[[-134.860654,63.324207],[-134.860815,63.324212],[-134.861152,63.324342],[-134.861144,63.324448],[-134.860868,63.324561],[-134.860707,63.324556],[-134.860515,63.324515],[-134.860385,63.324466],[-134.860429,63.324304],[-134.860654,63.324207]]]},"properties":{"WATERBODY_TYPE":"Lake","OFFICIAL_NAME_LABEL":null,"PERMANENCY":"Permanent"}},{"type":"Feature","geometry":{"type":"Polygon","coordinates":[[[-134.860562,63.326785],[-134.860716,63.326849],[-134.860714,63.326895],[-134.860466,63.327262],[-134.860216,63.327343],[-134.860019,63.327316],[-134.859826,63.327196],[-134.859812,63.327029],[-134.860443,63.326789],[-134.860562,63.326785]]]},"properties":{"WATERBODY_TYPE":"Lake","OFFICIAL_NAME_LABEL":null,"PERMANENCY":"Permanent"}},{"type":"Feature","geometry":{"type":"Polygon","coordinates":[[[-134.818963,63.32798],[-134.819193,63.327996],[-134.819421,63.328059],[-134.819512,63.328258],[-134.819239,63.328404],[-134.819002,63.328447],[-134.818821,63.32846],[-134.818629,63.32842],[-134.818191,63.328242],[-134.818194,63.32815],[-134.818645,63.328003],[-134.818963,63.32798]]]},"properties":{"WATERBODY_TYPE":"Lake","OFFICIAL_NAME_LABEL":null,"PERMANENCY":"Permanent"}},{"type":"Feature","geometry":{"type":"Polygon","coordinates":[[[-134.859315,63.328299],[-134.859566,63.328423],[-134.859464,63.328833],[-134.859545,63.328978],[-134.859564,63.329131],[-134.859475,63.329218],[-134.859337,63.329274],[-134.859122,63.329298],[-134.85878,63.329181],[-134.858734,63.329105],[-134.858859,63.329041],[-134.858899,63.328971],[-134.858669,63.328749],[-134.858727,63.328627],[-134.858573,63.328563],[-134.858381,63.328523],[-134.858362,63.328369],[-134.858512,63.32832],[-134.859315,63.328299]]]},"properties":{"WATERBODY_TYPE":"Lake","OFFICIAL_NAME_LABEL":null,"PERMANENCY":"Permanent"}},{"type":"Feature","geometry":{"type":"Polygon","coordinates":[[[-134.834931,63.341723],[-134.835334,63.341752],[-134.835436,63.341878],[-134.835375,63.341967],[-134.835129,63.342035],[-134.834717,63.342032],[-134.834624,63.342005],[-134.834556,63.341948],[-134.834661,63.341776],[-134.834931,63.341723]]]},"properties":{"WATERBODY_TYPE":"Lake","OFFICIAL_NAME_LABEL":null,"PERMANENCY":"Permanent"}},{"type":"Feature","geometry":{"type":"Polygon","coordinates":[[[-134.907116,63.342694],[-134.907304,63.342622],[-134.907741,63.342719],[-134.907911,63.342698],[-134.908314,63.342475],[-134.908455,63.342452],[-134.908575,63.342322],[-134.908541,63.342253],[-134.908683,63.342184],[-134.90886,63.342183],[-134.908916,63.342234],[-134.909719,63.342589],[-134.909701,63.342641],[-134.909051,63.342853],[-134.908947,63.342978],[-134.9086,63.343125],[-134.907828,63.343183],[-134.907363,63.343163],[-134.907071,63.343029],[-134.906981,63.342784],[-134.907116,63.342694]]]},"properties":{"WATERBODY_TYPE":"Lake","OFFICIAL_NAME_LABEL":null,"PERMANENCY":"Permanent"}},{"type":"Feature","geometry":{"type":"Polygon","coordinates":[[[-134.832617,63.342543],[-134.832946,63.342574],[-134.833054,63.342641],[-134.833355,63.342954],[-134.833307,63.34313],[-134.833215,63.343183],[-134.833036,63.343229],[-134.83282,63.343174],[-134.832653,63.343103],[-134.832344,63.342689],[-134.832617,63.342543]]]},"properties":{"WATERBODY_TYPE":"Lake","OFFICIAL_NAME_LABEL":null,"PERMANENCY":"Permanent"}},{"type":"Feature","geometry":{"type":"Polygon","coordinates":[[[-134.916703,63.344188],[-134.916591,63.344214],[-134.916321,63.344141],[-134.916322,63.344015],[-134.916381,63.343973],[-134.91675,63.344013],[-134.916937,63.343987],[-134.917108,63.343919],[-134.917434,63.344121],[-134.917398,63.344225],[-134.917276,63.344276],[-134.917111,63.344284],[-134.916916,63.34421],[-134.916703,63.344188]]]},"properties":{"WATERBODY_TYPE":"Lake","OFFICIAL_NAME_LABEL":null,"PERMANENCY":"Permanent"}},{"type":"Feature","geometry":{"type":"Polygon","coordinates":[[[-134.871478,63.344207],[-134.871708,63.344224],[-134.871908,63.344284],[-134.871827,63.344471],[-134.871715,63.344496],[-134.871341,63.344469],[-134.871175,63.344397],[-134.871186,63.344325],[-134.871478,63.344207]]]},"properties":{"WATERBODY_TYPE":"Lake","OFFICIAL_NAME_LABEL":null,"PERMANENCY":"Permanent"}},{"type":"Feature","geometry":{"type":"Polygon","coordinates":[[[-134.867712,63.344347],[-134.867973,63.344399],[-134.86825,63.344618],[-134.868338,63.344783],[-134.868363,63.345335],[-134.868269,63.345434],[-134.868076,63.34552],[-134.867803,63.34554],[-134.867227,63.345419],[-134.866946,63.345213],[-134.866903,63.344919],[-134.867645,63.344369],[-134.867712,63.344347]]]},"properties":{"WATERBODY_TYPE":"Lake","OFFICIAL_NAME_LABEL":null,"PERMANENCY":"Permanent"}},{"type":"Feature","geometry":{"type":"Polygon","coordinates":[[[-134.871702,63.345403],[-134.872217,63.345612],[-134.872132,63.345685],[-134.871977,63.345747],[-134.871596,63.3457],[-134.870831,63.345651],[-134.870766,63.345627],[-134.870918,63.345532],[-134.871118,63.345467],[-134.871702,63.345403]]]},"properties":{"WATERBODY_TYPE":"Lake","OFFICIAL_NAME_LABEL":null,"PERMANENCY":"Permanent"}},{"type":"Feature","geometry":{"type":"Polygon","coordinates":[[[-134.856996,63.368577],[-134.858103,63.368617],[-134.858341,63.36878],[-134.85833,63.368852],[-134.857982,63.368999],[-134.857726,63.369014],[-134.857483,63.36899],[-134.857178,63.368895],[-134.856955,63.368773],[-134.856903,63.36863],[-134.856996,63.368577]]]},"properties":{"WATERBODY_TYPE":"Lake","OFFICIAL_NAME_LABEL":null,"PERMANENCY":"Permanent"}},{"type":"Feature","geometry":{"type":"Polygon","coordinates":[[[-134.861728,63.369381],[-134.861911,63.369242],[-134.862082,63.369174],[-134.862484,63.369124],[-134.86288,63.369132],[-134.86306,63.369165],[-134.863356,63.369286],[-134.86335,63.369345],[-134.863257,63.369398],[-134.863024,63.369474],[-134.862678,63.369449],[-134.862352,63.369452],[-134.862296,63.369528],[-134.862127,63.369628],[-134.861616,63.369611],[-134.861294,63.369522],[-134.861728,63.369381]]]},"properties":{"WATERBODY_TYPE":"Lake","OFFICIAL_NAME_LABEL":null,"PERMANENCY":"Permanent"}},{"type":"Feature","geometry":{"type":"Polygon","coordinates":[[[-134.793074,63.371158],[-134.793412,63.371163],[-134.793724,63.371198],[-134.793854,63.371248],[-134.793872,63.371322],[-134.793726,63.371358],[-134.793335,63.371336],[-134.792951,63.371255],[-134.792928,63.371194],[-134.793074,63.371158]]]},"properties":{"WATERBODY_TYPE":"Lake","OFFICIAL_NAME_LABEL":null,"PERMANENCY":"Permanent"}},{"type":"Feature","geometry":{"type":"Polygon","coordinates":[[[-134.745238,63.373714],[-134.745385,63.373758],[-134.745506,63.373913],[-134.745379,63.374102],[-134.744999,63.374294],[-134.744965,63.374636],[-134.744834,63.374712],[-134.744702,63.374709],[-134.744289,63.374421],[-134.744322,63.374125],[-134.744467,63.37401],[-134.745022,63.373739],[-134.745238,63.373714]]]},"properties":{"WATERBODY_TYPE":"Lake","OFFICIAL_NAME_LABEL":null,"PERMANENCY":"Permanent"}},{"type":"Feature","geometry":{"type":"Polygon","coordinates":[[[-134.768723,63.38027],[-134.76886,63.38034],[-134.768812,63.380515],[-134.768904,63.380588],[-134.7689,63.380681],[-134.768386,63.381041],[-134.768266,63.381251],[-134.768059,63.381375],[-134.767662,63.381493],[-134.766374,63.381624],[-134.766184,63.381617],[-134.766047,63.381548],[-134.766062,63.381383],[-134.766289,63.381287],[-134.766742,63.380889],[-134.76737,63.380663],[-134.768047,63.380546],[-134.768367,63.380397],[-134.768507,63.380295],[-134.768723,63.38027]]]},"properties":{"WATERBODY_TYPE":"Lake","OFFICIAL_NAME_LABEL":null,"PERMANENCY":"Permanent"}},{"type":"Feature","geometry":{"type":"Polygon","coordinates":[[[-134.806783,63.381804],[-134.806729,63.381708],[-134.80695,63.381545],[-134.808435,63.381234],[-134.809543,63.380864],[-134.810315,63.380853],[-134.811049,63.380866],[-134.81129,63.380811],[-134.812701,63.380707],[-134.812802,63.380754],[-134.812885,63.380853],[-134.812527,63.381152],[-134.8125,63.381309],[-134.812585,63.381441],[-134.812409,63.381521],[-134.811981,63.381603],[-134.811834,63.381765],[-134.811622,63.381822],[-134.81108,63.381849],[-134.80811,63.381854],[-134.807409,63.38183],[-134.807012,63.381867],[-134.806783,63.381804]]]},"properties":{"WATERBODY_TYPE":"Lake","OFFICIAL_NAME_LABEL":null,"PERMANENCY":"Permanent"}},{"type":"Feature","geometry":{"type":"Polygon","coordinates":[[[-134.949273,63.381411],[-134.949542,63.381609],[-134.949416,63.382051],[-134.949331,63.382124],[-134.949079,63.382126],[-134.948803,63.381987],[-134.948788,63.381821],[-134.949127,63.381447],[-134.949273,63.381411]]]},"properties":{"WATERBODY_TYPE":"Lake","OFFICIAL_NAME_LABEL":null,"PERMANENCY":"Permanent"}},{"type":"Feature","geometry":{"type":"Polygon","coordinates":[[[-134.948389,63.382157],[-134.948622,63.382206],[-134.948698,63.382285],[-134.948695,63.382377],[-134.948581,63.382574],[-134.94807,63.382558],[-134.947968,63.382511],[-134.947906,63.382394],[-134.948096,63.382275],[-134.948389,63.382157]]]},"properties":{"WATERBODY_TYPE":"Lake","OFFICIAL_NAME_LABEL":null,"PERMANENCY":"Permanent"}},{"type":"Feature","geometry":{"type":"Polygon","coordinates":[[[-134.796005,63.38249],[-134.795015,63.382492],[-134.794623,63.38239],[-134.794627,63.382298],[-134.795183,63.382106],[-134.795707,63.382005],[-134.796258,63.381952],[-134.797382,63.381576],[-134.79754,63.381548],[-134.797718,63.381547],[-134.798364,63.38168],[-134.798559,63.381754],[-134.799009,63.38227],[-134.799018,63.38245],[-134.79877,63.382564],[-134.797949,63.382671],[-134.797797,63.382766],[-134.797019,63.382835],[-134.7968,63.382826],[-134.796545,63.382715],[-134.796409,63.382599],[-134.796005,63.38249]]]},"properties":{"WATERBODY_TYPE":"Lake","OFFICIAL_NAME_LABEL":null,"PERMANENCY":"Permanent"}},{"type":"Feature","geometry":{"type":"Polygon","coordinates":[[[-134.946695,63.383189],[-134.946513,63.383202],[-134.946436,63.38317],[-134.946403,63.383055],[-134.946588,63.382949],[-134.947011,63.38288],[-134.947588,63.382669],[-134.948214,63.38282],[-134.948156,63.382942],[-134.948013,63.383011],[-134.947704,63.383009],[-134.947266,63.383369],[-134.947127,63.383345],[-134.947059,63.383288],[-134.946892,63.383216],[-134.946695,63.383189]]]},"properties":{"WATERBODY_TYPE":"Lake","OFFICIAL_NAME_LABEL":null,"PERMANENCY":"Permanent"}},{"type":"Feature","geometry":{"type":"Polygon","coordinates":[[[-134.95143,63.383705],[-134.951465,63.383647],[-134.951544,63.383633],[-134.951736,63.383673],[-134.951935,63.383654],[-134.952201,63.383488],[-134.952296,63.383468],[-134.952677,63.383561],[-134.952793,63.383523],[-134.953094,63.383551],[-134.953403,63.383679],[-134.953398,63.383818],[-134.953227,63.383885],[-134.95287,63.383807],[-134.95266,63.383819],[-134.952526,63.383862],[-134.952568,63.384077],[-134.952498,63.384191],[-134.951965,63.384114],[-134.951572,63.383887],[-134.95143,63.383705]]]},"properties":{"WATERBODY_TYPE":"Lake","OFFICIAL_NAME_LABEL":null,"PERMANENCY":"Permanent"}},{"type":"Feature","geometry":{"type":"Polygon","coordinates":[[[-134.951228,63.384068],[-134.951485,63.384133],[-134.951652,63.384204],[-134.951573,63.38447],[-134.951595,63.384657],[-134.951474,63.384708],[-134.951371,63.384707],[-134.951187,63.384641],[-134.951034,63.384531],[-134.951053,63.384479],[-134.950972,63.384414],[-134.950552,63.384391],[-134.950492,63.384353],[-134.950581,63.384267],[-134.950983,63.384216],[-134.951161,63.38409],[-134.951228,63.384068]]]},"properties":{"WATERBODY_TYPE":"Lake","OFFICIAL_NAME_LABEL":null,"PERMANENCY":"Permanent"}},{"type":"Feature","geometry":{"type":"Polygon","coordinates":[[[-134.726849,63.385037],[-134.727017,63.385142],[-134.726906,63.385246],[-134.726717,63.385319],[-134.726455,63.385267],[-134.726375,63.385201],[-134.726516,63.385099],[-134.726849,63.385037]]]},"properties":{"WATERBODY_TYPE":"Lake","OFFICIAL_NAME_LABEL":null,"PERMANENCY":"Permanent"}},{"type":"Feature","geometry":{"type":"Polygon","coordinates":[[[-134.727768,63.385356],[-134.728312,63.385077],[-134.728559,63.385088],[-134.728701,63.385145],[-134.72888,63.385304],[-134.728878,63.38535],[-134.72908,63.385444],[-134.729073,63.385504],[-134.72898,63.385556],[-134.728783,63.385529],[-134.728585,63.385548],[-134.728394,63.385666],[-134.728224,63.385687],[-134.72801,63.385585],[-134.727768,63.385356]]]},"properties":{"WATERBODY_TYPE":"Lake","OFFICIAL_NAME_LABEL":null,"PERMANENCY":"Permanent"}},{"type":"Feature","geometry":{"type":"Polygon","coordinates":[[[-134.781365,63.388204],[-134.781589,63.38828],[-134.781594,63.388347],[-134.781396,63.388445],[-134.781395,63.388571],[-134.781312,63.388598],[-134.781086,63.388569],[-134.780941,63.388479],[-134.781016,63.388352],[-134.781132,63.388234],[-134.781216,63.388207],[-134.781365,63.388204]]]},"properties":{"WATERBODY_TYPE":"Lake","OFFICIAL_NAME_LABEL":null,"PERMANENCY":"Permanent"}},{"type":"Feature","geometry":{"type":"Polygon","coordinates":[[[-134.807941,63.388336],[-134.808182,63.388406],[-134.808494,63.388442],[-134.808661,63.388514],[-134.808675,63.388555],[-134.808411,63.388675],[-134.80818,63.388658],[-134.807906,63.388598],[-134.807687,63.38851],[-134.807686,63.38843],[-134.807941,63.388336]]]},"properties":{"WATERBODY_TYPE":"Lake","OFFICIAL_NAME_LABEL":null,"PERMANENCY":"Permanent"}},{"type":"Feature","geometry":{"type":"Polygon","coordinates":[[[-134.808772,63.38882],[-134.80889,63.388862],[-134.80892,63.388943],[-134.808772,63.389025],[-134.8086,63.389013],[-134.808471,63.388918],[-134.808573,63.388839],[-134.808772,63.38882]]]},"properties":{"WATERBODY_TYPE":"Lake","OFFICIAL_NAME_LABEL":null,"PERMANENCY":"Permanent"}},{"type":"Feature","geometry":{"type":"Polygon","coordinates":[[[-134.778743,63.388962],[-134.779256,63.388728],[-134.779483,63.388711],[-134.779725,63.388861],[-134.779896,63.38892],[-134.779882,63.388959],[-134.779767,63.38903],[-134.779657,63.389009],[-134.779532,63.389026],[-134.779445,63.389146],[-134.779427,63.389277],[-134.779486,63.389361],[-134.77947,63.389446],[-134.779356,63.389517],[-134.778927,63.389519],[-134.778833,63.389492],[-134.778753,63.389427],[-134.778743,63.388962]]]},"properties":{"WATERBODY_TYPE":"Lake","OFFICIAL_NAME_LABEL":null,"PERMANENCY":"Permanent"}},{"type":"Feature","geometry":{"type":"Polygon","coordinates":[[[-134.777998,63.389306],[-134.778257,63.389451],[-134.778362,63.389611],[-134.778092,63.389744],[-134.777943,63.389746],[-134.77745,63.389598],[-134.777398,63.389455],[-134.777563,63.389367],[-134.777998,63.389306]]]},"properties":{"WATERBODY_TYPE":"Lake","OFFICIAL_NAME_LABEL":null,"PERMANENCY":"Permanent"}},{"type":"Feature","geometry":{"type":"Polygon","coordinates":[[[-134.776367,63.389857],[-134.776522,63.389796],[-134.776846,63.389839],[-134.777005,63.38989],[-134.777182,63.390016],[-134.777235,63.390112],[-134.777181,63.390142],[-134.777056,63.390159],[-134.776917,63.390136],[-134.776805,63.39024],[-134.776557,63.390355],[-134.776289,63.390362],[-134.776002,63.390295],[-134.77593,63.39025],[-134.776367,63.389857]]]},"properties":{"WATERBODY_TYPE":"Lake","OFFICIAL_NAME_LABEL":null,"PERMANENCY":"Permanent"}},{"type":"Feature","geometry":{"type":"Polygon","coordinates":[[[-134.702543,63.389437],[-134.702761,63.389446],[-134.703076,63.389516],[-134.703283,63.389597],[-134.704001,63.389696],[-134.704283,63.389856],[-134.704339,63.389986],[-134.70435,63.390119],[-134.704123,63.390215],[-134.703012,63.390426],[-134.702801,63.390437],[-134.702542,63.390418],[-134.702152,63.39027],[-134.70199,63.390106],[-134.701998,63.389921],[-134.70238,63.389763],[-134.702433,63.389495],[-134.702543,63.389437]]]},"properties":{"WATERBODY_TYPE":"Lake","OFFICIAL_NAME_LABEL":null,"PERMANENCY":"Permanent"}},{"type":"Feature","geometry":{"type":"Polygon","coordinates":[[[-134.809021,63.390144],[-134.809192,63.390202],[-134.809348,63.390346],[-134.809279,63.390414],[-134.808875,63.390511],[-134.808665,63.390602],[-134.808562,63.390601],[-134.808411,63.390444],[-134.808873,63.390146],[-134.809021,63.390144]]]},"properties":{"WATERBODY_TYPE":"Lake","OFFICIAL_NAME_LABEL":null,"PERMANENCY":"Permanent"}},{"type":"Feature","geometry":{"type":"Polygon","coordinates":[[[-134.794677,63.388491],[-134.794424,63.388619],[-134.794438,63.388785],[-134.794336,63.388864],[-134.793797,63.388925],[-134.792747,63.389094],[-134.792377,63.389259],[-134.791865,63.389574],[-134.791335,63.389529],[-134.790365,63.389227],[-134.790204,63.389222],[-134.789868,63.38925],[-134.789598,63.389304],[-134.789417,63.389397],[-134.78924,63.389603],[-134.788985,63.389776],[-134.788649,63.389931],[-134.788447,63.389916],[-134.78811,63.389786],[-134.787767,63.389589],[-134.787615,63.389558],[-134.786365,63.389666],[-134.785917,63.389515],[-134.785578,63.389225],[-134.785635,63.38915],[-134.785706,63.389115],[-134.786104,63.389078],[-134.786295,63.389038],[-134.786388,63.388985],[-134.786451,63.388851],[-134.786986,63.388472],[-134.788072,63.387835],[-134.789218,63.38695],[-134.789396,63.386618],[-134.789251,63.386323],[-134.789065,63.386223],[-134.788776,63.386123],[-134.788381,63.386114],[-134.788058,63.38623],[-134.787951,63.386322],[-134.787775,63.386402],[-134.787248,63.38647],[-134.786528,63.386418],[-134.786047,63.386482],[-134.785593,63.386595],[-134.783359,63.387547],[-134.783293,63.387648],[-134.783124,63.387749],[-134.78265,63.387754],[-134.782544,63.38772],[-134.782395,63.387517],[-134.782479,63.387284],[-134.782883,63.386571],[-134.783338,63.386333],[-134.784411,63.386019],[-134.784581,63.385998],[-134.785336,63.385788],[-134.785966,63.385515],[-134.786726,63.385087],[-134.78681,63.385059],[-134.786875,63.385084],[-134.787349,63.385079],[-134.788061,63.385236],[-134.789153,63.385362],[-134.789652,63.385577],[-134.791066,63.386328],[-134.793466,63.387092],[-134.793911,63.38721],[-134.794558,63.387343],[-134.796907,63.387506],[-134.798961,63.387548],[-134.799671,63.387421],[-134.800774,63.387394],[-134.800983,63.387429],[-134.802152,63.387713],[-134.803094,63.387887],[-134.803965,63.38789],[-134.80406,63.38787],[-134.804437,63.387851],[-134.805841,63.388138],[-134.806025,63.388158],[-134.806761,63.38833],[-134.807993,63.389016],[-134.80842,63.389391],[-134.808549,63.389566],[-134.808611,63.389763],[-134.808554,63.389964],[-134.808229,63.390252],[-134.807719,63.39052],[-134.806766,63.39124],[-134.806117,63.391485],[-134.805241,63.39162],[-134.803893,63.391589],[-134.802173,63.391359],[-134.802002,63.3913],[-134.800443,63.39128],[-134.799174,63.391109],[-134.798097,63.390899],[-134.797439,63.390633],[-134.797217,63.390511],[-134.797058,63.390254],[-134.796886,63.389499],[-134.796374,63.389197],[-134.795143,63.388923],[-134.795025,63.388881],[-134.79509,63.3887],[-134.79519,63.388668],[-134.79522,63.388544],[-134.795102,63.388502],[-134.794677,63.388491]]]},"properties":{"WATERBODY_TYPE":"Lake","OFFICIAL_NAME_LABEL":null,"PERMANENCY":"Permanent"}},{"type":"Feature","geometry":{"type":"Polygon","coordinates":[[[-134.760831,63.393769],[-134.761096,63.393649],[-134.76127,63.393615],[-134.761477,63.393617],[-134.761676,63.393678],[-134.762176,63.393767],[-134.762407,63.393784],[-134.762756,63.393716],[-134.76299,63.39364],[-134.763213,63.393637],[-134.76341,63.393664],[-134.763666,63.393775],[-134.763916,63.394025],[-134.763991,63.394309],[-134.76385,63.394412],[-134.763661,63.394484],[-134.762744,63.394405],[-134.761691,63.394335],[-134.761203,63.394253],[-134.760874,63.394017],[-134.760831,63.393769]]]},"properties":{"WATERBODY_TYPE":"Lake","OFFICIAL_NAME_LABEL":null,"PERMANENCY":"Permanent"}},{"type":"Feature","geometry":{"type":"Polygon","coordinates":[[[-134.690339,63.409785],[-134.69055,63.409854],[-134.691084,63.409933],[-134.691143,63.410096],[-134.690942,63.410161],[-134.68978,63.410103],[-134.689707,63.410058],[-134.689709,63.409932],[-134.690041,63.40979],[-134.690339,63.409785]]]},"properties":{"WATERBODY_TYPE":"Lake","OFFICIAL_NAME_LABEL":null,"PERMANENCY":"Permanent"}},{"type":"Feature","geometry":{"type":"Polygon","coordinates":[[[-134.746662,63.409967],[-134.74687,63.410048],[-134.747124,63.410491],[-134.746963,63.410691],[-134.746741,63.410649],[-134.746209,63.410239],[-134.746155,63.410062],[-134.746223,63.409995],[-134.746319,63.409975],[-134.746662,63.409967]]]},"properties":{"WATERBODY_TYPE":"Lake","OFFICIAL_NAME_LABEL":null,"PERMANENCY":"Permanent"}},{"type":"Feature","geometry":{"type":"Polygon","coordinates":[[[-134.80454,63.410205],[-134.804798,63.41027],[-134.805049,63.410394],[-134.805086,63.410496],[-134.805045,63.410612],[-134.80493,63.410683],[-134.804125,63.410784],[-134.803939,63.41089],[-134.80365,63.410995],[-134.803307,63.411004],[-134.803148,63.410952],[-134.802891,63.410762],[-134.802953,63.410547],[-134.803106,63.410452],[-134.80393,63.4103],[-134.804111,63.410207],[-134.80454,63.410205]]]},"properties":{"WATERBODY_TYPE":"Lake","OFFICIAL_NAME_LABEL":null,"PERMANENCY":"Permanent"}},{"type":"Feature","geometry":{"type":"Polygon","coordinates":[[[-134.786145,63.410579],[-134.786784,63.410692],[-134.787181,63.410701],[-134.787499,63.410803],[-134.787549,63.410992],[-134.787313,63.411114],[-134.787061,63.411116],[-134.786186,63.411],[-134.785788,63.410832],[-134.78571,63.41072],[-134.785845,63.410631],[-134.786145,63.410579]]]},"properties":{"WATERBODY_TYPE":"Lake","OFFICIAL_NAME_LABEL":null,"PERMANENCY":"Permanent"}},{"type":"Feature","geometry":{"type":"Polygon","coordinates":[[[-134.749662,63.41153],[-134.749888,63.411559],[-134.75009,63.411654],[-134.750182,63.411727],[-134.750171,63.411799],[-134.749956,63.411902],[-134.749632,63.411859],[-134.749358,63.411673],[-134.749482,63.411576],[-134.749662,63.41153]]]},"properties":{"WATERBODY_TYPE":"Lake","OFFICIAL_NAME_LABEL":null,"PERMANENCY":"Permanent"}},{"type":"Feature","geometry":{"type":"Polygon","coordinates":[[[-134.753269,63.41268],[-134.753421,63.41271],[-134.753623,63.412805],[-134.753592,63.412849],[-134.753402,63.412968],[-134.752772,63.413114],[-134.75271,63.412917],[-134.752541,63.412812],[-134.752564,63.412748],[-134.752619,63.412719],[-134.753269,63.41268]]]},"properties":{"WATERBODY_TYPE":"Lake","OFFICIAL_NAME_LABEL":null,"PERMANENCY":"Permanent"}},{"type":"Feature","geometry":{"type":"Polygon","coordinates":[[[-134.754864,63.412848],[-134.75554,63.412904],[-134.755694,63.412968],[-134.755756,63.413165],[-134.755584,63.413232],[-134.755336,63.413221],[-134.754994,63.413103],[-134.754714,63.413102],[-134.754608,63.413068],[-134.754585,63.413007],[-134.754651,63.412906],[-134.754864,63.412848]]]},"properties":{"WATERBODY_TYPE":"Lake","OFFICIAL_NAME_LABEL":null,"PERMANENCY":"Permanent"}},{"type":"Feature","geometry":{"type":"Polygon","coordinates":[[[-134.762823,63.412842],[-134.763525,63.413151],[-134.763469,63.413306],[-134.763203,63.413347],[-134.762012,63.413287],[-134.761507,63.41321],[-134.761583,63.413083],[-134.761781,63.412985],[-134.762468,63.412843],[-134.762823,63.412842]]]},"properties":{"WATERBODY_TYPE":"Lake","OFFICIAL_NAME_LABEL":null,"PERMANENCY":"Permanent"}},{"type":"Feature","geometry":{"type":"Polygon","coordinates":[[[-134.758648,63.412526],[-134.758854,63.412448],[-134.75936,63.412399],[-134.75978,63.412422],[-134.760057,63.412515],[-134.76019,63.412598],[-134.760522,63.412662],[-134.7607,63.412661],[-134.760989,63.412762],[-134.760949,63.412912],[-134.760654,63.413076],[-134.759091,63.413307],[-134.758807,63.413399],[-134.758494,63.413363],[-134.758239,63.413252],[-134.758397,63.412813],[-134.758648,63.412526]]]},"properties":{"WATERBODY_TYPE":"Lake","OFFICIAL_NAME_LABEL":null,"PERMANENCY":"Permanent"}},{"type":"Feature","geometry":{"type":"Polygon","coordinates":[[[-134.777892,63.419208],[-134.778048,63.419226],[-134.778774,63.419139],[-134.779479,63.419197],[-134.779473,63.419336],[-134.779361,63.41944],[-134.779146,63.419544],[-134.778866,63.419623],[-134.778098,63.419621],[-134.77783,63.419502],[-134.77769,63.419399],[-134.777732,63.419283],[-134.777892,63.419208]]]},"properties":{"WATERBODY_TYPE":"Lake","OFFICIAL_NAME_LABEL":null,"PERMANENCY":"Permanent"}},{"type":"Feature","geometry":{"type":"Polygon","coordinates":[[[-134.775045,63.423005],[-134.775013,63.422764],[-134.775068,63.42253],[-134.775359,63.422378],[-134.775455,63.422359],[-134.776253,63.422443],[-134.776388,63.422479],[-134.77663,63.422629],[-134.776744,63.422969],[-134.776617,63.423033],[-134.776291,63.423036],[-134.776123,63.42301],[-134.775928,63.423016],[-134.775373,63.423161],[-134.775178,63.423088],[-134.775045,63.423005]]]},"properties":{"WATERBODY_TYPE":"Lake","OFFICIAL_NAME_LABEL":null,"PERMANENCY":"Permanent"}},{"type":"Feature","geometry":{"type":"Polygon","coordinates":[[[-134.840868,63.422926],[-134.840974,63.42296],[-134.841026,63.423023],[-134.840884,63.423172],[-134.840695,63.423245],[-134.840496,63.423264],[-134.840323,63.423251],[-134.840331,63.423146],[-134.840653,63.42295],[-134.840868,63.422926]]]},"properties":{"WATERBODY_TYPE":"Lake","OFFICIAL_NAME_LABEL":null,"PERMANENCY":"Permanent"}},{"type":"Feature","geometry":{"type":"Polygon","coordinates":[[[-134.831423,63.423281],[-134.831257,63.423289],[-134.830976,63.423288],[-134.830663,63.423173],[-134.830458,63.423125],[-134.830227,63.423109],[-134.829928,63.422954],[-134.830072,63.422634],[-134.83035,63.422601],[-134.83089,63.422745],[-134.831073,63.422812],[-134.831487,63.422894],[-134.83195,63.423213],[-134.831975,63.423307],[-134.831928,63.423357],[-134.831849,63.423371],[-134.83163,63.423362],[-134.831423,63.423281]]]},"properties":{"WATERBODY_TYPE":"Lake","OFFICIAL_NAME_LABEL":null,"PERMANENCY":"Permanent"}},{"type":"Feature","geometry":{"type":"Polygon","coordinates":[[[-134.836447,63.423582],[-134.837276,63.423211],[-134.837528,63.423209],[-134.837926,63.423046],[-134.838058,63.423049],[-134.838672,63.423318],[-134.838681,63.423418],[-134.838396,63.42351],[-134.838247,63.423513],[-134.837275,63.423668],[-134.837142,63.423665],[-134.837057,63.423739],[-134.836794,63.423813],[-134.836633,63.423808],[-134.836452,63.423775],[-134.836447,63.423582]]]},"properties":{"WATERBODY_TYPE":"Lake","OFFICIAL_NAME_LABEL":null,"PERMANENCY":"Permanent"}},{"type":"Feature","geometry":{"type":"Polygon","coordinates":[[[-134.584942,63.423948],[-134.585752,63.42404],[-134.58612,63.424207],[-134.586181,63.424324],[-134.586075,63.424449],[-134.585922,63.424464],[-134.585552,63.424423],[-134.584775,63.424081],[-134.58477,63.424014],[-134.584942,63.423948]]]},"properties":{"WATERBODY_TYPE":"Lake","OFFICIAL_NAME_LABEL":null,"PERMANENCY":"Permanent"}},{"type":"Feature","geometry":{"type":"Polygon","coordinates":[[[-134.849501,63.42505],[-134.849417,63.425077],[-134.84921,63.425076],[-134.849044,63.425004],[-134.849192,63.424465],[-134.849281,63.424425],[-134.849504,63.424421],[-134.849684,63.424454],[-134.850136,63.424638],[-134.850163,63.424687],[-134.850116,63.424736],[-134.850003,63.425093],[-134.849901,63.425172],[-134.84974,63.425167],[-134.849501,63.42505]]]},"properties":{"WATERBODY_TYPE":"Lake","OFFICIAL_NAME_LABEL":null,"PERMANENCY":"Permanent"}},{"type":"Feature","geometry":{"type":"Polygon","coordinates":[[[-134.835136,63.425343],[-134.835656,63.425255],[-134.836043,63.425084],[-134.836535,63.425073],[-134.836801,63.425032],[-134.837984,63.424992],[-134.83821,63.425226],[-134.83814,63.425341],[-134.837853,63.4254],[-134.83742,63.425368],[-134.836926,63.425426],[-134.836439,63.425629],[-134.8361,63.425956],[-134.835885,63.42606],[-134.835497,63.426072],[-134.835176,63.42581],[-134.834753,63.425753],[-134.834299,63.42574],[-134.834021,63.425648],[-134.833897,63.425539],[-134.834,63.425461],[-134.834652,63.425375],[-134.835136,63.425343]]]},"properties":{"WATERBODY_TYPE":"Lake","OFFICIAL_NAME_LABEL":null,"PERMANENCY":"Permanent"}},{"type":"Feature","geometry":{"type":"Polygon","coordinates":[[[-134.638856,63.425696],[-134.640267,63.425925],[-134.64034,63.42597],[-134.640333,63.42603],[-134.640393,63.426067],[-134.640312,63.426127],[-134.63989,63.426229],[-134.639461,63.42631],[-134.638568,63.426404],[-134.638453,63.426396],[-134.638381,63.426351],[-134.638446,63.426011],[-134.638696,63.42577],[-134.638856,63.425696]]]},"properties":{"WATERBODY_TYPE":"Lake","OFFICIAL_NAME_LABEL":null,"PERMANENCY":"Permanent"}},{"type":"Feature","geometry":{"type":"Polygon","coordinates":[[[-134.847736,63.425725],[-134.848616,63.425828],[-134.849091,63.425948],[-134.84918,63.426193],[-134.849048,63.426316],[-134.848879,63.426417],[-134.848614,63.426411],[-134.848207,63.426269],[-134.848139,63.426085],[-134.847968,63.426027],[-134.847799,63.426001],[-134.847433,63.425869],[-134.847427,63.425802],[-134.847587,63.425728],[-134.847736,63.425725]]]},"properties":{"WATERBODY_TYPE":"Lake","OFFICIAL_NAME_LABEL":null,"PERMANENCY":"Permanent"}},{"type":"Feature","geometry":{"type":"Polygon","coordinates":[[[-134.851309,63.426074],[-134.851603,63.426162],[-134.851856,63.426365],[-134.85177,63.426439],[-134.851607,63.42648],[-134.851319,63.426459],[-134.851094,63.426384],[-134.851025,63.426246],[-134.851189,63.426079],[-134.851309,63.426074]]]},"properties":{"WATERBODY_TYPE":"Lake","OFFICIAL_NAME_LABEL":null,"PERMANENCY":"Permanent"}},{"type":"Feature","geometry":{"type":"Polygon","coordinates":[[[-134.840227,63.42608],[-134.84043,63.426175],[-134.840406,63.426365],[-134.840159,63.426559],[-134.840027,63.426556],[-134.839778,63.426466],[-134.839761,63.426266],[-134.840078,63.426083],[-134.840227,63.42608]]]},"properties":{"WATERBODY_TYPE":"Lake","OFFICIAL_NAME_LABEL":null,"PERMANENCY":"Permanent"}},{"type":"Feature","geometry":{"type":"Polygon","coordinates":[[[-134.898256,63.428402],[-134.898294,63.428252],[-134.898628,63.427938],[-134.899568,63.427416],[-134.899911,63.427076],[-134.900296,63.426951],[-134.900768,63.426912],[-134.900974,63.426834],[-134.901502,63.426719],[-134.901697,63.426713],[-134.901847,63.42679],[-134.902332,63.427421],[-134.902672,63.427962],[-134.902348,63.428125],[-134.902276,63.428285],[-134.901977,63.428462],[-134.90177,63.428461],[-134.901636,63.428504],[-134.901353,63.428802],[-134.900814,63.429068],[-134.900029,63.429198],[-134.899812,63.429143],[-134.899637,63.429051],[-134.899386,63.428801],[-134.899277,63.428733],[-134.898413,63.428499],[-134.898256,63.428402]]]},"properties":{"WATERBODY_TYPE":"Lake","OFFICIAL_NAME_LABEL":null,"PERMANENCY":"Permanent"}},{"type":"Feature","geometry":{"type":"Polygon","coordinates":[[[-134.88883,63.429657],[-134.888822,63.429431],[-134.889121,63.429174],[-134.889292,63.429107],[-134.889516,63.429103],[-134.889725,63.429137],[-134.890131,63.429451],[-134.890262,63.4295],[-134.890222,63.429571],[-134.890003,63.429687],[-134.889672,63.429703],[-134.889176,63.429681],[-134.889076,63.429714],[-134.888961,63.429706],[-134.88883,63.429657]]]},"properties":{"WATERBODY_TYPE":"Lake","OFFICIAL_NAME_LABEL":null,"PERMANENCY":"Permanent"}},{"type":"Feature","geometry":{"type":"Polygon","coordinates":[[[-134.777922,63.431113],[-134.776549,63.431146],[-134.776328,63.431104],[-134.775902,63.431093],[-134.774883,63.431172],[-134.774796,63.431165],[-134.774519,63.431072],[-134.774088,63.430789],[-134.774044,63.430462],[-134.774294,63.430301],[-134.774797,63.430218],[-134.775583,63.430215],[-134.775971,63.430124],[-134.776361,63.430066],[-134.776765,63.430095],[-134.777203,63.430193],[-134.777365,63.430278],[-134.777541,63.430323],[-134.778202,63.430338],[-134.778473,63.430364],[-134.778591,63.430532],[-134.778608,63.430606],[-134.778755,63.43065],[-134.779126,63.43069],[-134.779258,63.430898],[-134.779272,63.431065],[-134.779019,63.431192],[-134.778538,63.431211],[-134.777922,63.431113]]]},"properties":{"WATERBODY_TYPE":"Lake","OFFICIAL_NAME_LABEL":null,"PERMANENCY":"Permanent"}},{"type":"Feature","geometry":{"type":"Polygon","coordinates":[[[-134.831766,63.429713],[-134.831978,63.429781],[-134.832087,63.429849],[-134.832089,63.430008],[-134.832,63.430174],[-134.831285,63.430805],[-134.830624,63.431122],[-134.830244,63.431234],[-134.829598,63.43126],[-134.82886,63.43134],[-134.828506,63.431294],[-134.828467,63.431239],[-134.82733,63.431024],[-134.827055,63.430885],[-134.827051,63.430772],[-134.827117,63.430671],[-134.827336,63.430554],[-134.827587,63.430473],[-134.828601,63.430327],[-134.829308,63.430007],[-134.829903,63.429997],[-134.831201,63.429885],[-134.831527,63.429802],[-134.831766,63.429713]]]},"properties":{"WATERBODY_TYPE":"Lake","OFFICIAL_NAME_LABEL":null,"PERMANENCY":"Permanent"}},{"type":"Feature","geometry":{"type":"Polygon","coordinates":[[[-134.580642,63.43412],[-134.580796,63.434185],[-134.580833,63.434287],[-134.580752,63.434347],[-134.580596,63.434409],[-134.580351,63.434431],[-134.580211,63.434407],[-134.580098,63.434352],[-134.580033,63.434248],[-134.580189,63.434186],[-134.580642,63.43412]]]},"properties":{"WATERBODY_TYPE":"Lake","OFFICIAL_NAME_LABEL":null,"PERMANENCY":"Permanent"}},{"type":"Feature","geometry":{"type":"Polygon","coordinates":[[[-134.579906,63.434835],[-134.580118,63.434904],[-134.580118,63.434984],[-134.579912,63.43522],[-134.579828,63.435247],[-134.579696,63.435244],[-134.579487,63.435129],[-134.579529,63.434934],[-134.579656,63.43487],[-134.579906,63.434835]]]},"properties":{"WATERBODY_TYPE":"Lake","OFFICIAL_NAME_LABEL":null,"PERMANENCY":"Permanent"}},{"type":"Feature","geometry":{"type":"Polygon","coordinates":[[[-134.814929,63.436308],[-134.814823,63.436148],[-134.81467,63.436038],[-134.814504,63.435966],[-134.814298,63.435838],[-134.815031,63.435692],[-134.81508,63.435597],[-134.814603,63.435443],[-134.813506,63.435284],[-134.813212,63.435276],[-134.812876,63.435305],[-134.81257,63.435416],[-134.811266,63.435256],[-134.810486,63.435246],[-134.809817,63.435542],[-134.809531,63.435555],[-134.809255,63.435541],[-134.808864,63.435394],[-134.808516,63.43521],[-134.808277,63.435173],[-134.807451,63.435166],[-134.806513,63.435059],[-134.806165,63.434875],[-134.806185,63.434777],[-134.808256,63.434654],[-134.811292,63.434403],[-134.811958,63.434073],[-134.812656,63.433984],[-134.812816,63.433909],[-134.812856,63.433713],[-134.812795,63.433596],[-134.812261,63.433392],[-134.811269,63.433394],[-134.809979,63.433526],[-134.809795,63.43346],[-134.809176,63.433455],[-134.808261,63.433283],[-134.807665,63.433293],[-134.807399,63.433333],[-134.806662,63.433161],[-134.804865,63.432932],[-134.804572,63.432924],[-134.804253,63.432948],[-134.80404,63.433005],[-134.803825,63.433109],[-134.803779,63.433238],[-134.803668,63.433217],[-134.803351,63.433068],[-134.803351,63.432863],[-134.803523,63.432796],[-134.805218,63.432487],[-134.806411,63.432295],[-134.806842,63.432167],[-134.807337,63.431984],[-134.807724,63.431607],[-134.807766,63.431365],[-134.807471,63.431198],[-134.807114,63.43104],[-134.80711,63.430927],[-134.80727,63.430852],[-134.807378,63.43084],[-134.807541,63.430878],[-134.807559,63.430953],[-134.807759,63.431013],[-134.808007,63.431025],[-134.809391,63.430919],[-134.809983,63.430796],[-134.812263,63.430503],[-134.813231,63.430487],[-134.813927,63.430649],[-134.814236,63.430778],[-134.814551,63.430847],[-134.815414,63.430876],[-134.815659,63.430854],[-134.815888,63.430791],[-134.816376,63.430793],[-134.816694,63.430895],[-134.817241,63.430981],[-134.818156,63.431027],[-134.818913,63.431022],[-134.819208,63.430983],[-134.819437,63.43092],[-134.820871,63.430924],[-134.821223,63.43081],[-134.821864,63.430797],[-134.822603,63.430591],[-134.822764,63.430596],[-134.823344,63.430671],[-134.82387,63.430649],[-134.824252,63.430491],[-134.824272,63.430188],[-134.824403,63.430111],[-134.824781,63.430046],[-134.82505,63.430039],[-134.825519,63.430218],[-134.825499,63.430521],[-134.825732,63.430697],[-134.82574,63.430797],[-134.825479,63.43103],[-134.825209,63.431163],[-134.824431,63.431313],[-134.823491,63.431663],[-134.823368,63.43176],[-134.823153,63.432069],[-134.823157,63.432182],[-134.823708,63.432586],[-134.82392,63.432654],[-134.824371,63.432634],[-134.824808,63.432652],[-134.825047,63.432689],[-134.825226,63.432768],[-134.826007,63.432858],[-134.826236,63.43292],[-134.826401,63.433038],[-134.826553,63.433275],[-134.826862,63.433403],[-134.827353,63.433438],[-134.827907,63.433418],[-134.828333,63.433303],[-134.829831,63.433252],[-134.830006,63.433218],[-134.830312,63.433108],[-134.83065,63.433032],[-134.832089,63.432897],[-134.832759,63.432886],[-134.833588,63.432926],[-134.834137,63.433045],[-134.834131,63.433104],[-134.83382,63.433353],[-134.833319,63.433595],[-134.831663,63.434291],[-134.830997,63.434416],[-134.83039,63.434419],[-134.826875,63.433616],[-134.825092,63.433554],[-134.824374,63.433615],[-134.82379,63.433758],[-134.823344,63.433971],[-134.823078,63.434012],[-134.822775,63.43403],[-134.822222,63.434129],[-134.821579,63.434394],[-134.821002,63.434684],[-134.820906,63.434909],[-134.821189,63.435069],[-134.82158,63.435216],[-134.821666,63.435348],[-134.821248,63.435563],[-134.820394,63.43584],[-134.819387,63.435801],[-134.818766,63.435842],[-134.818132,63.436081],[-134.817954,63.436208],[-134.817665,63.436313],[-134.817319,63.436367],[-134.81656,63.436339],[-134.815162,63.436563],[-134.815,63.436479],[-134.814929,63.436308]],[[-134.815481,63.433492],[-134.81529,63.433405],[-134.815112,63.433405],[-134.814132,63.43354],[-134.813937,63.433672],[-134.813892,63.433755],[-134.813985,63.433907],[-134.814105,63.433903],[-134.814481,63.433804],[-134.815066,63.43374],[-134.815393,63.433737],[-134.815512,63.433653],[-134.815481,63.433492]],[[-134.824339,63.43293],[-134.824243,63.432949],[-134.824107,63.433039],[-134.824118,63.433093],[-134.824401,63.433252],[-134.824553,63.433283],[-134.82473,63.433283],[-134.824852,63.433232],[-134.824918,63.43313],[-134.82496,63.433014],[-134.824873,63.433008],[-134.824615,63.432943],[-134.824339,63.43293]],[[-134.808867,63.431842],[-134.808762,63.431888],[-134.808653,63.432026],[-134.808636,63.432157],[-134.808745,63.432224],[-134.808959,63.432246],[-134.80916,63.432181],[-134.809228,63.432034],[-134.809173,63.431937],[-134.809024,63.43186],[-134.808867,63.431842]]]},"properties":{"WATERBODY_TYPE":"Lake","OFFICIAL_NAME_LABEL":null,"PERMANENCY":"Permanent"}},{"type":"Feature","geometry":{"type":"Polygon","coordinates":[[[-134.70818,63.305361],[-134.708289,63.305223],[-134.708173,63.305135],[-134.707812,63.305115],[-134.707594,63.305026],[-134.707528,63.304922],[-134.707377,63.304891],[-134.707159,63.304802],[-134.707151,63.304702],[-134.707548,63.304459],[-134.707709,63.304259],[-134.707971,63.30341],[-134.708138,63.303356],[-134.709287,63.303155],[-134.709621,63.303126],[-134.709822,63.303141],[-134.710144,63.303105],[-134.710581,63.302712],[-134.710807,63.302616],[-134.710898,63.30261],[-134.711379,63.30291],[-134.711404,63.303575],[-134.711696,63.303868],[-134.711753,63.304647],[-134.712008,63.304838],[-134.712314,63.305013],[-134.712408,63.305119],[-134.712366,63.305236],[-134.712122,63.305463],[-134.711696,63.305498],[-134.710678,63.305258],[-134.710518,63.305253],[-134.709944,63.305496],[-134.709753,63.305535],[-134.709547,63.305533],[-134.709226,63.305444],[-134.708967,63.305425],[-134.708328,63.305564],[-134.708191,63.305494],[-134.70818,63.305361]]]},"properties":{"WATERBODY_TYPE":"Lake","OFFICIAL_NAME_LABEL":null,"PERMANENCY":"Permanent"}},{"type":"Feature","geometry":{"type":"Polygon","coordinates":[[[-134.860604,63.326006],[-134.860912,63.326008],[-134.861071,63.326059],[-134.861161,63.326178],[-134.861249,63.326264],[-134.861306,63.326394],[-134.861105,63.326459],[-134.86066,63.326467],[-134.860298,63.326368],[-134.860189,63.326301],[-134.860278,63.326009],[-134.860604,63.326006]]]},"properties":{"WATERBODY_TYPE":"Lake","OFFICIAL_NAME_LABEL":null,"PERMANENCY":"Permanent"}},{"type":"Feature","geometry":{"type":"Polygon","coordinates":[[[-134.856448,63.324845],[-134.856841,63.3249],[-134.856974,63.324983],[-134.856999,63.325077],[-134.85723,63.325173],[-134.857422,63.325214],[-134.857652,63.32523],[-134.857758,63.325264],[-134.857785,63.325313],[-134.857745,63.325383],[-134.857679,63.325484],[-134.857809,63.325533],[-134.858119,63.325615],[-134.858472,63.32566],[-134.85881,63.325744],[-134.859049,63.325861],[-134.859051,63.32602],[-134.859147,63.32608],[-134.859153,63.326147],[-134.858686,63.326299],[-134.858675,63.326497],[-134.858724,63.326606],[-134.858687,63.326709],[-134.858494,63.326921],[-134.857694,63.327513],[-134.857375,63.327456],[-134.857134,63.327386],[-134.857066,63.327249],[-134.857081,63.327164],[-134.856891,63.327077],[-134.856715,63.327031],[-134.856611,63.326951],[-134.856529,63.326852],[-134.856345,63.326707],[-134.856223,63.326552],[-134.856197,63.326378],[-134.856329,63.326255],[-134.856752,63.32606],[-134.857011,63.325953],[-134.85706,63.325857],[-134.85697,63.325738],[-134.856795,63.325692],[-134.856698,63.325632],[-134.856639,63.325548],[-134.856449,63.325462],[-134.856147,63.3254],[-134.856072,63.325322],[-134.855922,63.325245],[-134.855964,63.325129],[-134.856106,63.325059],[-134.856276,63.325038],[-134.856399,63.324941],[-134.856448,63.324845]]]},"properties":{"WATERBODY_TYPE":"Lake","OFFICIAL_NAME_LABEL":null,"PERMANENCY":"Permanent"}},{"type":"Feature","geometry":{"type":"Polygon","coordinates":[[[-134.949813,63.379383],[-134.950026,63.379405],[-134.950546,63.379647],[-134.951107,63.379647],[-134.951413,63.379742],[-134.951928,63.380249],[-134.952193,63.380334],[-134.952831,63.380618],[-134.952932,63.380791],[-134.952864,63.380859],[-134.952709,63.380921],[-134.952453,63.380935],[-134.95216,63.380928],[-134.951612,63.380809],[-134.951403,63.380649],[-134.951236,63.380451],[-134.95125,63.380413],[-134.951118,63.380284],[-134.949811,63.379681],[-134.949813,63.379383]]]},"properties":{"WATERBODY_TYPE":"Lake","OFFICIAL_NAME_LABEL":null,"PERMANENCY":"Permanent"}},{"type":"Feature","geometry":{"type":"Polygon","coordinates":[[[-134.779855,63.395564],[-134.77966,63.39557],[-134.779469,63.395609],[-134.7794,63.395677],[-134.779053,63.395778],[-134.7784,63.39591],[-134.778233,63.395964],[-134.778002,63.396153],[-134.778037,63.396221],[-134.777946,63.396433],[-134.777822,63.396531],[-134.777624,63.396629],[-134.777408,63.396653],[-134.777149,63.396634],[-134.776973,63.396588],[-134.776788,63.396489],[-134.776397,63.396341],[-134.775924,63.3963],[-134.775831,63.396274],[-134.775763,63.396216],[-134.775872,63.395952],[-134.77592,63.395902],[-134.775915,63.39571],[-134.775973,63.395509],[-134.776243,63.39525],[-134.777526,63.394766],[-134.778148,63.394599],[-134.778384,63.394477],[-134.779412,63.394247],[-134.780045,63.394007],[-134.780684,63.393835],[-134.781203,63.393746],[-134.781825,63.393785],[-134.782308,63.393879],[-134.783107,63.394123],[-134.783489,63.394376],[-134.783602,63.394762],[-134.783543,63.394883],[-134.783578,63.395032],[-134.783911,63.395586],[-134.78423,63.395974],[-134.784609,63.396604],[-134.784652,63.396773],[-134.784581,63.397298],[-134.784448,63.397421],[-134.782872,63.398433],[-134.782287,63.398908],[-134.782071,63.399058],[-134.781751,63.399207],[-134.780413,63.39923],[-134.779545,63.399339],[-134.778643,63.399506],[-134.778591,63.399363],[-134.778636,63.398949],[-134.778951,63.398733],[-134.779763,63.398242],[-134.780223,63.397785],[-134.780321,63.397308],[-134.780601,63.397023],[-134.780592,63.396923],[-134.780063,63.396341],[-134.779885,63.395931],[-134.779939,63.395617],[-134.779855,63.395564]]]},"properties":{"WATERBODY_TYPE":"Lake","OFFICIAL_NAME_LABEL":null,"PERMANENCY":"Permanent"}},{"type":"Feature","geometry":{"type":"Polygon","coordinates":[[[-134.854591,63.403821],[-134.854815,63.403897],[-134.854986,63.404081],[-134.855014,63.404209],[-134.854967,63.404259],[-134.854862,63.404304],[-134.853801,63.40442],[-134.853673,63.404404],[-134.853787,63.404127],[-134.854111,63.403965],[-134.854438,63.403836],[-134.854591,63.403821]]]},"properties":{"WATERBODY_TYPE":"Lake","OFFICIAL_NAME_LABEL":null,"PERMANENCY":"Permanent"}},{"type":"Feature","geometry":{"type":"Polygon","coordinates":[[[-134.606757,63.408765],[-134.606949,63.408806],[-134.607139,63.408893],[-134.607829,63.40907],[-134.608256,63.409115],[-134.608362,63.409149],[-134.608449,63.409235],[-134.608469,63.409342],[-134.608386,63.409528],[-134.608233,63.409623],[-134.608072,63.409698],[-134.607808,63.409692],[-134.606468,63.409474],[-134.606244,63.409397],[-134.60602,63.409242],[-134.606023,63.40891],[-134.606313,63.408806],[-134.606534,63.408769],[-134.606757,63.408765]]]},"properties":{"WATERBODY_TYPE":"Lake","OFFICIAL_NAME_LABEL":null,"PERMANENCY":"Permanent"}},{"type":"Feature","geometry":{"type":"Polygon","coordinates":[[[-134.824856,63.412802],[-134.824704,63.412771],[-134.824527,63.412772],[-134.823797,63.41262],[-134.823676,63.412545],[-134.82346,63.412489],[-134.823241,63.41248],[-134.822619,63.412648],[-134.822298,63.412638],[-134.82156,63.412386],[-134.820845,63.4124],[-134.819576,63.412104],[-134.819081,63.412081],[-134.819178,63.411936],[-134.819578,63.411852],[-134.819875,63.411847],[-134.820159,63.411881],[-134.820732,63.412015],[-134.821257,63.411993],[-134.821667,63.411963],[-134.821751,63.411936],[-134.822358,63.411933],[-134.823227,63.412108],[-134.824045,63.412094],[-134.825324,63.411908],[-134.825567,63.411932],[-134.825705,63.412002],[-134.825931,63.412237],[-134.826296,63.412289],[-134.82656,63.412295],[-134.826643,63.41252],[-134.826554,63.412686],[-134.826846,63.412819],[-134.826792,63.412928],[-134.826689,63.412927],[-134.826304,63.413052],[-134.825923,63.413084],[-134.824856,63.412802]]]},"properties":{"WATERBODY_TYPE":"Lake","OFFICIAL_NAME_LABEL":null,"PERMANENCY":"Permanent"}},{"type":"Feature","geometry":{"type":"Polygon","coordinates":[[[-134.806816,63.412595],[-134.806997,63.412628],[-134.807216,63.412717],[-134.807133,63.41295],[-134.807614,63.413011],[-134.807775,63.413095],[-134.807767,63.413201],[-134.807511,63.413215],[-134.806065,63.413741],[-134.805439,63.413795],[-134.805183,63.414015],[-134.805051,63.414012],[-134.804824,63.413903],[-134.804802,63.413716],[-134.80503,63.413494],[-134.805588,63.413382],[-134.805709,63.413331],[-134.805778,63.413263],[-134.806063,63.413171],[-134.806341,63.413138],[-134.806516,63.412978],[-134.806532,63.412893],[-134.806299,63.412717],[-134.806354,63.412688],[-134.806816,63.412595]]]},"properties":{"WATERBODY_TYPE":"Lake","OFFICIAL_NAME_LABEL":null,"PERMANENCY":"Permanent"}},{"type":"Feature","geometry":{"type":"Polygon","coordinates":[[[-134.810939,63.414046],[-134.810805,63.413552],[-134.811224,63.413086],[-134.811161,63.413015],[-134.811209,63.412839],[-134.811467,63.412699],[-134.811787,63.412629],[-134.812536,63.412398],[-134.81292,63.412399],[-134.813202,63.412479],[-134.813574,63.412678],[-134.813645,63.412849],[-134.813889,63.412953],[-134.814264,63.41298],[-134.81484,63.412942],[-134.815606,63.412785],[-134.816007,63.41286],[-134.816299,63.412994],[-134.816263,63.413177],[-134.81597,63.413295],[-134.815021,63.413797],[-134.814887,63.414045],[-134.814759,63.414156],[-134.814499,63.414263],[-134.814103,63.414254],[-134.813803,63.414305],[-134.813321,63.414496],[-134.812715,63.414578],[-134.81234,63.414551],[-134.81202,63.414495],[-134.81157,63.41439],[-134.810939,63.414046]]]},"properties":{"WATERBODY_TYPE":"Lake","OFFICIAL_NAME_LABEL":null,"PERMANENCY":"Permanent"}},{"type":"Feature","geometry":{"type":"Polygon","coordinates":[[[-134.834014,63.415635],[-134.834116,63.415682],[-134.834153,63.415784],[-134.833885,63.415996],[-134.833705,63.416043],[-134.833444,63.416071],[-134.833325,63.415824],[-134.833638,63.415654],[-134.834014,63.415635]]]},"properties":{"WATERBODY_TYPE":"Lake","OFFICIAL_NAME_LABEL":null,"PERMANENCY":"Permanent"}},{"type":"Feature","geometry":{"type":"Polygon","coordinates":[[[-134.836981,63.414947],[-134.837304,63.415036],[-134.837617,63.415277],[-134.837764,63.415321],[-134.837827,63.415392],[-134.837772,63.415878],[-134.837653,63.415962],[-134.837472,63.416055],[-134.836569,63.416222],[-134.835832,63.416256],[-134.835698,63.416219],[-134.835251,63.416022],[-134.835219,63.415781],[-134.835271,63.415718],[-134.835276,63.415579],[-134.835187,63.415414],[-134.835299,63.415309],[-134.835685,63.415138],[-134.836758,63.414951],[-134.836981,63.414947]]]},"properties":{"WATERBODY_TYPE":"Lake","OFFICIAL_NAME_LABEL":null,"PERMANENCY":"Permanent"}},{"type":"Feature","geometry":{"type":"Polygon","coordinates":[[[-134.804801,63.417301],[-134.805027,63.417331],[-134.80521,63.417397],[-134.805248,63.417499],[-134.804978,63.417632],[-134.804635,63.41764],[-134.80436,63.417581],[-134.804006,63.417456],[-134.80413,63.417359],[-134.804487,63.417312],[-134.804801,63.417301]]]},"properties":{"WATERBODY_TYPE":"Lake","OFFICIAL_NAME_LABEL":null,"PERMANENCY":"Permanent"}},{"type":"Feature","geometry":{"type":"Polygon","coordinates":[[[-134.740841,63.418055],[-134.741925,63.418206],[-134.742166,63.418277],[-134.742327,63.418361],[-134.742333,63.418633],[-134.742178,63.418775],[-134.741963,63.418878],[-134.741266,63.419047],[-134.74094,63.419049],[-134.740289,63.419294],[-134.740018,63.419347],[-134.739526,63.419278],[-134.739311,63.419176],[-134.739307,63.419063],[-134.739927,63.418863],[-134.739929,63.418611],[-134.739883,63.418535],[-134.739979,63.41831],[-134.740165,63.418204],[-134.740579,63.418082],[-134.740841,63.418055]]]},"properties":{"WATERBODY_TYPE":"Lake","OFFICIAL_NAME_LABEL":null,"PERMANENCY":"Permanent"}},{"type":"Feature","geometry":{"type":"Polygon","coordinates":[[[-134.823082,63.418492],[-134.822612,63.418028],[-134.822365,63.417606],[-134.822505,63.417298],[-134.822664,63.417223],[-134.82279,63.41708],[-134.822763,63.417032],[-134.822953,63.416913],[-134.82307,63.416875],[-134.824303,63.416818],[-134.824861,63.416705],[-134.825186,63.416543],[-134.825575,63.416406],[-134.826237,63.416374],[-134.826569,63.416437],[-134.827486,63.416768],[-134.828632,63.417368],[-134.829983,63.417889],[-134.830748,63.417653],[-134.831106,63.41748],[-134.831524,63.417344],[-134.832404,63.417321],[-134.832526,63.41727],[-134.832583,63.417195],[-134.832686,63.417196],[-134.833142,63.417036],[-134.833507,63.417009],[-134.83444,63.41713],[-134.834803,63.417354],[-134.834838,63.417423],[-134.834815,63.417567],[-134.835006,63.41778],[-134.83516,63.417844],[-134.836825,63.417944],[-134.837487,63.418117],[-134.838283,63.418168],[-134.838704,63.418066],[-134.83933,63.418011],[-134.840159,63.418131],[-134.840651,63.418245],[-134.840885,63.418375],[-134.840937,63.418438],[-134.840892,63.418521],[-134.840709,63.41866],[-134.840663,63.41879],[-134.840708,63.418912],[-134.840856,63.419035],[-134.840865,63.419135],[-134.838389,63.419276],[-134.838032,63.419323],[-134.837694,63.419398],[-134.836408,63.419438],[-134.835663,63.419371],[-134.834998,63.419164],[-134.834753,63.418981],[-134.834719,63.418581],[-134.834218,63.418492],[-134.834053,63.4185],[-134.833878,63.418534],[-134.833503,63.418712],[-134.832516,63.418827],[-134.832174,63.418789],[-134.831856,63.418687],[-134.831564,63.418884],[-134.831588,63.419436],[-134.831266,63.419963],[-134.831112,63.420104],[-134.830797,63.42024],[-134.830155,63.42038],[-134.827408,63.420494],[-134.826355,63.420378],[-134.825502,63.420197],[-134.824371,63.419434],[-134.82401,63.418957],[-134.823082,63.418492]]]},"properties":{"WATERBODY_TYPE":"Lake","OFFICIAL_NAME_LABEL":null,"PERMANENCY":"Permanent"}},{"type":"Feature","geometry":{"type":"Polygon","coordinates":[[[-134.796898,63.419826],[-134.796563,63.419934],[-134.796416,63.420096],[-134.796348,63.420243],[-134.796246,63.420322],[-134.796083,63.420363],[-134.795913,63.420384],[-134.795548,63.420331],[-134.795458,63.420292],[-134.795179,63.420245],[-134.79408,63.420258],[-134.79349,63.420335],[-134.793046,63.420296],[-134.792667,63.420156],[-134.79236,63.419982],[-134.792175,63.419756],[-134.792261,63.419352],[-134.792585,63.418905],[-134.794501,63.417976],[-134.795618,63.417626],[-134.796071,63.417559],[-134.797221,63.417529],[-134.797755,63.417608],[-134.798412,63.417589],[-134.798791,63.417603],[-134.799081,63.417703],[-134.799499,63.417773],[-134.799527,63.417901],[-134.799388,63.418084],[-134.799359,63.418492],[-134.800792,63.419033],[-134.801007,63.41934],[-134.801652,63.419851],[-134.801716,63.420001],[-134.801718,63.42016],[-134.801675,63.420197],[-134.800882,63.420305],[-134.798316,63.420531],[-134.797381,63.420457],[-134.796954,63.420287],[-134.796947,63.420141],[-134.797107,63.420066],[-134.797345,63.420024],[-134.797438,63.419971],[-134.797429,63.419871],[-134.796898,63.419826]]]},"properties":{"WATERBODY_TYPE":"Lake","OFFICIAL_NAME_LABEL":null,"PERMANENCY":"Permanent"}},{"type":"Feature","geometry":{"type":"Polygon","coordinates":[[[-134.743327,63.422225],[-134.743374,63.422096],[-134.743594,63.421979],[-134.744219,63.421846],[-134.744368,63.421843],[-134.744474,63.421877],[-134.744981,63.421702],[-134.745388,63.421639],[-134.745876,63.421641],[-134.746206,63.421751],[-134.746324,63.421998],[-134.746275,63.422174],[-134.746604,63.42241],[-134.746749,63.422705],[-134.746641,63.422797],[-134.746532,63.422855],[-134.746334,63.422828],[-134.746099,63.422824],[-134.745899,63.422968],[-134.745796,63.422968],[-134.745687,63.4229],[-134.745669,63.422826],[-134.745308,63.42268],[-134.745192,63.422672],[-134.744831,63.422811],[-134.744688,63.423086],[-134.744542,63.423122],[-134.744306,63.423118],[-134.744238,63.42306],[-134.74432,63.422794],[-134.744295,63.4227],[-134.743327,63.422225]]]},"properties":{"WATERBODY_TYPE":"Lake","OFFICIAL_NAME_LABEL":null,"PERMANENCY":"Permanent"}},{"type":"Feature","geometry":{"type":"Polygon","coordinates":[[[-134.818763,63.423854],[-134.817576,63.423782],[-134.817162,63.423699],[-134.81665,63.423476],[-134.816683,63.42326],[-134.817291,63.422926],[-134.818001,63.422719],[-134.818357,63.422718],[-134.818692,63.422689],[-134.81885,63.422661],[-134.818948,63.422595],[-134.818911,63.422493],[-134.818658,63.422415],[-134.81864,63.422341],[-134.819919,63.421949],[-134.820181,63.421922],[-134.820291,63.421943],[-134.820437,63.422033],[-134.82045,63.42212],[-134.820264,63.422226],[-134.82019,63.422433],[-134.820532,63.42255],[-134.820754,63.422592],[-134.821289,63.422624],[-134.821469,63.422578],[-134.821632,63.422411],[-134.821754,63.42236],[-134.822102,63.422338],[-134.822571,63.422392],[-134.823166,63.422382],[-134.823559,63.422277],[-134.823612,63.422295],[-134.824075,63.422282],[-134.824507,63.422313],[-134.824587,63.422504],[-134.82435,63.422752],[-134.824329,63.42285],[-134.82411,63.422967],[-134.824073,63.42307],[-134.824615,63.423374],[-134.824894,63.423421],[-134.8249,63.423487],[-134.824822,63.423581],[-134.824426,63.423778],[-134.823981,63.423945],[-134.821945,63.423931],[-134.820787,63.423861],[-134.82015,63.423861],[-134.819599,63.423914],[-134.819255,63.424048],[-134.819072,63.423982],[-134.819016,63.423932],[-134.818763,63.423854]]]},"properties":{"WATERBODY_TYPE":"Lake","OFFICIAL_NAME_LABEL":null,"PERMANENCY":"Permanent"}},{"type":"Feature","geometry":{"type":"Polygon","coordinates":[[[-134.856338,63.423758],[-134.856676,63.423763],[-134.856963,63.423704],[-134.857104,63.423601],[-134.8571,63.423488],[-134.85719,63.423402],[-134.857374,63.423342],[-134.857698,63.423385],[-134.857902,63.423354],[-134.858117,63.42325],[-134.858117,63.423124],[-134.858161,63.422961],[-134.858424,63.422888],[-134.858744,63.422944],[-134.85888,63.422934],[-134.859031,63.422885],[-134.859267,63.422762],[-134.859472,63.422684],[-134.859749,63.422698],[-134.860015,63.422657],[-134.860267,63.422655],[-134.8604,63.422612],[-134.860436,63.422555],[-134.860364,63.422384],[-134.860399,63.422201],[-134.860451,63.422138],[-134.861197,63.422079],[-134.861607,63.422175],[-134.86199,63.422428],[-134.861921,63.422496],[-134.861766,63.422557],[-134.861545,63.422595],[-134.86112,63.42271],[-134.860496,63.422924],[-134.860284,63.423187],[-134.860355,63.423278],[-134.860328,63.423435],[-134.859633,63.423809],[-134.85946,63.424002],[-134.859398,63.424674],[-134.859283,63.424871],[-134.858466,63.425375],[-134.858051,63.425544],[-134.857427,63.425553],[-134.857153,63.425573],[-134.856795,63.425666],[-134.855827,63.425809],[-134.855592,63.425885],[-134.854909,63.425935],[-134.854292,63.425838],[-134.853754,63.425441],[-134.853756,63.425269],[-134.853817,63.425181],[-134.854023,63.425103],[-134.85441,63.424806],[-134.854814,63.424378],[-134.855063,63.423932],[-134.855712,63.423813],[-134.856069,63.423766],[-134.856338,63.423758]]]},"properties":{"WATERBODY_TYPE":"Lake","OFFICIAL_NAME_LABEL":null,"PERMANENCY":"Permanent"}},{"type":"Feature","geometry":{"type":"Polygon","coordinates":[[[-134.721088,63.428849],[-134.720658,63.428851],[-134.720574,63.428878],[-134.719918,63.42885],[-134.719098,63.428704],[-134.718472,63.428473],[-134.718469,63.42844],[-134.718663,63.428354],[-134.719914,63.428087],[-134.721607,63.427415],[-134.722907,63.427178],[-134.723893,63.426905],[-134.72406,63.426977],[-134.724611,63.427335],[-134.72523,63.427546],[-134.725293,63.427617],[-134.725277,63.427702],[-134.725165,63.427806],[-134.724643,63.427941],[-134.724365,63.428053],[-134.72414,63.428308],[-134.723874,63.428428],[-134.722732,63.428478],[-134.722482,63.428513],[-134.721768,63.428891],[-134.721088,63.428849]]]},"properties":{"WATERBODY_TYPE":"Lake","OFFICIAL_NAME_LABEL":null,"PERMANENCY":"Permanent"}},{"type":"Feature","geometry":{"type":"Polygon","coordinates":[[[-134.764249,63.42968],[-134.763509,63.429679],[-134.763183,63.429762],[-134.76266,63.430022],[-134.760218,63.430024],[-134.7595,63.430005],[-134.757786,63.429875],[-134.75456,63.429343],[-134.753068,63.428844],[-134.752373,63.428349],[-134.752198,63.428098],[-134.752417,63.427902],[-134.752582,63.427814],[-134.753135,63.427715],[-134.753479,63.427707],[-134.754418,63.427768],[-134.754733,63.427758],[-134.754962,63.427695],[-134.755106,63.427626],[-134.755112,63.427567],[-134.755066,63.42749],[-134.754899,63.427419],[-134.754308,63.427336],[-134.753981,63.427339],[-134.753457,63.427235],[-134.752815,63.427168],[-134.752272,63.427195],[-134.751793,63.427293],[-134.751135,63.427232],[-134.749934,63.426993],[-134.749621,63.426957],[-134.748695,63.426982],[-134.748565,63.427013],[-134.748404,63.427008],[-134.747484,63.426894],[-134.747064,63.426745],[-134.747079,63.42658],[-134.747285,63.426502],[-134.748298,63.426277],[-134.748833,63.42623],[-134.749424,63.426233],[-134.749724,63.426182],[-134.751347,63.426194],[-134.752069,63.42612],[-134.753361,63.426147],[-134.754154,63.42596],[-134.754848,63.425964],[-134.756878,63.426243],[-134.758197,63.426319],[-134.760016,63.426278],[-134.761366,63.42631],[-134.761704,63.426235],[-134.762301,63.426179],[-134.76291,63.426256],[-134.763031,63.426411],[-134.763079,63.426566],[-134.763397,63.426669],[-134.763923,63.426727],[-134.764948,63.426715],[-134.765713,63.426605],[-134.765885,63.426538],[-134.765992,63.426446],[-134.766323,63.426351],[-134.766906,63.426333],[-134.767231,63.426376],[-134.767758,63.426103],[-134.767942,63.425964],[-134.7682,63.425824],[-134.769125,63.425718],[-134.77005,63.425739],[-134.770793,63.425852],[-134.771674,63.426241],[-134.77168,63.426387],[-134.771247,63.426482],[-134.771138,63.426619],[-134.771172,63.426688],[-134.771778,63.426937],[-134.771996,63.427358],[-134.772052,63.427408],[-134.772379,63.427485],[-134.773122,63.427519],[-134.773496,63.427466],[-134.774142,63.42744],[-134.774756,63.427458],[-134.775023,63.427497],[-134.774639,63.427701],[-134.774256,63.427779],[-134.773184,63.428126],[-134.772998,63.428232],[-134.772727,63.428285],[-134.771673,63.428295],[-134.771383,63.428321],[-134.770892,63.428491],[-134.770844,63.428666],[-134.77111,63.428831],[-134.770944,63.42925],[-134.77106,63.429338],[-134.772067,63.429583],[-134.772397,63.429693],[-134.772405,63.429793],[-134.772294,63.429898],[-134.771658,63.429978],[-134.769853,63.429854],[-134.768617,63.429877],[-134.768107,63.430019],[-134.766414,63.430075],[-134.765554,63.43],[-134.764249,63.42968]],[[-134.764487,63.428895],[-134.763986,63.428932],[-134.762785,63.428898],[-134.76175,63.42873],[-134.761466,63.428617],[-134.760885,63.428462],[-134.760633,63.428464],[-134.760214,63.42852],[-134.760125,63.42856],[-134.760102,63.428624],[-134.759954,63.428706],[-134.759303,63.428745],[-134.759021,63.428871],[-134.758972,63.428966],[-134.759233,63.429144],[-134.759496,63.429197],[-134.759719,63.429193],[-134.760208,63.429149],[-134.760661,63.429082],[-134.760902,63.429073],[-134.761128,63.429103],[-134.761738,63.429339],[-134.762546,63.429477],[-134.762959,63.429481],[-134.763712,63.429363],[-134.76389,63.429362],[-134.76441,63.429479],[-134.76609,63.429621],[-134.766629,63.429481],[-134.76671,63.429421],[-134.76666,63.429311],[-134.76557,63.429093],[-134.764975,63.428897],[-134.764487,63.428895]],[[-134.760446,63.427589],[-134.760168,63.427621],[-134.760125,63.427658],[-134.760225,63.427831],[-134.760472,63.427968],[-134.760773,63.428076],[-134.760884,63.428097],[-134.761008,63.42808],[-134.761158,63.427952],[-134.761071,63.427866],[-134.760672,63.427618],[-134.760446,63.427589]]]},"properties":{"WATERBODY_TYPE":"Lake","OFFICIAL_NAME_LABEL":null,"PERMANENCY":"Permanent"}},{"type":"Feature","geometry":{"type":"Polygon","coordinates":[[[-134.853588,63.431903],[-134.852959,63.431924],[-134.852787,63.431786],[-134.852198,63.431611],[-134.852035,63.431447],[-134.851936,63.431102],[-134.85192,63.430776],[-134.852283,63.43067],[-134.852611,63.430415],[-134.852919,63.430464],[-134.853278,63.430496],[-134.85403,63.430378],[-134.855042,63.429947],[-134.855253,63.429936],[-134.85541,63.429953],[-134.855634,63.430029],[-134.855708,63.430154],[-134.855839,63.43074],[-134.855744,63.430839],[-134.855596,63.430921],[-134.855426,63.430942],[-134.855312,63.431013],[-134.85531,63.431059],[-134.855516,63.431187],[-134.855701,63.431207],[-134.855877,63.431253],[-134.856035,63.43135],[-134.856043,63.43145],[-134.856565,63.431646],[-134.85654,63.431757],[-134.856116,63.431826],[-134.855909,63.431951],[-134.855182,63.432038],[-134.854627,63.432183],[-134.854439,63.432256],[-134.854189,63.432417],[-134.85398,63.432462],[-134.853759,63.432419],[-134.853576,63.432227],[-134.853588,63.431903]]]},"properties":{"WATERBODY_TYPE":"Lake","OFFICIAL_NAME_LABEL":null,"PERMANENCY":"Permanent"}},{"type":"Feature","geometry":{"type":"Polygon","coordinates":[[[-134.762751,63.434854],[-134.762327,63.434922],[-134.761757,63.434901],[-134.7615,63.434836],[-134.761251,63.434745],[-134.760707,63.434613],[-134.75963,63.434482],[-134.759166,63.434495],[-134.758946,63.434532],[-134.758802,63.434601],[-134.758579,63.434605],[-134.758453,63.434337],[-134.75851,63.434262],[-134.758972,63.43409],[-134.760226,63.433856],[-134.760751,63.433834],[-134.761117,63.433887],[-134.761963,63.434127],[-134.762612,63.434214],[-134.762987,63.434241],[-134.764748,63.434243],[-134.766925,63.434076],[-134.767013,63.434036],[-134.767288,63.433684],[-134.768113,63.433406],[-134.768768,63.433354],[-134.769078,63.433356],[-134.769379,63.433385],[-134.76981,63.433542],[-134.770262,63.433933],[-134.770295,63.434127],[-134.770261,63.434343],[-134.769927,63.434531],[-134.769539,63.434623],[-134.768617,63.434635],[-134.768478,63.434692],[-134.768369,63.43483],[-134.768045,63.435071],[-134.767847,63.43517],[-134.767244,63.435159],[-134.766021,63.434938],[-134.765593,63.434894],[-134.762751,63.434854]]]},"properties":{"WATERBODY_TYPE":"Lake","OFFICIAL_NAME_LABEL":null,"PERMANENCY":"Permanent"}},{"type":"Feature","geometry":{"type":"Polygon","coordinates":[[[-134.77084,63.360356],[-134.769367,63.360799],[-134.768553,63.361131],[-134.767668,63.361623],[-134.767576,63.361756],[-134.767551,63.361867],[-134.767412,63.361923],[-134.76623,63.36201],[-134.765815,63.362178],[-134.765436,63.36237],[-134.762335,63.363192],[-134.76187,63.363377],[-134.761415,63.363615],[-134.761205,63.363912],[-134.76087,63.364225],[-134.760718,63.36432],[-134.760486,63.364555],[-134.759089,63.365726],[-134.758647,63.366463],[-134.757517,63.367263],[-134.757404,63.367413],[-134.757183,63.367576],[-134.756872,63.3677],[-134.756442,63.368238],[-134.756306,63.368328],[-134.756151,63.368595],[-134.755933,63.368791],[-134.755595,63.368992],[-134.755074,63.369617],[-134.755009,63.370003],[-134.755194,63.370308],[-134.75512,63.370515],[-134.754854,63.370761],[-134.754528,63.370969],[-134.754277,63.371256],[-134.754098,63.371382],[-134.753085,63.371859],[-134.752867,63.371929],[-134.752097,63.372098],[-134.751637,63.37227],[-134.75017,63.372528],[-134.74979,63.37264],[-134.74961,63.372813],[-134.749671,63.37293],[-134.749678,63.373156],[-134.749509,63.373256],[-134.749225,63.373348],[-134.748384,63.373346],[-134.747692,63.373217],[-134.746572,63.372883],[-134.74595,63.372765],[-134.743979,63.372251],[-134.743386,63.372135],[-134.742664,63.371844],[-134.742504,63.371633],[-134.742723,63.371517],[-134.743142,63.371461],[-134.743797,63.371078],[-134.744057,63.370765],[-134.744109,63.370623],[-134.744554,63.370331],[-134.74598,63.368751],[-134.746273,63.368554],[-134.746831,63.368031],[-134.747653,63.367388],[-134.749095,63.366419],[-134.749802,63.365688],[-134.750286,63.364835],[-134.750397,63.363259],[-134.750113,63.36294],[-134.750019,63.362914],[-134.749774,63.362571],[-134.749792,63.36244],[-134.749846,63.362331],[-134.75006,63.362227],[-134.750703,63.361631],[-134.751253,63.361293],[-134.751733,63.360944],[-134.751882,63.360736],[-134.751947,63.360555],[-134.752555,63.360301],[-134.753735,63.359976],[-134.754108,63.359844],[-134.754722,63.359451],[-134.755016,63.359207],[-134.755639,63.358994],[-134.756493,63.358877],[-134.756769,63.35889],[-134.757026,63.358956],[-134.757588,63.35891],[-134.758401,63.358784],[-134.758731,63.358688],[-134.759188,63.358609],[-134.759775,63.358658],[-134.761584,63.358882],[-134.76219,63.35888],[-134.763511,63.358817],[-134.764278,63.358819],[-134.764619,63.358857],[-134.766269,63.359235],[-134.76801,63.359481],[-134.768835,63.359693],[-134.770179,63.359976],[-134.770761,63.360164],[-134.77086,63.360258],[-134.77084,63.360356]]]},"properties":{"WATERBODY_TYPE":"Lake","OFFICIAL_NAME_LABEL":"Highland Lake","PERMANENCY":"Permanent"}},{"type":"Feature","geometry":{"type":"Polygon","coordinates":[[[-134.536391,63.350975],[-134.53594,63.350995],[-134.535269,63.350812],[-134.534881,63.350584],[-134.534688,63.350305],[-134.534818,63.348908],[-134.535087,63.348298],[-134.535225,63.346478],[-134.535744,63.345993],[-134.535896,63.345739],[-134.535983,63.345142],[-134.536104,63.344853],[-134.536007,63.344315],[-134.535959,63.344285],[-134.536065,63.343875],[-134.5364,63.343528],[-134.53716,63.343068],[-134.537307,63.342827],[-134.537644,63.342673],[-134.538195,63.342541],[-134.538333,63.342485],[-134.538403,63.342417],[-134.538421,63.342127],[-134.538804,63.342049],[-134.539134,63.341954],[-134.539355,63.341553],[-134.539838,63.341204],[-134.539897,63.341082],[-134.539882,63.340962],[-134.53975,63.3408],[-134.539788,63.340696],[-134.540207,63.340482],[-134.540672,63.340139],[-134.5411,63.339899],[-134.541421,63.339829],[-134.541521,63.339877],[-134.541536,63.339997],[-134.541249,63.340135],[-134.540972,63.340406],[-134.540748,63.340456],[-134.540537,63.340546],[-134.540547,63.3406],[-134.540595,63.34063],[-134.540703,63.340618],[-134.541138,63.340478],[-134.541575,63.340292],[-134.541783,63.340168],[-134.542279,63.339621],[-134.542341,63.339454],[-134.542508,63.33932],[-134.543159,63.339077],[-134.543766,63.33879],[-134.544079,63.338621],[-134.544294,63.338438],[-134.544905,63.338139],[-134.545775,63.337619],[-134.546796,63.337211],[-134.547109,63.337122],[-134.547391,63.337076],[-134.54771,63.336974],[-134.548443,63.336624],[-134.549177,63.336194],[-134.549913,63.335877],[-134.550125,63.335661],[-134.550325,63.335358],[-134.550405,63.335059],[-134.550823,63.334765],[-134.550897,63.334525],[-134.550834,63.334454],[-134.550991,63.334266],[-134.551266,63.334041],[-134.551978,63.33371],[-134.551989,63.333558],[-134.552121,63.333482],[-134.553161,63.332418],[-134.554001,63.331976],[-134.554252,63.331896],[-134.555077,63.331698],[-134.555698,63.331373],[-134.556049,63.330941],[-134.556326,63.330305],[-134.556954,63.329841],[-134.557504,63.328947],[-134.557835,63.328726],[-134.558055,63.32853],[-134.558369,63.328076],[-134.558547,63.327712],[-134.558513,63.327563],[-134.558596,63.327297],[-134.558696,63.327185],[-134.559006,63.326983],[-134.558976,63.326663],[-134.559089,63.326193],[-134.559027,63.326123],[-134.559105,63.32579],[-134.559152,63.325741],[-134.559165,63.325304],[-134.559267,63.324986],[-134.559644,63.324239],[-134.55968,63.324102],[-134.561593,63.323349],[-134.562225,63.323316],[-134.562449,63.323266],[-134.562643,63.323181],[-134.56275,63.32309],[-134.563032,63.322361],[-134.563622,63.321397],[-134.564051,63.319745],[-134.56492,63.318861],[-134.565099,63.318576],[-134.565095,63.318383],[-134.565413,63.317677],[-134.565738,63.317516],[-134.565742,63.317423],[-134.565629,63.317289],[-134.565268,63.316745],[-134.565276,63.316241],[-134.565389,63.315852],[-134.565613,63.315643],[-134.566713,63.315015],[-134.567381,63.313957],[-134.567442,63.313551],[-134.567381,63.313433],[-134.567452,63.312636],[-134.567588,63.312547],[-134.567614,63.312357],[-134.568086,63.311954],[-134.569406,63.311369],[-134.569587,63.311196],[-134.569979,63.311093],[-134.570492,63.310859],[-134.570962,63.310582],[-134.572036,63.310145],[-134.572749,63.309607],[-134.572906,63.30934],[-134.573037,63.309264],[-134.573226,63.309192],[-134.573273,63.309142],[-134.57284,63.308997],[-134.572691,63.30884],[-134.572606,63.308549],[-134.572361,63.308332],[-134.572337,63.308237],[-134.572893,63.308046],[-134.573057,63.30788],[-134.573231,63.307607],[-134.573122,63.306697],[-134.57293,63.306577],[-134.572469,63.306066],[-134.572295,63.305734],[-134.572709,63.305168],[-134.572978,63.305036],[-134.573167,63.304884],[-134.573175,63.30454],[-134.573241,63.304439],[-134.573864,63.304146],[-134.574265,63.304017],[-134.574406,63.303994],[-134.574946,63.303809],[-134.576085,63.302952],[-134.576299,63.302609],[-134.576239,63.302207],[-134.576384,63.302012],[-134.57668,63.301769],[-134.576965,63.301837],[-134.577563,63.302053],[-134.577607,63.302176],[-134.578253,63.302423],[-134.578254,63.302662],[-134.578343,63.302781],[-134.578313,63.302905],[-134.578467,63.303208],[-134.578692,63.303317],[-134.579284,63.303434],[-134.579632,63.303891],[-134.579726,63.304077],[-134.579754,63.304284],[-134.579618,63.304374],[-134.57942,63.304472],[-134.579027,63.305384],[-134.578697,63.305923],[-134.57862,63.306335],[-134.578918,63.306649],[-134.579433,63.306893],[-134.580033,63.306904],[-134.580339,63.306953],[-134.580422,63.307212],[-134.580339,63.307477],[-134.580058,63.307602],[-134.579802,63.307617],[-134.579663,63.307593],[-134.579128,63.307686],[-134.578956,63.307753],[-134.578847,63.307891],[-134.578517,63.309113],[-134.578917,63.309633],[-134.57913,63.309735],[-134.579392,63.309947],[-134.579515,63.310294],[-134.57935,63.311349],[-134.57964,63.311563],[-134.579813,63.312179],[-134.579731,63.312684],[-134.579902,63.312902],[-134.579987,63.313114],[-134.579863,63.31329],[-134.579744,63.313374],[-134.579692,63.313596],[-134.579892,63.313737],[-134.579906,63.313857],[-134.579852,63.314045],[-134.579578,63.31427],[-134.579347,63.314379],[-134.578632,63.315122],[-134.578582,63.315662],[-134.577591,63.316517],[-134.577641,63.317469],[-134.577551,63.317714],[-134.577129,63.31818],[-134.576494,63.318465],[-134.576155,63.31903],[-134.576149,63.319328],[-134.576458,63.31949],[-134.57684,63.319777],[-134.576818,63.320319],[-134.576615,63.320795],[-134.575824,63.321664],[-134.575613,63.32204],[-134.575666,63.32266],[-134.575611,63.323293],[-134.575299,63.323621],[-134.575175,63.323798],[-134.574813,63.325714],[-134.574718,63.325813],[-134.574553,63.3259],[-134.574353,63.326124],[-134.574333,63.326461],[-134.574711,63.327523],[-134.574793,63.328225],[-134.575039,63.328761],[-134.575102,63.329071],[-134.575415,63.329869],[-134.575389,63.330139],[-134.574872,63.330625],[-134.574369,63.331596],[-134.574197,63.331742],[-134.573775,63.332493],[-134.573257,63.332899],[-134.572688,63.333162],[-134.5724,63.333426],[-134.572162,63.333674],[-134.57179,63.333964],[-134.571252,63.334183],[-134.57102,63.334212],[-134.570774,63.33428],[-134.569949,63.334637],[-134.568533,63.335321],[-134.567678,63.335802],[-134.567582,63.335901],[-134.566921,63.336216],[-134.56641,63.336643],[-134.564745,63.337521],[-134.563822,63.338228],[-134.563475,63.338408],[-134.562345,63.338875],[-134.561761,63.339541],[-134.561591,63.339641],[-134.560483,63.340169],[-134.559657,63.340366],[-134.559426,63.340475],[-134.559393,63.340645],[-134.559503,63.340746],[-134.559503,63.340826],[-134.559425,63.340919],[-134.55882,63.34108],[-134.55853,63.341105],[-134.556733,63.341456],[-134.556499,63.341532],[-134.555581,63.341941],[-134.554711,63.34238],[-134.55391,63.342593],[-134.553382,63.342786],[-134.55287,63.343053],[-134.551832,63.343831],[-134.55121,63.344236],[-134.549965,63.344694],[-134.549493,63.344812],[-134.548898,63.345026],[-134.548186,63.345517],[-134.546797,63.346044],[-134.545552,63.346297],[-134.545189,63.346402],[-134.544593,63.346617],[-134.544368,63.346746],[-134.543459,63.347494],[-134.541762,63.348495],[-134.539951,63.349807],[-134.539571,63.350236],[-134.538555,63.350791],[-134.538311,63.350892],[-134.537279,63.351087],[-134.536652,63.351107],[-134.536391,63.350975]],[[-134.568809,63.316821],[-134.568486,63.316857],[-134.568096,63.316755],[-134.567706,63.316733],[-134.567548,63.316761],[-134.567503,63.316924],[-134.567734,63.3171],[-134.567895,63.317344],[-134.568155,63.317681],[-134.56832,63.317753],[-134.568456,63.317744],[-134.568523,63.317722],[-134.568542,63.317591],[-134.56911,63.317248],[-134.569259,63.316881],[-134.569232,63.316833],[-134.568809,63.316821]]]},"properties":{"WATERBODY_TYPE":"Lake","OFFICIAL_NAME_LABEL":"Narrow Lake","PERMANENCY":"Permanent"}},{"type":"Feature","geometry":{"type":"Polygon","coordinates":[[[-134.903347,63.369489],[-134.904101,63.369861],[-134.904161,63.369898],[-134.903076,63.369794],[-134.902926,63.369717],[-134.903047,63.369587],[-134.903347,63.369489]]]},"properties":{"WATERBODY_TYPE":"River","OFFICIAL_NAME_LABEL":"Old Pass Creek","PERMANENCY":"Permanent"}},{"type":"Feature","geometry":{"type":"Polygon","coordinates":[[[-134.901698,63.369603],[-134.902036,63.369607],[-134.902181,63.369697],[-134.902288,63.369811],[-134.902057,63.36992],[-134.901455,63.370036],[-134.901303,63.369926],[-134.901402,63.369688],[-134.901698,63.369603]]]},"properties":{"WATERBODY_TYPE":"River","OFFICIAL_NAME_LABEL":"Old Pass Creek","PERMANENCY":"Permanent"}},{"type":"Feature","geometry":{"type":"Polygon","coordinates":[[[-134.90039,63.370086],[-134.900736,63.37019],[-134.900914,63.370395],[-134.901,63.370527],[-134.900868,63.37065],[-134.900703,63.370658],[-134.900338,63.370605],[-134.899894,63.370441],[-134.899796,63.370301],[-134.899957,63.37018],[-134.90039,63.370086]]]},"properties":{"WATERBODY_TYPE":"River","OFFICIAL_NAME_LABEL":"Old Pass Creek","PERMANENCY":"Permanent"}},{"type":"Feature","geometry":{"type":"Polygon","coordinates":[[[-134.860604,63.326006],[-134.860278,63.326009],[-134.860253,63.325914],[-134.86007,63.325848],[-134.859772,63.325774],[-134.859311,63.325787],[-134.859049,63.325861],[-134.85881,63.325744],[-134.858472,63.32566],[-134.858119,63.325615],[-134.857809,63.325533],[-134.857679,63.325484],[-134.857745,63.325383],[-134.857785,63.325313],[-134.857758,63.325264],[-134.857652,63.32523],[-134.857422,63.325214],[-134.85723,63.325173],[-134.856999,63.325077],[-134.856974,63.324983],[-134.856841,63.3249],[-134.856448,63.324845],[-134.856394,63.324749],[-134.856393,63.324543],[-134.856697,63.324353],[-134.857012,63.324296],[-134.857246,63.3243],[-134.857414,63.324325],[-134.857795,63.324498],[-134.858448,63.324526],[-134.858602,63.324384],[-134.858735,63.324341],[-134.859272,63.324406],[-134.859739,63.324585],[-134.86035,63.324649],[-134.860446,63.324709],[-134.86052,63.324834],[-134.860749,63.324976],[-134.861094,63.325127],[-134.861302,63.325162],[-134.861468,63.325233],[-134.861578,63.32538],[-134.861714,63.325496],[-134.861949,63.325579],[-134.862079,63.325754],[-134.861901,63.325881],[-134.861649,63.326008],[-134.861412,63.326303],[-134.861306,63.326394],[-134.861249,63.326264],[-134.861161,63.326178],[-134.861071,63.326059],[-134.860912,63.326008],[-134.860604,63.326006]]]},"properties":{"WATERBODY_TYPE":"Lake","OFFICIAL_NAME_LABEL":null,"PERMANENCY":"Intermittent"}},{"type":"Feature","geometry":{"type":"Polygon","coordinates":[[[-134.856147,63.3254],[-134.856449,63.325462],[-134.856639,63.325548],[-134.856698,63.325632],[-134.856795,63.325692],[-134.85697,63.325738],[-134.85706,63.325857],[-134.857011,63.325953],[-134.856752,63.32606],[-134.856329,63.326255],[-134.856197,63.326378],[-134.856223,63.326552],[-134.856345,63.326707],[-134.856529,63.326852],[-134.856611,63.326951],[-134.856715,63.327031],[-134.856891,63.327077],[-134.857081,63.327164],[-134.857066,63.327249],[-134.857134,63.327386],[-134.857375,63.327456],[-134.857694,63.327513],[-134.857262,63.327607],[-134.856684,63.327659],[-134.856082,63.327569],[-134.855969,63.327514],[-134.855437,63.326979],[-134.855346,63.32678],[-134.855343,63.326621],[-134.855514,63.326474],[-134.855787,63.326328],[-134.856114,63.325948],[-134.856147,63.3254]]]},"properties":{"WATERBODY_TYPE":"Lake","OFFICIAL_NAME_LABEL":null,"PERMANENCY":"Intermittent"}},{"type":"Feature","geometry":{"type":"Polygon","coordinates":[[[-134.855021,63.423717],[-134.854882,63.423694],[-134.85463,63.423695],[-134.854465,63.423578],[-134.854552,63.423332],[-134.85468,63.423222],[-134.854717,63.423119],[-134.854656,63.423002],[-134.85452,63.422886],[-134.854506,63.422799],[-134.854678,63.422731],[-134.854877,63.422713],[-134.855005,63.422728],[-134.855113,63.422716],[-134.85548,63.422391],[-134.85563,63.422468],[-134.85569,63.422632],[-134.855857,63.422703],[-134.856167,63.422706],[-134.856367,63.422641],[-134.85652,63.422546],[-134.856518,63.422466],[-134.85613,63.422021],[-134.856221,63.421808],[-134.856489,63.421722],[-134.856805,63.421665],[-134.857101,63.421706],[-134.857536,63.421896],[-134.857781,63.422079],[-134.85824,63.422285],[-134.858924,63.422314],[-134.85919,63.422273],[-134.859412,63.422316],[-134.859705,63.422529],[-134.860015,63.422657],[-134.859749,63.422698],[-134.859472,63.422684],[-134.859267,63.422762],[-134.859031,63.422885],[-134.85888,63.422934],[-134.858744,63.422944],[-134.858424,63.422888],[-134.858161,63.422961],[-134.858117,63.423124],[-134.858117,63.42325],[-134.857902,63.423354],[-134.857698,63.423385],[-134.857374,63.423342],[-134.85719,63.423402],[-134.8571,63.423488],[-134.857104,63.423601],[-134.856963,63.423704],[-134.856676,63.423763],[-134.856338,63.423758],[-134.856069,63.423766],[-134.855712,63.423813],[-134.855063,63.423932],[-134.855089,63.423775],[-134.855021,63.423717]]]},"properties":{"WATERBODY_TYPE":"Lake","OFFICIAL_NAME_LABEL":null,"PERMANENCY":"Intermittent"}},{"type":"Feature","geometry":{"type":"Polygon","coordinates":[[[-134.911943,63.368142],[-134.911752,63.368182],[-134.910623,63.368287],[-134.910192,63.368461],[-134.910031,63.368582],[-134.909727,63.368647],[-134.909313,63.36869],[-134.909029,63.368577],[-134.909058,63.368453],[-134.909393,63.367967],[-134.909671,63.367808],[-134.910207,63.367793],[-134.910553,63.367692],[-134.911087,63.367644],[-134.9113,63.367666],[-134.911849,63.367785],[-134.912271,63.367967],[-134.911943,63.368142]]]},"properties":{"WATERBODY_TYPE":"River","OFFICIAL_NAME_LABEL":"Old Pass Creek","PERMANENCY":"Intermittent"}}]}