{"type":"FeatureCollection","name":"Game management subzones (GeoYukon; generalised, not for legal use)","features":[{"type":"Feature","geometry":{"type":"Polygon","coordinates":[[[-133.912506,63.520171],[-133.91327,63.519743],[-133.914396,63.5192],[-133.915254,63.518852],[-133.916739,63.518376],[-133.917363,63.518103],[-133.917852,63.51778],[-133.918092,63.51772],[-133.918992,63.516933],[-133.919395,63.516163],[-133.9199,63.515505],[-133.919514,63.515054],[-133.919747,63.514255],[-133.919893,63.513956],[-133.920584,63.513144],[-133.921356,63.512624],[-133.923258,63.511747],[-133.924345,63.511043],[-133.924935,63.510859],[-133.926343,63.51049],[-133.927185,63.509927],[-133.927511,63.509746],[-133.929157,63.508574],[-133.93001,63.508097],[-133.93108,63.507426],[-133.933371,63.506139],[-133.934075,63.505616],[-133.934512,63.505163],[-133.934913,63.504386],[-133.934405,63.504132],[-133.934382,63.5041],[-133.933834,63.503601],[-133.933616,63.503085],[-133.93358,63.502871],[-133.933672,63.502092],[-133.934086,63.500947],[-133.934173,63.500912],[-133.935374,63.500363],[-133.935482,63.499492],[-133.935465,63.498842],[-133.935219,63.497595],[-133.934691,63.496117],[-133.934238,63.493876],[-133.934127,63.492248],[-133.934146,63.491657],[-133.934551,63.490157],[-133.935086,63.488964],[-133.935288,63.488692],[-133.93629,63.487762],[-133.936552,63.487589],[-133.939213,63.486041],[-133.939624,63.485737],[-133.94015,63.485407],[-133.942307,63.484337],[-133.94297,63.48396],[-133.945636,63.482278],[-133.945843,63.48209],[-133.946316,63.481417],[-133.946733,63.481047],[-133.947179,63.480171],[-133.948731,63.477798],[-133.949178,63.477243],[-133.950118,63.47634],[-133.950313,63.476176],[-133.951354,63.475529],[-133.953273,63.473967],[-133.955483,63.471875],[-133.956968,63.470238],[-133.958024,63.468716],[-133.959338,63.466271],[-133.959645,63.465812],[-133.96056,63.464981],[-133.960935,63.46471],[-133.961938,63.46416],[-133.962659,63.463845],[-133.963697,63.463459],[-133.964625,63.463172],[-133.970304,63.461703],[-133.971162,63.461447],[-133.972627,63.460848],[-133.974628,63.45978],[-133.974681,63.459741],[-133.976335,63.458145],[-133.977302,63.456846],[-133.979911,63.451772],[-133.980765,63.450777],[-133.981137,63.450426],[-133.981852,63.449892],[-133.982754,63.449379],[-133.98312,63.449199],[-133.984346,63.4487],[-133.984655,63.448601],[-133.986173,63.448238],[-133.98688,63.44811],[-133.993555,63.447193],[-133.994488,63.447037],[-133.99637,63.446685],[-133.997515,63.44641],[-133.999249,63.445838],[-134.0011,63.445396],[-134.002918,63.444876],[-134.005099,63.443851],[-134.010568,63.441538],[-134.013785,63.439851],[-134.019794,63.435881],[-134.021085,63.434947],[-134.028739,63.429637],[-134.0326,63.426345],[-134.033096,63.425804],[-134.033717,63.425145],[-134.036246,63.422874],[-134.039032,63.420926],[-134.041824,63.419067],[-134.042829,63.418063],[-134.044656,63.415114],[-134.04511,63.414564],[-134.045851,63.413966],[-134.047114,63.413152],[-134.049516,63.411811],[-134.049878,63.41166],[-134.053998,63.410214],[-134.05435,63.410098],[-134.059244,63.408633],[-134.06333,63.407275],[-134.063511,63.407186],[-134.066159,63.40547],[-134.06641,63.405047],[-134.066577,63.403622],[-134.068229,63.403462],[-134.074042,63.402001],[-134.076794,63.402333],[-134.078574,63.40177],[-134.07971,63.398196],[-134.081274,63.396851],[-134.083815,63.395619],[-134.084378,63.394286],[-134.085167,63.393393],[-134.088709,63.392159],[-134.092599,63.389383],[-134.09411,63.389052],[-134.095371,63.389042],[-134.098312,63.389707],[-134.1033,63.390151],[-134.106542,63.390162],[-134.108053,63.389831],[-134.110054,63.389825],[-134.110318,63.389719],[-134.112566,63.389482],[-134.120158,63.387922],[-134.122406,63.388367],[-134.129217,63.386793],[-134.131225,63.385881],[-134.133549,63.38445],[-134.133609,63.383795],[-134.134952,63.382376],[-134.138249,63.382522],[-134.143845,63.381371],[-134.146903,63.380088],[-134.149188,63.377911],[-134.156192,63.375772],[-134.15896,63.374145],[-134.158999,63.372817],[-134.157276,63.372242],[-134.154796,63.372218],[-134.151564,63.371975],[-134.149834,63.371623],[-134.148887,63.370505],[-134.149894,63.369613],[-134.156695,63.36679],[-134.159694,63.366135],[-134.161426,63.366387],[-134.162146,63.367056],[-134.163642,63.36719],[-134.166896,63.365989],[-134.16891,63.36478],[-134.170182,63.363665],[-134.170558,63.360328],[-134.172332,63.359118],[-134.180625,63.35571],[-134.18099,63.352706],[-134.183539,63.350934],[-134.18357,63.34983],[-134.182623,63.348694],[-134.18045,63.347102],[-134.180006,63.345879],[-134.180537,63.344769],[-134.183333,63.342667],[-134.184633,63.34122],[-134.187154,63.339682],[-134.189467,63.337684],[-134.191076,63.334453],[-134.190378,63.332995],[-134.188239,63.330946],[-134.183382,63.328988],[-134.18042,63.328505],[-134.178457,63.328027],[-134.176532,63.326894],[-134.174826,63.326525],[-134.172856,63.326289],[-134.171654,63.325717],[-134.171224,63.324018],[-134.175179,63.32396],[-134.178923,63.322869],[-134.184461,63.320477],[-134.186709,63.320059],[-134.190663,63.32001],[-134.195151,63.318716],[-134.199846,63.318563],[-134.203078,63.317908],[-134.218798,63.320445],[-134.228354,63.322902],[-134.232824,63.323725],[-134.23381,63.32417],[-134.23453,63.325637],[-134.236734,63.32687],[-134.24172,63.327821],[-134.243445,63.329059],[-134.244927,63.329642],[-134.247178,63.329878],[-134.249682,63.329559],[-134.252994,63.328149],[-134.256756,63.327837],[-134.260252,63.327765],[-134.269837,63.326172],[-134.274605,63.326322],[-134.277579,63.327136],[-134.282054,63.327841],[-134.290808,63.328351],[-134.293027,63.329054],[-134.29645,63.331969],[-134.299878,63.333889],[-134.30209,63.334914],[-134.304319,63.335266],[-134.308307,63.335519],[-134.313197,63.333749],[-134.315905,63.327435],[-134.321624,63.324431],[-134.326591,63.316056],[-134.328517,63.315897],[-134.33255,63.315009],[-134.336583,63.313206],[-134.340142,63.311167],[-134.343426,63.309809],[-134.353209,63.307808],[-134.357521,63.305888],[-134.358842,63.303031],[-134.362655,63.30111],[-134.3682,63.299303],[-134.372209,63.298406],[-134.374266,63.297383],[-134.375313,63.295072],[-134.378636,63.292672],[-134.380939,63.291291],[-134.383476,63.290144],[-134.386122,63.288558],[-134.389766,63.283305],[-134.422138,63.277235],[-134.452016,63.275177],[-134.475809,63.273489],[-134.528492,63.269146],[-134.54459,63.266873],[-134.570882,63.259082],[-134.579691,63.255923],[-134.603221,63.248013],[-134.632983,63.2374],[-134.668483,63.22822],[-134.691262,63.222925],[-134.720728,63.222902],[-134.731975,63.222448],[-134.763607,63.215358],[-134.772862,63.203862],[-134.774886,63.201864],[-134.776434,63.199542],[-134.777245,63.19755],[-134.783693,63.196456],[-134.790851,63.196144],[-134.796042,63.195595],[-134.798034,63.194934],[-134.798796,63.194046],[-134.799865,63.191714],[-134.801423,63.190496],[-134.802679,63.189941],[-134.80618,63.189497],[-134.811146,63.189719],[-134.815355,63.190263],[-134.818357,63.190151],[-134.823414,63.188586],[-134.82899,63.186367],[-134.82979,63.185587],[-134.828345,63.184706],[-134.828625,63.184258],[-134.830872,63.183928],[-134.840589,63.183589],[-134.846572,63.183022],[-134.853434,63.181512],[-134.86182,63.180937],[-134.865418,63.18042],[-134.868974,63.180459],[-134.873817,63.181496],[-134.880471,63.181672],[-134.882554,63.18232],[-134.8837,63.183963],[-134.885743,63.184746],[-134.88926,63.184767],[-134.891744,63.184571],[-134.894266,63.184806],[-134.898316,63.185707],[-134.901555,63.18561],[-134.904519,63.184634],[-134.909989,63.182564],[-134.91474,63.181598],[-134.920762,63.180722],[-134.92102,63.180605],[-134.92253,63.180606],[-134.927539,63.179388],[-134.933857,63.17905],[-134.940135,63.178254],[-134.946173,63.178571],[-134.948418,63.178338],[-134.95138,63.176885],[-134.962526,63.174484],[-134.964771,63.174385],[-134.966002,63.174601],[-134.967492,63.174153],[-134.967712,63.17313],[-134.970691,63.172897],[-134.978674,63.173356],[-134.986657,63.174721],[-134.98914,63.175287],[-134.991165,63.17596],[-134.997223,63.175951],[-135.000262,63.1764],[-135.001553,63.17596],[-135.002348,63.175512],[-135.003897,63.173717],[-135.005962,63.173268],[-135.010292,63.17316],[-135.016209,63.172369],[-135.017481,63.172827],[-135.017938,63.174407],[-135.01921,63.174954],[-135.021256,63.174963],[-135.024889,63.173391],[-135.031284,63.173381],[-135.035176,63.172806],[-135.03877,63.17258],[-135.040558,63.172706],[-135.043617,63.173477],[-135.04745,63.17326],[-135.053922,63.172001],[-135.056462,63.170878],[-135.057214,63.169541],[-135.056674,63.167773],[-135.057105,63.164569],[-135.058314,63.163473],[-135.060277,63.162485],[-135.066468,63.161055],[-135.072379,63.159078],[-135.075098,63.159085],[-135.076113,63.159964],[-135.078567,63.213234],[-135.081561,63.212627],[-135.084064,63.211611],[-135.087026,63.211277],[-135.090029,63.211275],[-135.092993,63.211489],[-135.100444,63.209797],[-135.102413,63.209903],[-135.102891,63.210136],[-135.105038,63.209901],[-135.10931,63.208991],[-135.113385,63.208647],[-135.115012,63.207856],[-135.115685,63.206958],[-135.11809,63.206947],[-135.119803,63.20761],[-135.121234,63.207402],[-135.1231,63.206718],[-135.124791,63.206932],[-135.126524,63.20773],[-135.128951,63.207961],[-135.132093,63.208065],[-135.134043,63.208279],[-135.135255,63.208045],[-135.137314,63.206122],[-135.144651,63.202354],[-135.146688,63.200189],[-135.147061,63.1993],[-135.145584,63.197964],[-135.146654,63.197389],[-135.152532,63.196333],[-135.158431,63.195483],[-135.164292,63.195198],[-135.169819,63.195451],[-135.174254,63.195877],[-135.177255,63.195864],[-135.178506,63.195755],[-135.181575,63.196963],[-135.184844,63.198484],[-135.19285,63.200753],[-135.198723,63.20202],[-135.200677,63.202816],[-135.204174,63.205351],[-135.205682,63.207763],[-135.206209,63.209144],[-135.205247,63.210869],[-135.202834,63.212712],[-135.2031,63.213852],[-135.206097,63.215804],[-135.213781,63.219329],[-135.216777,63.221047],[-135.221745,63.222987],[-135.22992,63.225272],[-135.237157,63.226992],[-135.240389,63.228136],[-135.243647,63.229862],[-135.250123,63.230892],[-135.255588,63.232264],[-135.266042,63.235126],[-135.276783,63.238561],[-135.285055,63.241758],[-135.362097,63.267278],[-135.364609,63.268968],[-135.368878,63.270887],[-135.375849,63.272116],[-135.377832,63.272901],[-135.379843,63.27426],[-135.382321,63.274818],[-135.3906,63.275361],[-135.396758,63.275353],[-135.401717,63.273652],[-135.405195,63.272969],[-135.408424,63.27296],[-135.411401,63.273517],[-135.417647,63.275437],[-135.424838,63.276547],[-135.42956,63.277789],[-135.433037,63.279708],[-135.436026,63.280956],[-135.440264,63.281741],[-135.444215,63.281963],[-135.446705,63.281856],[-135.449188,63.281292],[-135.450198,63.280831],[-135.455423,63.280949],[-135.45792,63.281291],[-135.465385,63.281904],[-135.468631,63.282916],[-135.47015,63.284383],[-135.470166,63.286564],[-135.469437,63.288362],[-135.469715,63.289492],[-135.472728,63.290837],[-135.478499,63.292496],[-135.481761,63.294406],[-135.48378,63.295862],[-135.495565,63.299214],[-135.508092,63.300328],[-135.511606,63.300539],[-135.517841,63.300041],[-135.523088,63.29899],[-135.529354,63.298042],[-135.536849,63.297781],[-135.539847,63.298102],[-135.543882,63.299433],[-135.550131,63.302891],[-135.555651,63.306684],[-135.559179,63.307559],[-135.55991,63.30822],[-135.560444,63.311018],[-135.561911,63.312565],[-135.564921,63.314447],[-135.565672,63.316113],[-135.566185,63.318876],[-135.567436,63.320531],[-135.57044,63.322063],[-135.573434,63.323047],[-135.575695,63.323262],[-135.578199,63.322714],[-135.585194,63.319149],[-135.589191,63.316485],[-135.594958,63.31349],[-135.59521,63.313157],[-135.597204,63.313041],[-135.599192,63.312683],[-135.602374,63.313091],[-135.60337,63.314909],[-135.605072,63.315216],[-135.609896,63.314908],[-135.612794,63.314187],[-135.61592,63.313796],[-135.618104,63.313302],[-135.620259,63.313266],[-135.62172,63.313484],[-135.623174,63.313334],[-135.624823,63.312052],[-135.627227,63.311566],[-135.632576,63.312503],[-135.635249,63.312464],[-135.638353,63.311157],[-135.640755,63.310554],[-135.642659,63.309137],[-135.644838,63.309324],[-135.647265,63.30987],[-135.65678,63.309736],[-135.659244,63.310174],[-135.660802,63.311082],[-135.662111,63.312467],[-135.663885,63.313258],[-135.665382,63.313242],[-135.666598,63.312321],[-135.669346,63.312074],[-135.67161,63.311615],[-135.67415,63.311827],[-135.680241,63.312857],[-135.684306,63.312614],[-135.691909,63.312595],[-135.694688,63.313622],[-135.695486,63.314417],[-135.694994,63.315569],[-135.695738,63.315789],[-135.696996,63.314984],[-135.697231,63.31396],[-135.699266,63.31395],[-135.701304,63.314856],[-135.703086,63.315071],[-135.703085,63.316678],[-135.70562,63.316683],[-135.71118,63.315525],[-135.711935,63.317011],[-135.712693,63.317788],[-135.715225,63.318475],[-135.71549,63.319488],[-135.714723,63.319959],[-135.708418,63.32008],[-135.707417,63.320776],[-135.707679,63.321672],[-135.709441,63.322696],[-135.708953,63.323147],[-135.706679,63.324056],[-135.706456,63.325529],[-135.701405,63.325545],[-135.699659,63.32602],[-135.699401,63.326919],[-135.700673,63.327496],[-135.702215,63.328485],[-135.702228,63.329849],[-135.701227,63.330545],[-135.697712,63.330553],[-135.694422,63.329097],[-135.692936,63.329571],[-135.691202,63.329696],[-135.68618,63.329281],[-135.683697,63.329858],[-135.681496,63.331358],[-135.680735,63.331254],[-135.676503,63.331301],[-135.675016,63.331766],[-135.671343,63.334422],[-135.669846,63.334447],[-135.666855,63.333797],[-135.660897,63.333529],[-135.654478,63.334043],[-135.651062,63.334884],[-135.649869,63.337753],[-135.648149,63.338559],[-135.642068,63.339054],[-135.638643,63.339536],[-135.634773,63.340693],[-135.634778,63.340908],[-135.631617,63.341604],[-135.629182,63.34262],[-135.626017,63.344977],[-135.623555,63.345724],[-135.61913,63.348058],[-135.618135,63.348269],[-135.617149,63.347932],[-135.617144,63.346757],[-135.616651,63.346113],[-135.614192,63.34606],[-135.61219,63.346796],[-135.607993,63.347702],[-135.607753,63.348664],[-135.607248,63.349312],[-135.605266,63.349168],[-135.603766,63.348133],[-135.602544,63.348004],[-135.601032,63.348306],[-135.598084,63.351639],[-135.596327,63.351719],[-135.594071,63.350831],[-135.592073,63.350848],[-135.590825,63.3514],[-135.588836,63.351839],[-135.587307,63.351325],[-135.586539,63.349919],[-135.584782,63.350034],[-135.582023,63.350952],[-135.58127,63.352247],[-135.580023,63.352827],[-135.576233,63.35321],[-135.570965,63.354596],[-135.56642,63.355215],[-135.562408,63.356487],[-135.5584,63.356961],[-135.548592,63.357277],[-135.547841,63.357738],[-135.547586,63.360081],[-135.545327,63.361113],[-135.542814,63.362487],[-135.542079,63.364859],[-135.54083,63.36542],[-135.537294,63.365577],[-135.53529,63.366375],[-135.534272,63.366495],[-135.533264,63.36605],[-135.531235,63.365501],[-135.524656,63.365445],[-135.522406,63.365929],[-135.522134,63.367491],[-135.520905,63.36807],[-135.515359,63.368781],[-135.513062,63.368924],[-135.512036,63.368596],[-135.510251,63.367157],[-135.508466,63.366832],[-135.506953,63.367187],[-135.506973,63.368318],[-135.505509,63.369202],[-135.501585,63.370114],[-135.497606,63.370119],[-135.495613,63.369354],[-135.494128,63.369027],[-135.492392,63.369239],[-135.489194,63.370489],[-135.483049,63.372511],[-135.476138,63.374222],[-135.473398,63.37424],[-135.471124,63.37335],[-135.465905,63.373376],[-135.462133,63.372607],[-135.45916,63.373075],[-135.457168,63.372291],[-135.454738,63.370342],[-135.448533,63.369976],[-135.446297,63.370208],[-135.442055,63.371316],[-135.440811,63.372334],[-135.440569,63.373564],[-135.439063,63.374466],[-135.436592,63.375012],[-135.433373,63.375103],[-135.43263,63.37489],[-135.429405,63.37454],[-135.425691,63.374973],[-135.423201,63.374281],[-135.421718,63.374043],[-135.420723,63.374387],[-135.420233,63.37507],[-135.419499,63.375494],[-135.418499,63.375497],[-135.417751,63.374943],[-135.415761,63.374258],[-135.41404,63.374137],[-135.409086,63.374564],[-135.404393,63.37648],[-135.398935,63.376675],[-135.397706,63.377468],[-135.395955,63.378137],[-135.392487,63.377563],[-135.391749,63.377673],[-135.389284,63.378802],[-135.381852,63.379459],[-135.37992,63.378558],[-135.376959,63.378539],[-135.375968,63.379232],[-135.373979,63.380126],[-135.367401,63.380341],[-135.365735,63.379896],[-135.363798,63.380108],[-135.36255,63.381125],[-135.361081,63.382035],[-135.359401,63.382039],[-135.358475,63.381584],[-135.351914,63.381591],[-135.349549,63.382836],[-135.345248,63.382846],[-135.343437,63.383631],[-135.343026,63.386109],[-135.339714,63.386898],[-135.338147,63.388015],[-135.334868,63.388256],[-135.333594,63.388806],[-135.333009,63.390154],[-135.330736,63.390832],[-135.327417,63.39285],[-135.326627,63.39374],[-135.325372,63.3943],[-135.322893,63.39453],[-135.323119,63.395068],[-135.322366,63.395743],[-135.320386,63.395855],[-135.319611,63.396296],[-135.319089,63.39794],[-135.317569,63.3999],[-135.314083,63.401406],[-135.309338,63.401408],[-135.305601,63.401936],[-135.303359,63.401932],[-135.300882,63.400528],[-135.29866,63.400524],[-135.297383,63.400948],[-135.296881,63.400833],[-135.293939,63.398882],[-135.293239,63.397035],[-135.291771,63.396365],[-135.29003,63.396359],[-135.285502,63.397867],[-135.284035,63.397314],[-135.281354,63.395327],[-135.280415,63.393453],[-135.279153,63.393347],[-135.277203,63.392454],[-135.275942,63.39234],[-135.274429,63.393213],[-135.274368,63.395206],[-135.274596,63.396067],[-135.273823,63.39684],[-135.272084,63.39705],[-135.268613,63.396168],[-135.266116,63.396711],[-135.264395,63.396714],[-135.262647,63.395946],[-135.262454,63.394501],[-135.261467,63.393857],[-135.259465,63.393744],[-135.258209,63.394293],[-135.256702,63.395831],[-135.255466,63.39638],[-135.253744,63.396383],[-135.253735,63.395271],[-135.252988,63.394626],[-135.250506,63.394513],[-135.247801,63.396502],[-135.24606,63.396514],[-135.245808,63.395069],[-135.244822,63.394514],[-135.242841,63.394527],[-135.241364,63.394978],[-135.239631,63.395986],[-135.238664,63.397657],[-135.237691,63.398556],[-135.236691,63.398665],[-135.234947,63.398345],[-135.234433,63.396686],[-135.231474,63.397041],[-135.231001,63.39793],[-135.230264,63.39838],[-135.228543,63.398508],[-135.226537,63.397847],[-135.223054,63.397862],[-135.219334,63.398217],[-135.216096,63.398886],[-135.212334,63.39891],[-135.212025,63.397798],[-135.211023,63.397575],[-135.208784,63.398036],[-135.205952,63.396676],[-135.204951,63.396587],[-135.202994,63.397147],[-135.202299,63.398036],[-135.201105,63.398926],[-135.200125,63.399053],[-135.197858,63.398374],[-135.196157,63.398377],[-135.191522,63.399711],[-135.188562,63.400065],[-135.186099,63.399835],[-135.182878,63.400171],[-135.180203,63.401395],[-135.178462,63.401389],[-135.176526,63.402288],[-135.171802,63.402393],[-135.168105,63.40351],[-135.159964,63.40474],[-135.157746,63.405523],[-135.157509,63.406071],[-135.159012,63.406303],[-135.160015,63.406634],[-135.16004,63.407522],[-135.158104,63.408754],[-135.156364,63.40898],[-135.154097,63.408319],[-135.151856,63.408536],[-135.151379,63.409201],[-135.152167,63.410537],[-135.151189,63.411203],[-135.149687,63.411195],[-135.146161,63.410777],[-135.14239,63.409453],[-135.141391,63.41001],[-135.139171,63.410461],[-135.130684,63.411277],[-135.129166,63.41196],[-135.128948,63.412517],[-135.129694,63.413638],[-135.129195,63.414078],[-135.128195,63.414303],[-135.125688,63.413435],[-135.123685,63.413446],[-135.122185,63.413788],[-135.121927,63.414452],[-135.123415,63.415905],[-135.123419,63.416803],[-135.122402,63.417719],[-135.12064,63.417846],[-135.117634,63.417534],[-135.116895,63.417993],[-135.116859,63.419016],[-135.117342,63.419689],[-135.117567,63.420703],[-135.116808,63.421161],[-135.115286,63.421297],[-135.11278,63.420976],[-135.11126,63.421452],[-135.111227,63.423265],[-135.113997,63.424699],[-135.114262,63.425704],[-135.110503,63.427655],[-135.109509,63.429908],[-135.107772,63.431597],[-135.106253,63.432495],[-135.095429,63.43455],[-135.095289,63.434663],[-135.088667,63.436199],[-135.08827,63.436261],[-135.085914,63.436741],[-135.082612,63.437304],[-135.079981,63.438012],[-135.077752,63.438749],[-135.077646,63.438803],[-135.07593,63.440709],[-135.074917,63.441339],[-135.074781,63.44145],[-135.072467,63.442962],[-135.071708,63.443748],[-135.070195,63.444983],[-135.068655,63.445959],[-135.067316,63.446513],[-135.06615,63.44691],[-135.06171,63.449212],[-135.060447,63.44974],[-135.054329,63.452126],[-135.04789,63.454425],[-135.047008,63.454718],[-135.040362,63.45733],[-135.039902,63.457533],[-135.034444,63.460383],[-135.031216,63.461841],[-135.030925,63.461935],[-135.027016,63.463006],[-135.025983,63.463143],[-135.023778,63.463288],[-135.020267,63.463239],[-135.018937,63.463157],[-135.015012,63.462735],[-135.014958,63.462726],[-135.008778,63.461653],[-135.007134,63.46146],[-135.003481,63.461368],[-135.00298,63.461422],[-135.001182,63.461744],[-134.999411,63.462267],[-134.998373,63.462354],[-134.99636,63.46258],[-134.995321,63.462793],[-134.992403,63.46303],[-134.990735,63.463214],[-134.988328,63.463256],[-134.987764,63.463292],[-134.986323,63.463632],[-134.985942,63.46369],[-134.979294,63.464211],[-134.973712,63.464419],[-134.973,63.464385],[-134.972004,63.464531],[-134.969683,63.46482],[-134.964783,63.465103],[-134.960925,63.465127],[-134.959319,63.465084],[-134.95664,63.464875],[-134.955418,63.464716],[-134.952839,63.464118],[-134.951782,63.463794],[-134.951239,63.463584],[-134.949156,63.462541],[-134.948352,63.462059],[-134.946752,63.460868],[-134.945996,63.459913],[-134.945371,63.457763],[-134.944737,63.456887],[-134.945037,63.45678],[-134.944945,63.456044],[-134.944489,63.45434],[-134.944076,63.453906],[-134.942307,63.453245],[-134.941289,63.452986],[-134.93884,63.452687],[-134.938172,63.452662],[-134.934339,63.452883],[-134.933323,63.453006],[-134.932031,63.453276],[-134.929583,63.454445],[-134.926285,63.456643],[-134.926235,63.456695],[-134.926177,63.457078],[-134.927225,63.458993],[-134.927383,63.460343],[-134.927283,63.460924],[-134.926808,63.461783],[-134.926258,63.462469],[-134.925306,63.46336],[-134.92428,63.463963],[-134.922783,63.464579],[-134.920296,63.465326],[-134.917665,63.465879],[-134.915459,63.466166],[-134.912525,63.466511],[-134.911575,63.466577],[-134.907926,63.465829],[-134.905243,63.46569],[-134.904824,63.465648],[-134.904343,63.465647],[-134.9015,63.46595],[-134.899024,63.466384],[-134.896204,63.467106],[-134.89258,63.468162],[-134.890334,63.469012],[-134.887633,63.470181],[-134.886557,63.47079],[-134.882758,63.472394],[-134.882567,63.472467],[-134.880338,63.473462],[-134.877448,63.475122],[-134.87653,63.475555],[-134.872308,63.477266],[-134.870985,63.477711],[-134.866193,63.478818],[-134.86302,63.479319],[-134.859329,63.479647],[-134.858089,63.479584],[-134.856982,63.479337],[-134.854831,63.478428],[-134.853554,63.477229],[-134.853484,63.477148],[-134.851413,63.475208],[-134.851041,63.474689],[-134.850084,63.473701],[-134.849931,63.473512],[-134.849619,63.472214],[-134.849563,63.471555],[-134.849955,63.471256],[-134.850969,63.470827],[-134.852304,63.46959],[-134.852392,63.46907],[-134.85292,63.468669],[-134.850876,63.467661],[-134.850531,63.467548],[-134.848208,63.466523],[-134.845524,63.465777],[-134.843903,63.465607],[-134.842521,63.465519],[-134.838183,63.465634],[-134.836735,63.46572],[-134.833072,63.466268],[-134.832376,63.466401],[-134.829483,63.46713],[-134.827483,63.467815],[-134.827031,63.468015],[-134.824889,63.469435],[-134.823854,63.470279],[-134.823303,63.471035],[-134.822773,63.472344],[-134.822775,63.472437],[-134.823256,63.474055],[-134.823512,63.474524],[-134.824344,63.475863],[-134.827679,63.4799],[-134.829137,63.481263],[-134.829788,63.482319],[-134.829921,63.482738],[-134.829954,63.483233],[-134.829692,63.484576],[-134.829519,63.485008],[-134.82879,63.485941],[-134.827786,63.486689],[-134.826509,63.487531],[-134.825903,63.487879],[-134.825157,63.488184],[-134.820508,63.489683],[-134.818092,63.490273],[-134.817304,63.490413],[-134.811133,63.490849],[-134.80771,63.490969],[-134.806672,63.490942],[-134.799927,63.49095],[-134.796199,63.490713],[-134.795799,63.490706],[-134.793868,63.490572],[-134.793645,63.490576],[-134.793211,63.490531],[-134.792365,63.490562],[-134.789206,63.490446],[-134.789159,63.490437],[-134.785648,63.48962],[-134.785355,63.489507],[-134.784068,63.488784],[-134.782856,63.487763],[-134.782778,63.487626],[-134.782395,63.485004],[-134.782372,63.484754],[-134.783397,63.478837],[-134.782426,63.476426],[-134.782407,63.476193],[-134.782437,63.474491],[-134.782411,63.474331],[-134.782044,63.473128],[-134.78187,63.472743],[-134.780956,63.471929],[-134.780109,63.471456],[-134.77904,63.47103],[-134.776592,63.470316],[-134.776331,63.470266],[-134.772702,63.469951],[-134.770612,63.47002],[-134.769441,63.470106],[-134.767564,63.470403],[-134.766584,63.470619],[-134.76588,63.470848],[-134.764605,63.471482],[-134.763693,63.472103],[-134.762958,63.472891],[-134.762426,63.473755],[-134.762322,63.474015],[-134.762005,63.475551],[-134.762006,63.476019],[-134.76216,63.476138],[-134.763037,63.477995],[-134.763262,63.478774],[-134.763969,63.4805],[-134.764043,63.482118],[-134.763445,63.483537],[-134.763439,63.483545],[-134.761573,63.485146],[-134.761311,63.485324],[-134.757338,63.4873],[-134.756936,63.48745],[-134.753656,63.488334],[-134.752576,63.488545],[-134.750723,63.488666],[-134.749036,63.488586],[-134.747703,63.488487],[-134.744072,63.487958],[-134.743762,63.487883],[-134.739815,63.486414],[-134.736514,63.484911],[-134.733439,63.483074],[-134.733009,63.48287],[-134.731612,63.482374],[-134.730921,63.481759],[-134.730011,63.481145],[-134.728974,63.480864],[-134.726845,63.480437],[-134.723223,63.480182],[-134.721764,63.480244],[-134.72029,63.480522],[-134.718296,63.480989],[-134.717654,63.48119],[-134.716141,63.481805],[-134.714154,63.482152],[-134.71148,63.48286],[-134.711034,63.482999],[-134.70646,63.486196],[-134.705465,63.48679],[-134.702899,63.487411],[-134.702339,63.487689],[-134.700543,63.488395],[-134.699475,63.488625],[-134.699009,63.488651],[-134.698066,63.488374],[-134.696817,63.487639],[-134.695977,63.487217],[-134.694204,63.485238],[-134.694174,63.485151],[-134.695361,63.484799],[-134.697709,63.483137],[-134.698038,63.482923],[-134.699534,63.481328],[-134.700093,63.480984],[-134.700104,63.480979],[-134.702002,63.480484],[-134.703231,63.480014],[-134.705966,63.479289],[-134.708341,63.478405],[-134.709118,63.477999],[-134.710004,63.477327],[-134.711259,63.476195],[-134.712092,63.474791],[-134.713038,63.473657],[-134.714162,63.472149],[-134.714868,63.470736],[-134.71486,63.469554],[-134.714864,63.469511],[-134.714371,63.467576],[-134.713124,63.465577],[-134.711257,63.463616],[-134.708792,63.46219],[-134.708213,63.462014],[-134.707363,63.461865],[-134.706413,63.461839],[-134.705211,63.461862],[-134.704832,63.461903],[-134.704206,63.462463],[-134.702234,63.463057],[-134.701018,63.463531],[-134.692744,63.465203],[-134.689382,63.466079],[-134.688686,63.466305],[-134.687899,63.466335],[-134.687595,63.46638],[-134.687582,63.466379],[-134.683782,63.466745],[-134.683572,63.46677],[-134.680689,63.467432],[-134.675145,63.469942],[-134.668795,63.472975],[-134.667535,63.473905],[-134.667057,63.474464],[-134.666302,63.474635],[-134.664086,63.475295],[-134.662729,63.475509],[-134.660297,63.476101],[-134.658584,63.476573],[-134.656079,63.476888],[-134.653412,63.476576],[-134.653123,63.47656],[-134.652844,63.476243],[-134.652785,63.475676],[-134.651748,63.472524],[-134.651487,63.470586],[-134.651468,63.469371],[-134.651111,63.468625],[-134.650429,63.467896],[-134.649638,63.467338],[-134.647814,63.466571],[-134.647034,63.466343],[-134.644483,63.465831],[-134.643514,63.465609],[-134.634829,63.464105],[-134.634761,63.464096],[-134.63018,63.463218],[-134.626519,63.462823],[-134.623763,63.462607],[-134.620607,63.461992],[-134.619918,63.46195],[-134.616015,63.461783],[-134.609509,63.461348],[-134.600415,63.460256],[-134.597084,63.46005],[-134.594271,63.460207],[-134.591259,63.460441],[-134.587532,63.46067],[-134.583164,63.461552],[-134.580654,63.462059],[-134.575519,63.462944],[-134.574383,63.463052],[-134.573826,63.463084],[-134.566448,63.462913],[-134.561869,63.462688],[-134.559333,63.462627],[-134.550149,63.462517],[-134.547345,63.462457],[-134.543497,63.462255],[-134.539527,63.461934],[-134.537209,63.461752],[-134.535154,63.461433],[-134.534529,63.46132],[-134.533706,63.461356],[-134.527227,63.461094],[-134.527066,63.461079],[-134.521057,63.46077],[-134.520861,63.460724],[-134.515594,63.459294],[-134.512743,63.458187],[-134.509191,63.457174],[-134.508619,63.457104],[-134.506437,63.456978],[-134.505099,63.45657],[-134.505026,63.456552],[-134.501948,63.455711],[-134.499532,63.455291],[-134.495624,63.455007],[-134.488498,63.454849],[-134.486957,63.454893],[-134.486668,63.454901],[-134.48352,63.4552],[-134.47949,63.455361],[-134.476069,63.455396],[-134.475117,63.455356],[-134.472309,63.455131],[-134.468837,63.45464],[-134.468567,63.454573],[-134.465783,63.453592],[-134.463397,63.452618],[-134.461233,63.451814],[-134.459981,63.451304],[-134.457127,63.450285],[-134.454877,63.449866],[-134.452804,63.449698],[-134.450211,63.44962],[-134.447484,63.449779],[-134.446058,63.449842],[-134.445868,63.449865],[-134.443358,63.450644],[-134.440798,63.451778],[-134.439017,63.452395],[-134.437443,63.453489],[-134.437376,63.453526],[-134.436188,63.453931],[-134.430988,63.454933],[-134.423555,63.455929],[-134.417724,63.456476],[-134.417677,63.456469],[-134.416239,63.456535],[-134.410418,63.456627],[-134.40964,63.456588],[-134.407343,63.456408],[-134.40489,63.45628],[-134.403179,63.456146],[-134.398774,63.455394],[-134.397972,63.455294],[-134.394674,63.455419],[-134.394396,63.455448],[-134.392315,63.455976],[-134.392062,63.45607],[-134.391874,63.456218],[-134.391426,63.457277],[-134.391205,63.458952],[-134.391202,63.463602],[-134.391379,63.463712],[-134.392495,63.464902],[-134.392566,63.464934],[-134.392685,63.465038],[-134.393155,63.466891],[-134.393103,63.469165],[-134.392921,63.469438],[-134.391724,63.470721],[-134.391489,63.470897],[-134.390963,63.471025],[-134.390575,63.471587],[-134.389147,63.473125],[-134.389066,63.47319],[-134.387431,63.47429],[-134.386366,63.474783],[-134.385599,63.475075],[-134.384735,63.475665],[-134.381531,63.476834],[-134.381381,63.47685],[-134.381187,63.477325],[-134.379161,63.478184],[-134.378124,63.478557],[-134.377699,63.478639],[-134.377438,63.478791],[-134.3735,63.479829],[-134.372247,63.480118],[-134.369228,63.480519],[-134.368137,63.481],[-134.368106,63.48101],[-134.366599,63.481411],[-134.362837,63.481729],[-134.361714,63.481741],[-134.358439,63.481645],[-134.356396,63.481497],[-134.35595,63.481414],[-134.355731,63.481382],[-134.353943,63.481597],[-134.353794,63.481616],[-134.352978,63.481656],[-134.352349,63.481573],[-134.346607,63.481851],[-134.341765,63.482748],[-134.341366,63.482766],[-134.339591,63.482776],[-134.334747,63.483054],[-134.33386,63.483037],[-134.330346,63.482827],[-134.330204,63.4828],[-134.326977,63.481788],[-134.326615,63.48131],[-134.326424,63.479875],[-134.326136,63.479591],[-134.325304,63.478902],[-134.324195,63.478208],[-134.322323,63.477218],[-134.32221,63.477194],[-134.319826,63.476233],[-134.319739,63.476209],[-134.316128,63.475385],[-134.31243,63.475191],[-134.312222,63.475302],[-134.311338,63.476198],[-134.308901,63.477205],[-134.305642,63.479023],[-134.303589,63.480618],[-134.301288,63.482117],[-134.299357,63.48316],[-134.298568,63.483503],[-134.296287,63.484287],[-134.29423,63.484767],[-134.293805,63.484796],[-134.290499,63.484632],[-134.288828,63.484459],[-134.286103,63.483861],[-134.285335,63.483683],[-134.281004,63.482464],[-134.277556,63.481171],[-134.275727,63.480304],[-134.274493,63.479265],[-134.272676,63.478255],[-134.272499,63.478131],[-134.270573,63.477052],[-134.270319,63.476938],[-134.268224,63.476231],[-134.267514,63.476042],[-134.26338,63.475698],[-134.262704,63.475692],[-134.259709,63.475922],[-134.259641,63.475929],[-134.256805,63.476442],[-134.256266,63.476586],[-134.253927,63.477442],[-134.253424,63.477696],[-134.25182,63.478739],[-134.25076,63.479935],[-134.250675,63.480112],[-134.250381,63.482328],[-134.250463,63.483165],[-134.25033,63.485346],[-134.250558,63.486036],[-134.251661,63.487082],[-134.253162,63.488123],[-134.253797,63.488776],[-134.255565,63.491039],[-134.255845,63.491627],[-134.25602,63.492341],[-134.256023,63.493271],[-134.255863,63.493661],[-134.255106,63.494719],[-134.254754,63.494977],[-134.252465,63.496099],[-134.251564,63.49636],[-134.250503,63.496532],[-134.248666,63.496663],[-134.248406,63.496667],[-134.240315,63.496434],[-134.236963,63.496008],[-134.231428,63.494895],[-134.228757,63.494761],[-134.224278,63.494692],[-134.223944,63.494707],[-134.220542,63.495109],[-134.220045,63.495211],[-134.217215,63.496155],[-134.214784,63.497119],[-134.209914,63.498855],[-134.205123,63.500809],[-134.204863,63.501061],[-134.202934,63.501834],[-134.199516,63.503572],[-134.196411,63.50563],[-134.195528,63.506097],[-134.191347,63.507959],[-134.190095,63.508305],[-134.185004,63.509253],[-134.179699,63.510486],[-134.179441,63.510568],[-134.177235,63.511595],[-134.173542,63.512999],[-134.173518,63.513018],[-134.172775,63.513444],[-134.169305,63.514505],[-134.162008,63.516089],[-134.16127,63.516156],[-134.158355,63.516204],[-134.156272,63.516074],[-134.154045,63.516042],[-134.151297,63.515727],[-134.150674,63.515723],[-134.139339,63.514431],[-134.138403,63.514008],[-134.135602,63.513255],[-134.134497,63.512914],[-134.128461,63.511869],[-134.12555,63.511539],[-134.125539,63.51151],[-134.117034,63.512104],[-134.116779,63.512058],[-134.116034,63.512297],[-134.115913,63.512352],[-134.114456,63.51314],[-134.113311,63.514423],[-134.113198,63.514754],[-134.112517,63.516101],[-134.111558,63.517261],[-134.109746,63.519264],[-134.107377,63.521122],[-134.1055,63.522194],[-134.104183,63.522636],[-134.101251,63.523521],[-134.101023,63.523561],[-134.097456,63.52487],[-134.096362,63.525092],[-134.090777,63.524754],[-134.089922,63.524643],[-134.083429,63.52356],[-134.082955,63.523515],[-134.07724,63.523532],[-134.076172,63.523576],[-134.073408,63.523856],[-134.071447,63.524143],[-134.06913,63.524596],[-134.067779,63.524979],[-134.063715,63.527103],[-134.059773,63.528732],[-134.054565,63.530301],[-134.052008,63.53115],[-134.050445,63.531758],[-134.048154,63.532389],[-134.044766,63.533085],[-134.03504,63.533723],[-134.032998,63.533949],[-134.032778,63.533965],[-134.026256,63.534105],[-134.023627,63.534233],[-134.021262,63.534546],[-134.015485,63.535445],[-134.015171,63.535505],[-134.008339,63.537175],[-134.004024,63.538612],[-134.002097,63.539481],[-134.000733,63.539928],[-134.000645,63.539954],[-134.000266,63.540123],[-133.999859,63.54037],[-133.99951,63.540975],[-133.998946,63.542515],[-133.997698,63.544315],[-133.997408,63.544809],[-133.995646,63.547229],[-133.995528,63.547328],[-133.994987,63.547867],[-133.994032,63.548623],[-133.992329,63.549515],[-133.991831,63.549839],[-133.990963,63.550251],[-133.989813,63.550677],[-133.986666,63.552082],[-133.98617,63.552431],[-133.985067,63.552798],[-133.983678,63.553359],[-133.982195,63.554041],[-133.979104,63.55437],[-133.979041,63.554358],[-133.979432,63.553318],[-133.979338,63.55315],[-133.979354,63.553087],[-133.979189,63.553008],[-133.977981,63.552801],[-133.976411,63.551999],[-133.974061,63.552218],[-133.973947,63.552215],[-133.973582,63.552273],[-133.972526,63.552031],[-133.970936,63.551995],[-133.968723,63.55207],[-133.965396,63.552403],[-133.965036,63.552305],[-133.964687,63.552262],[-133.962755,63.553033],[-133.96252,63.553095],[-133.962428,63.553169],[-133.96109,63.554024],[-133.960765,63.554143],[-133.960509,63.554372],[-133.959219,63.554534],[-133.957833,63.554415],[-133.954662,63.554399],[-133.954143,63.554422],[-133.95074,63.554357],[-133.950241,63.554158],[-133.949615,63.554181],[-133.947667,63.554088],[-133.947647,63.554088],[-133.946638,63.55413],[-133.945406,63.554239],[-133.945038,63.554251],[-133.943791,63.554351],[-133.943537,63.554406],[-133.941567,63.554925],[-133.939681,63.55591],[-133.937562,63.556725],[-133.936042,63.557601],[-133.935038,63.55777],[-133.935029,63.557771],[-133.934399,63.557864],[-133.933859,63.557872],[-133.932298,63.557414],[-133.931722,63.557379],[-133.930428,63.55713],[-133.930289,63.55708],[-133.929902,63.556884],[-133.928709,63.555497],[-133.926857,63.554141],[-133.926404,63.553889],[-133.925935,63.55351],[-133.925519,63.553261],[-133.923988,63.552109],[-133.923697,63.551933],[-133.922472,63.55107],[-133.922048,63.550696],[-133.920211,63.549663],[-133.917111,63.548306],[-133.914001,63.547112],[-133.914,63.547112],[-133.912784,63.545878],[-133.912005,63.544713],[-133.911604,63.544246],[-133.909866,63.542553],[-133.909052,63.541949],[-133.908642,63.541688],[-133.907792,63.541298],[-133.907733,63.541257],[-133.906382,63.540579],[-133.905705,63.540384],[-133.905255,63.540163],[-133.90465,63.539547],[-133.904405,63.539282],[-133.903697,63.538334],[-133.902569,63.537267],[-133.902115,63.536898],[-133.901916,63.536833],[-133.901301,63.536401],[-133.901254,63.536367],[-133.899358,63.53511],[-133.899044,63.534821],[-133.898727,63.53462],[-133.898712,63.534587],[-133.898617,63.533715],[-133.898655,63.533538],[-133.899197,63.532806],[-133.900675,63.531412],[-133.90154,63.530778],[-133.90394,63.528421],[-133.90548,63.527061],[-133.906821,63.526084],[-133.907482,63.525438],[-133.909247,63.523413],[-133.909607,63.522753],[-133.910459,63.521794],[-133.912288,63.520344],[-133.912506,63.520171]]]},"properties":{"OFFICIAL_NAME":"4-09"}}]}